{"type":"FeatureCollection","features":[{"type":"Feature","properties":{"dt_adcode":"120101"},"geometry":{"type":"Polygon","coordinates":[[[117.179292,39.10199],[117.181168,39.13709],[117.190355,39.136844],[117.198956,39.1305],[117.211852,39.13348],[117.21414,39.126429],[117.222506,39.117484],[117.213568,39.113866],[117.213072,39.11199],[117.205739,39.108917],[117.196595,39.101624],[117.179292,39.10199]]]}},{"type":"Feature","properties":{"dt_adcode":"120102"},"geometry":{"type":"MultiPolygon","coordinates":[[[[113.754266,36.642557],[113.759886,36.645823],[113.774041,36.640563],[113.771607,36.635449],[113.765765,36.630987],[113.76571,36.627692],[113.772234,36.629849],[113.771896,36.633453],[113.774755,36.640308],[113.785186,36.640843],[113.787468,36.63841],[113.787639,36.633933],[113.783697,36.630967],[113.782257,36.623438],[113.77848,36.623576],[113.778874,36.61912],[113.775784,36.612988],[113.770505,36.611149],[113.772149,36.608459],[113.771161,36.606788],[113.76791,36.605874],[113.762363,36.599813],[113.762796,36.595894],[113.765968,36.593611],[113.765987,36.590469],[113.762193,36.590702],[113.758067,36.585977],[113.763565,36.582463],[113.762883,36.581305],[113.768436,36.576418],[113.761989,36.575033],[113.755805,36.578526],[113.754859,36.571863],[113.751422,36.571593],[113.750281,36.574493],[113.742126,36.576859],[113.738436,36.580475],[113.739771,36.58357],[113.746843,36.582701],[113.748499,36.589416],[113.744622,36.589371],[113.746119,36.595071],[113.74269,36.596711],[113.747162,36.603079],[113.752234,36.606984],[113.754422,36.606115],[113.756017,36.609468],[113.766105,36.617149],[113.758071,36.6194],[113.757248,36.627505],[113.754321,36.635066],[113.754266,36.642557]]],[[[117.261193,39.159017],[117.27684,39.162999],[117.290316,39.157142],[117.293404,39.15062],[117.279937,39.147354],[117.286647,39.13174],[117.271763,39.129325],[117.269869,39.126367],[117.27582,39.108069],[117.310673,39.100664],[117.30646,39.097831],[117.308079,39.096358],[117.306839,39.089244],[117.300642,39.090899],[117.299646,39.08703],[117.286268,39.089092],[117.286094,39.087154],[117.279946,39.086884],[117.278842,39.090591],[117.276339,39.090772],[117.274236,39.088794],[117.272332,39.09053],[117.267873,39.08529],[117.266978,39.079796],[117.25282,39.084063],[117.24604,39.087921],[117.241346,39.098611],[117.215466,39.124525],[117.212797,39.132888],[117.209772,39.133536],[117.211107,39.135674],[117.203619,39.140155],[117.204989,39.144226],[117.214221,39.148317],[117.215218,39.151407],[117.220923,39.144812],[117.229145,39.149784],[117.249928,39.149546],[117.248723,39.158397],[117.261193,39.159017]]]]}},{"type":"Feature","properties":{"dt_adcode":"120103"},"geometry":{"type":"Polygon","coordinates":[[[117.184618,39.070781],[117.179931,39.088048],[117.179292,39.10199],[117.196595,39.101624],[117.205739,39.108917],[117.213072,39.11199],[117.213568,39.113866],[117.222506,39.117484],[117.241346,39.098611],[117.245024,39.089246],[117.248557,39.086222],[117.260149,39.080914],[117.29245,39.077425],[117.292076,39.075414],[117.285996,39.070469],[117.288473,39.060201],[117.280474,39.059302],[117.283093,39.058995],[117.286822,39.051028],[117.280462,39.048924],[117.278045,39.05354],[117.274047,39.052314],[117.272304,39.055688],[117.269557,39.054843],[117.27123,39.05145],[117.267691,39.050365],[117.272532,39.042953],[117.266506,39.041231],[117.26729,39.039449],[117.234043,39.033193],[117.217725,39.034319],[117.217713,39.056218],[117.203879,39.071719],[117.188532,39.066925],[117.184618,39.070781]]]}},{"type":"Feature","properties":{"dt_adcode":"120104"},"geometry":{"type":"Polygon","coordinates":[[[117.188532,39.066925],[117.17018,39.061174],[117.164352,39.063058],[117.159061,39.062369],[117.133361,39.079313],[117.121408,39.084531],[117.136824,39.091086],[117.133823,39.097169],[117.131623,39.115078],[117.110786,39.13361],[117.122118,39.142941],[117.120947,39.146504],[117.126413,39.147672],[117.128964,39.152294],[117.134983,39.146916],[117.144322,39.148576],[117.145648,39.146333],[117.144122,39.144068],[117.158024,39.14118],[117.171837,39.141937],[117.171681,39.146467],[117.189027,39.145866],[117.194443,39.146993],[117.194207,39.134669],[117.192256,39.134344],[117.190355,39.136844],[117.181168,39.13709],[117.179805,39.121258],[117.179723,39.089329],[117.183899,39.072583],[117.188532,39.066925]]]}},{"type":"Feature","properties":{"dt_adcode":"120105"},"geometry":{"type":"Polygon","coordinates":[[[117.233479,39.193053],[117.249966,39.178452],[117.240956,39.170751],[117.250782,39.170908],[117.251702,39.168094],[117.258658,39.169957],[117.260534,39.167551],[117.260628,39.159009],[117.248723,39.158397],[117.249928,39.149546],[117.229145,39.149784],[117.220923,39.144812],[117.215218,39.151407],[117.214221,39.148317],[117.205743,39.144916],[117.20355,39.141284],[117.206227,39.137593],[117.211107,39.135674],[117.209772,39.133536],[117.200039,39.130451],[117.196989,39.131463],[117.194008,39.135251],[117.194443,39.146993],[117.175903,39.163622],[117.180045,39.168413],[117.178408,39.173389],[117.178479,39.180949],[117.172093,39.181508],[117.167553,39.184001],[117.169789,39.185803],[117.1812,39.188383],[117.180449,39.189386],[117.181772,39.190328],[117.183513,39.189104],[117.191918,39.191925],[117.197264,39.186104],[117.210712,39.192959],[117.21381,39.189857],[117.216116,39.191282],[117.221942,39.184696],[117.22398,39.184967],[117.233479,39.193053]]]}},{"type":"Feature","properties":{"dt_adcode":"120106"},"geometry":{"type":"Polygon","coordinates":[[[117.128479,39.152243],[117.106089,39.153347],[117.112794,39.155178],[117.099781,39.154519],[117.100723,39.162079],[117.128073,39.165346],[117.130807,39.178016],[117.134312,39.185351],[117.144024,39.191901],[117.146867,39.189156],[117.160041,39.190238],[117.162571,39.186694],[117.171149,39.181823],[117.178063,39.181671],[117.180045,39.168413],[117.175903,39.163622],[117.194443,39.146993],[117.189027,39.145866],[117.171681,39.146467],[117.171837,39.141937],[117.158024,39.14118],[117.144122,39.144068],[117.145648,39.146333],[117.144322,39.148576],[117.134983,39.146916],[117.128479,39.152243]]]}},{"type":"Feature","properties":{"dt_adcode":"120110"},"geometry":{"type":"Polygon","coordinates":[[[117.266978,39.079796],[117.267873,39.08529],[117.272332,39.09053],[117.274236,39.088794],[117.276339,39.090772],[117.278842,39.090591],[117.279946,39.086884],[117.286094,39.087154],[117.286268,39.089092],[117.299646,39.08703],[117.300642,39.090899],[117.306839,39.089244],[117.308079,39.096358],[117.30646,39.097831],[117.310673,39.100664],[117.27582,39.108069],[117.269938,39.127109],[117.271763,39.129325],[117.286647,39.13174],[117.279937,39.147354],[117.293404,39.15062],[117.290316,39.157142],[117.27684,39.162999],[117.260628,39.159009],[117.260534,39.167551],[117.258658,39.169957],[117.251702,39.168094],[117.250782,39.170908],[117.240956,39.170751],[117.249966,39.178452],[117.233479,39.193053],[117.24701,39.204475],[117.259732,39.210927],[117.272531,39.215753],[117.291477,39.21934],[117.297906,39.223253],[117.295054,39.240355],[117.292541,39.239974],[117.292471,39.243695],[117.283687,39.242018],[117.283001,39.244336],[117.290315,39.248509],[117.299266,39.244369],[117.324529,39.237924],[117.326792,39.234602],[117.333573,39.235813],[117.364801,39.233794],[117.386404,39.23049],[117.384622,39.233589],[117.388595,39.236025],[117.395913,39.237685],[117.395748,39.239778],[117.403149,39.240311],[117.410547,39.236064],[117.407924,39.229724],[117.408176,39.225972],[117.417507,39.223642],[117.425746,39.229998],[117.442023,39.230594],[117.446382,39.23341],[117.447751,39.23191],[117.451285,39.236424],[117.45681,39.231359],[117.46577,39.229002],[117.472797,39.229363],[117.488005,39.22045],[117.487269,39.211045],[117.482978,39.20678],[117.485123,39.205228],[117.493002,39.204836],[117.503631,39.208804],[117.503587,39.204118],[117.501831,39.201361],[117.495587,39.199078],[117.492405,39.200008],[117.491358,39.198548],[117.502791,39.195392],[117.503768,39.197351],[117.502255,39.199641],[117.510687,39.202551],[117.509909,39.2075],[117.513731,39.204774],[117.513686,39.192436],[117.539547,39.181884],[117.568799,39.177498],[117.566745,39.171321],[117.566952,39.162157],[117.555746,39.159181],[117.553088,39.153924],[117.552628,39.147227],[117.540788,39.14273],[117.516855,39.152147],[117.514329,39.150148],[117.509684,39.137507],[117.503229,39.107907],[117.535498,39.10655],[117.536189,39.099977],[117.553366,39.099706],[117.552879,39.078982],[117.563772,39.078505],[117.557821,39.065743],[117.559543,39.054918],[117.529739,39.057295],[117.527116,39.046171],[117.523717,39.046732],[117.518821,39.037905],[117.520577,39.036831],[117.517384,39.026687],[117.521984,39.023759],[117.525393,39.026381],[117.524164,39.022402],[117.526343,39.021249],[117.524881,39.015073],[117.526981,39.005995],[117.511768,38.995312],[117.509519,38.995723],[117.502758,39.00753],[117.493627,39.01666],[117.481699,39.013346],[117.475331,39.014149],[117.470719,39.016692],[117.471794,39.029081],[117.46822,39.033358],[117.464342,39.032842],[117.448728,39.022794],[117.437524,39.020474],[117.420405,39.020741],[117.405284,39.025434],[117.394574,39.032218],[117.390351,39.038186],[117.384798,39.051211],[117.38106,39.053404],[117.356476,39.051801],[117.34168,39.05649],[117.328781,39.068322],[117.313367,39.075099],[117.266978,39.079796]]]}},{"type":"Feature","properties":{"dt_adcode":"120111"},"geometry":{"type":"Polygon","coordinates":[[[117.128479,39.152243],[117.126413,39.147672],[117.120947,39.146504],[117.122118,39.142941],[117.110786,39.13361],[117.131761,39.114626],[117.133823,39.097169],[117.136824,39.091086],[117.121408,39.084531],[117.133361,39.079313],[117.159061,39.062369],[117.164352,39.063058],[117.17018,39.061174],[117.203879,39.071719],[117.217713,39.056218],[117.217725,39.034319],[117.234228,39.033205],[117.26729,39.039449],[117.26785,39.037574],[117.263714,39.033599],[117.262923,39.027084],[117.265763,39.021214],[117.259204,39.022736],[117.256902,39.020756],[117.262461,39.018937],[117.266614,39.020545],[117.270411,39.016794],[117.272601,39.016666],[117.27599,39.011052],[117.277606,39.002628],[117.28297,38.999406],[117.291214,39.002838],[117.295111,38.99817],[117.288543,38.996229],[117.294031,38.994121],[117.289795,38.991653],[117.292396,38.988264],[117.285915,38.980704],[117.28474,38.968899],[117.282201,38.968762],[117.282306,38.972827],[117.273509,38.978522],[117.268433,38.973742],[117.27376,38.970271],[117.269944,38.967467],[117.268901,38.96361],[117.260385,38.952068],[117.246579,38.953993],[117.245468,38.952995],[117.26604,38.943314],[117.261294,38.929299],[117.272485,38.923758],[117.269513,38.919869],[117.308017,38.885961],[117.324293,38.887097],[117.328636,38.883774],[117.329784,38.875499],[117.333997,38.876476],[117.336042,38.869254],[117.339184,38.86863],[117.34109,38.865016],[117.337477,38.864922],[117.337912,38.861058],[117.342142,38.861027],[117.341768,38.85816],[117.344553,38.852242],[117.336152,38.850042],[117.33925,38.843525],[117.327376,38.836745],[117.331032,38.833808],[117.330161,38.83018],[117.335993,38.82875],[117.331509,38.824681],[117.326931,38.823726],[117.312909,38.831069],[117.26336,38.845593],[117.248797,38.851729],[117.186891,38.901533],[117.136954,38.963603],[117.117124,38.978095],[117.078616,38.993974],[117.063067,39.005016],[117.057973,39.000868],[117.057153,38.995876],[117.035321,38.997388],[117.037571,39.010474],[117.040055,39.010451],[117.040517,39.012736],[117.033336,39.015588],[117.038208,39.021212],[117.006808,39.032986],[116.970316,39.038836],[116.970831,39.043107],[116.968487,39.043548],[116.968391,39.045489],[116.960586,39.046691],[116.962389,39.050764],[116.948979,39.054285],[116.951739,39.059402],[116.949806,39.059859],[116.948239,39.056451],[116.945575,39.057054],[116.940927,39.050107],[116.921663,39.060115],[116.920011,39.058033],[116.919134,39.05964],[116.908673,39.061183],[116.904999,39.057417],[116.901004,39.061331],[116.888991,39.055062],[116.886771,39.059394],[116.897176,39.062753],[116.898183,39.066666],[116.88148,39.071715],[116.882817,39.077937],[116.886608,39.077282],[116.890643,39.084853],[116.894201,39.084321],[116.896702,39.091681],[116.901888,39.090973],[116.908793,39.108149],[116.910485,39.107835],[116.911102,39.111044],[116.912684,39.11078],[116.909304,39.113737],[116.913152,39.110606],[116.91929,39.109244],[116.9236,39.119171],[116.926122,39.119577],[116.922159,39.131721],[116.923819,39.131952],[116.923072,39.13421],[116.928358,39.135326],[116.923152,39.149406],[116.938329,39.150651],[116.938546,39.154304],[116.932735,39.154348],[116.928856,39.156181],[116.928205,39.160485],[116.941558,39.163276],[116.94047,39.16076],[116.94651,39.159332],[116.94779,39.160733],[116.946528,39.163579],[116.949959,39.16739],[116.953816,39.170376],[116.958022,39.1689],[116.960784,39.174399],[116.959129,39.174934],[116.959138,39.176836],[116.962396,39.177109],[116.967257,39.174201],[116.967979,39.168406],[116.971866,39.16934],[116.972476,39.167761],[116.992307,39.171421],[116.993501,39.168528],[117.004261,39.170667],[117.008001,39.160885],[117.011654,39.161791],[117.012909,39.155497],[117.01066,39.154895],[117.012952,39.150577],[117.026528,39.155272],[117.026528,39.157135],[117.023546,39.157014],[117.022535,39.160116],[117.022806,39.163443],[117.026477,39.164505],[117.025675,39.170995],[117.029346,39.171423],[117.031976,39.156681],[117.038435,39.159982],[117.047933,39.160023],[117.064393,39.165434],[117.066752,39.164725],[117.067491,39.159233],[117.074557,39.159826],[117.073688,39.165822],[117.075593,39.166458],[117.07381,39.169487],[117.082275,39.17298],[117.101268,39.176314],[117.116932,39.174904],[117.129895,39.171906],[117.128073,39.165346],[117.100723,39.162079],[117.099781,39.154519],[117.112794,39.155178],[117.106089,39.153347],[117.128479,39.152243]]]}},{"type":"Feature","properties":{"dt_adcode":"120112"},"geometry":{"type":"Polygon","coordinates":[[[117.26785,39.037574],[117.266506,39.041231],[117.272532,39.042953],[117.267691,39.050365],[117.27123,39.05145],[117.269557,39.054843],[117.272304,39.055688],[117.274047,39.052314],[117.278045,39.05354],[117.280462,39.048924],[117.286822,39.051028],[117.283093,39.058995],[117.280474,39.059302],[117.288473,39.060201],[117.285996,39.070469],[117.292076,39.075414],[117.29245,39.077425],[117.305161,39.076796],[117.318171,39.073292],[117.328781,39.068322],[117.339844,39.057655],[117.347869,39.053874],[117.358756,39.051605],[117.38106,39.053404],[117.384798,39.051211],[117.390351,39.038186],[117.394574,39.032218],[117.412351,39.022746],[117.420405,39.020741],[117.437524,39.020474],[117.450729,39.023611],[117.464342,39.032842],[117.46822,39.033358],[117.471794,39.029081],[117.470719,39.016692],[117.47912,39.013422],[117.491396,39.016944],[117.495443,39.015691],[117.502758,39.00753],[117.510021,38.995361],[117.513791,38.996444],[117.525416,39.00573],[117.531151,39.005844],[117.539983,39.001113],[117.549319,38.991654],[117.558011,38.991982],[117.559578,38.990325],[117.557992,38.983505],[117.554919,38.981044],[117.549351,38.968171],[117.550302,38.959114],[117.548683,38.958723],[117.548527,38.954489],[117.550984,38.943022],[117.543619,38.943053],[117.527744,38.953226],[117.52169,38.952032],[117.512859,38.945179],[117.511511,38.94745],[117.497068,38.942786],[117.50329,38.907764],[117.486702,38.905411],[117.448286,38.879441],[117.44059,38.869742],[117.43746,38.858612],[117.407533,38.887274],[117.385305,38.871186],[117.33925,38.843525],[117.336152,38.850042],[117.344553,38.852242],[117.341768,38.85816],[117.342142,38.861027],[117.337912,38.861058],[117.337477,38.864922],[117.34109,38.865016],[117.339184,38.86863],[117.336042,38.869254],[117.333997,38.876476],[117.329784,38.875499],[117.328636,38.883774],[117.324293,38.887097],[117.308017,38.885961],[117.269513,38.919869],[117.272485,38.923758],[117.261294,38.929299],[117.26604,38.943314],[117.245468,38.952995],[117.246579,38.953993],[117.260385,38.952068],[117.268901,38.96361],[117.269944,38.967467],[117.27376,38.970271],[117.268433,38.973742],[117.273509,38.978522],[117.282306,38.972827],[117.282201,38.968762],[117.28474,38.968899],[117.285915,38.980704],[117.292396,38.988264],[117.289795,38.991653],[117.294031,38.994121],[117.288543,38.996229],[117.295111,38.99817],[117.291214,39.002838],[117.28297,38.999406],[117.277606,39.002628],[117.27599,39.011052],[117.272601,39.016666],[117.270411,39.016794],[117.266614,39.020545],[117.262461,39.018937],[117.256902,39.020756],[117.259204,39.022736],[117.265763,39.021214],[117.262923,39.027084],[117.263714,39.033599],[117.26785,39.037574]]]}},{"type":"Feature","properties":{"dt_adcode":"120113"},"geometry":{"type":"Polygon","coordinates":[[[116.949062,39.166137],[116.940816,39.171288],[116.944445,39.1739],[116.94042,39.174431],[116.938933,39.180826],[116.9413,39.187762],[116.952074,39.190971],[116.964551,39.191708],[116.966302,39.202775],[116.968193,39.203505],[116.966215,39.205697],[116.9672,39.207919],[116.971191,39.20888],[116.968142,39.213845],[116.971322,39.214747],[116.972081,39.216547],[116.967691,39.229412],[116.977329,39.231986],[116.979961,39.230764],[116.988994,39.238941],[116.990093,39.245406],[116.995882,39.244655],[116.996179,39.243284],[117.005814,39.243013],[117.005796,39.244338],[117.008744,39.245579],[117.008561,39.249036],[117.010767,39.248795],[117.011501,39.256705],[117.023088,39.257018],[117.023621,39.262795],[117.025391,39.262613],[117.024136,39.270648],[117.01764,39.268236],[117.016839,39.27255],[117.019646,39.273023],[117.015794,39.280919],[117.017712,39.281012],[117.01664,39.287774],[117.03724,39.292201],[117.035375,39.289001],[117.04835,39.291226],[117.053593,39.281098],[117.061143,39.280258],[117.075617,39.283082],[117.075243,39.28524],[117.071041,39.284578],[117.069857,39.287686],[117.076575,39.289775],[117.075096,39.293899],[117.088847,39.299749],[117.079605,39.307831],[117.105064,39.312847],[117.117697,39.312913],[117.119996,39.310767],[117.127259,39.311634],[117.129852,39.308583],[117.137441,39.304996],[117.146709,39.306139],[117.146232,39.30805],[117.153054,39.310202],[117.157666,39.315918],[117.1555,39.323243],[117.160032,39.32439],[117.160794,39.319147],[117.165327,39.321788],[117.164444,39.327557],[117.15966,39.326701],[117.160623,39.329939],[117.167511,39.332098],[117.168204,39.329022],[117.172528,39.329122],[117.172996,39.326229],[117.175924,39.326332],[117.17971,39.326782],[117.179719,39.32897],[117.183688,39.331025],[117.184225,39.333621],[117.192656,39.333562],[117.191565,39.337231],[117.193263,39.337969],[117.191392,39.343764],[117.195759,39.345472],[117.19543,39.349407],[117.198481,39.349623],[117.199321,39.346234],[117.204911,39.346312],[117.204937,39.350107],[117.209913,39.352036],[117.222675,39.356136],[117.229067,39.354691],[117.230142,39.352901],[117.23369,39.353359],[117.233066,39.355439],[117.238558,39.357506],[117.250944,39.35381],[117.254512,39.348508],[117.263667,39.348071],[117.265109,39.344862],[117.268749,39.345415],[117.267794,39.349132],[117.26941,39.351291],[117.274251,39.352157],[117.27486,39.354173],[117.276503,39.35014],[117.279554,39.347732],[117.285527,39.34885],[117.292059,39.347598],[117.296354,39.337269],[117.304829,39.33693],[117.306177,39.331969],[117.301904,39.329873],[117.303983,39.326437],[117.316742,39.328821],[117.317925,39.325289],[117.324201,39.329647],[117.331956,39.320833],[117.334707,39.323427],[117.339085,39.318941],[117.336874,39.31522],[117.338301,39.313572],[117.332494,39.309644],[117.337726,39.305997],[117.34314,39.310398],[117.362425,39.29602],[117.356202,39.293204],[117.364634,39.287373],[117.369045,39.291596],[117.384063,39.280046],[117.38515,39.282735],[117.388436,39.28121],[117.397237,39.284052],[117.401511,39.287616],[117.405456,39.282552],[117.407114,39.274479],[117.400398,39.259139],[117.393995,39.257273],[117.393907,39.248062],[117.39991,39.24638],[117.403149,39.240311],[117.395748,39.239778],[117.395913,39.237685],[117.388595,39.236025],[117.384622,39.233589],[117.386404,39.23049],[117.364801,39.233794],[117.333573,39.235813],[117.326792,39.234602],[117.324529,39.237924],[117.299266,39.244369],[117.290315,39.248509],[117.283001,39.244336],[117.283687,39.242018],[117.292471,39.243695],[117.292541,39.239974],[117.295054,39.240355],[117.297906,39.223253],[117.291477,39.21934],[117.272531,39.215753],[117.2501,39.206094],[117.22398,39.184967],[117.221942,39.184696],[117.216116,39.191282],[117.21381,39.189857],[117.210712,39.192959],[117.197264,39.186104],[117.191918,39.191925],[117.183513,39.189104],[117.181772,39.190328],[117.180449,39.189386],[117.1812,39.188383],[117.169789,39.185803],[117.167553,39.184001],[117.162571,39.186694],[117.160041,39.190238],[117.146867,39.189156],[117.144024,39.191901],[117.134312,39.185351],[117.130807,39.178016],[117.129895,39.171906],[117.104091,39.17624],[117.085597,39.174112],[117.07381,39.169487],[117.075593,39.166458],[117.073688,39.165822],[117.074557,39.159826],[117.067491,39.159233],[117.066752,39.164725],[117.064393,39.165434],[117.047933,39.160023],[117.038435,39.159982],[117.031976,39.156681],[117.029346,39.171423],[117.025675,39.170995],[117.026477,39.164505],[117.022806,39.163443],[117.022535,39.160116],[117.023546,39.157014],[117.026528,39.157135],[117.026528,39.155272],[117.012952,39.150577],[117.01066,39.154895],[117.012909,39.155497],[117.011654,39.161791],[117.008001,39.160885],[117.004261,39.170667],[116.993501,39.168528],[116.992307,39.171421],[116.973382,39.167651],[116.971866,39.16934],[116.967979,39.168406],[116.967257,39.174201],[116.962202,39.177159],[116.959138,39.176836],[116.959129,39.174934],[116.960784,39.174399],[116.958022,39.1689],[116.953816,39.170376],[116.949062,39.166137]]]}},{"type":"Feature","properties":{"dt_adcode":"120114"},"geometry":{"type":"Polygon","coordinates":[[[117.326796,39.332552],[117.317925,39.325289],[117.316742,39.328821],[117.303983,39.326437],[117.301904,39.329873],[117.306177,39.331969],[117.304829,39.33693],[117.296354,39.337269],[117.292059,39.347598],[117.285527,39.34885],[117.279554,39.347732],[117.276503,39.35014],[117.27486,39.354173],[117.274251,39.352157],[117.26941,39.351291],[117.267794,39.349132],[117.268749,39.345415],[117.265109,39.344862],[117.263667,39.348071],[117.254512,39.348508],[117.250944,39.35381],[117.238558,39.357506],[117.233066,39.355439],[117.23369,39.353359],[117.230142,39.352901],[117.229067,39.354691],[117.222675,39.356136],[117.204937,39.350107],[117.204911,39.346312],[117.199321,39.346234],[117.198481,39.349623],[117.19543,39.349407],[117.195759,39.345472],[117.191392,39.343764],[117.193263,39.337969],[117.191565,39.337231],[117.192656,39.333562],[117.184225,39.333621],[117.183688,39.331025],[117.179719,39.32897],[117.17971,39.326782],[117.172996,39.326229],[117.172528,39.329122],[117.168204,39.329022],[117.167511,39.332098],[117.160623,39.329939],[117.15966,39.326701],[117.164444,39.327557],[117.165327,39.321788],[117.160794,39.319147],[117.160032,39.32439],[117.1555,39.323243],[117.157666,39.315918],[117.153054,39.310202],[117.146232,39.30805],[117.146709,39.306139],[117.137441,39.304996],[117.129852,39.308583],[117.127259,39.311634],[117.119996,39.310767],[117.117697,39.312913],[117.105064,39.312847],[117.079605,39.307831],[117.088847,39.299749],[117.075096,39.293899],[117.076575,39.289775],[117.069857,39.287686],[117.071041,39.284578],[117.075243,39.28524],[117.075617,39.283082],[117.061143,39.280258],[117.053593,39.281098],[117.04835,39.291226],[117.035375,39.289001],[117.03724,39.292201],[117.017355,39.288241],[117.017712,39.281012],[117.015794,39.280919],[117.019646,39.273023],[117.016839,39.27255],[117.01764,39.268236],[117.024136,39.270648],[117.025391,39.262613],[117.023621,39.262795],[117.023088,39.257018],[117.011501,39.256705],[117.010767,39.248795],[117.008561,39.249036],[117.008744,39.245579],[117.005796,39.244338],[117.005814,39.243013],[116.996179,39.243284],[116.995882,39.244655],[116.990093,39.245406],[116.988994,39.238941],[116.979961,39.230764],[116.977329,39.231986],[116.967691,39.229412],[116.972081,39.216547],[116.971322,39.214747],[116.968142,39.213845],[116.971191,39.20888],[116.9672,39.207919],[116.966215,39.205697],[116.968193,39.203505],[116.966302,39.202775],[116.964551,39.191708],[116.952074,39.190971],[116.9413,39.187762],[116.939437,39.178368],[116.94042,39.174431],[116.944445,39.1739],[116.940751,39.171548],[116.949062,39.166137],[116.946528,39.163579],[116.94779,39.160733],[116.94651,39.159332],[116.94047,39.16076],[116.941558,39.163276],[116.928205,39.160485],[116.928856,39.156181],[116.932735,39.154348],[116.938546,39.154304],[116.938329,39.150651],[116.923152,39.149406],[116.928358,39.135326],[116.923072,39.13421],[116.923819,39.131952],[116.922159,39.131721],[116.926113,39.119633],[116.919784,39.119942],[116.918455,39.123546],[116.923809,39.123996],[116.918995,39.138568],[116.915363,39.138258],[116.914721,39.142844],[116.913365,39.143195],[116.914008,39.146153],[116.911107,39.147156],[116.911731,39.149628],[116.894064,39.154733],[116.870069,39.153654],[116.866766,39.155869],[116.863498,39.154276],[116.866619,39.15682],[116.866308,39.16624],[116.864523,39.17003],[116.865711,39.173468],[116.863102,39.174966],[116.864325,39.18206],[116.863174,39.201357],[116.860765,39.205612],[116.857055,39.205384],[116.855791,39.215691],[116.871663,39.217699],[116.871663,39.216271],[116.875626,39.216478],[116.875245,39.224574],[116.876381,39.224815],[116.874587,39.230059],[116.876209,39.230613],[116.879391,39.230041],[116.88031,39.225619],[116.881464,39.226894],[116.883554,39.226197],[116.884647,39.221228],[116.887094,39.222208],[116.887857,39.224456],[116.89263,39.223941],[116.892761,39.227111],[116.890504,39.227538],[116.891936,39.231154],[116.885906,39.232735],[116.884917,39.240551],[116.881465,39.238667],[116.879462,39.240767],[116.876626,39.240926],[116.875769,39.253847],[116.878761,39.255364],[116.871638,39.269279],[116.876326,39.27034],[116.874749,39.283174],[116.872392,39.291276],[116.866886,39.290762],[116.866557,39.293004],[116.863211,39.292679],[116.862544,39.297487],[116.866913,39.298032],[116.866246,39.301441],[116.867945,39.30252],[116.879843,39.305228],[116.880259,39.303551],[116.883286,39.303822],[116.884214,39.305393],[116.88209,39.313719],[116.887086,39.314342],[116.889189,39.318418],[116.887063,39.332187],[116.889857,39.332689],[116.889606,39.338161],[116.886196,39.337829],[116.881599,39.340656],[116.87577,39.33919],[116.873736,39.342463],[116.872381,39.341244],[116.869936,39.347457],[116.872754,39.348009],[116.872659,39.352777],[116.876076,39.352682],[116.874602,39.356327],[116.871862,39.355831],[116.870743,39.357491],[116.860245,39.354185],[116.858642,39.356406],[116.859751,39.350959],[116.86158,39.349541],[116.857601,39.348931],[116.856604,39.346088],[116.849168,39.339466],[116.847124,39.34376],[116.842938,39.340715],[116.829196,39.338856],[116.825057,39.353563],[116.823514,39.353001],[116.822544,39.355447],[116.823134,39.357895],[116.833505,39.360429],[116.832431,39.362872],[116.836685,39.364596],[116.834918,39.365954],[116.826877,39.363611],[116.824478,39.366052],[116.822675,39.365621],[116.822476,39.366837],[116.820631,39.366632],[116.818144,39.373515],[116.837596,39.3741],[116.836964,39.377892],[116.840621,39.378436],[116.842163,39.375628],[116.838144,39.388871],[116.83973,39.394039],[116.836724,39.393073],[116.836343,39.394679],[116.838457,39.395379],[116.837582,39.397548],[116.835104,39.397036],[116.833891,39.398966],[116.834108,39.402673],[116.839229,39.404631],[116.838155,39.410434],[116.840954,39.41101],[116.840079,39.413639],[116.843536,39.414545],[116.844307,39.412541],[116.851959,39.413843],[116.852523,39.416851],[116.855556,39.420011],[116.860834,39.422161],[116.860774,39.424241],[116.864606,39.425203],[116.863036,39.42884],[116.864319,39.430518],[116.870986,39.427373],[116.875886,39.434549],[116.868902,39.437226],[116.868421,39.439053],[116.862847,39.436824],[116.855498,39.443345],[116.847179,39.441398],[116.847257,39.438662],[116.844519,39.439752],[116.840758,39.438261],[116.840247,39.439643],[116.8325,39.435489],[116.827077,39.438613],[116.826766,39.445673],[116.828464,39.445674],[116.815745,39.451729],[116.809921,39.451395],[116.810684,39.447955],[116.807078,39.44701],[116.807425,39.445616],[116.799876,39.449635],[116.797318,39.448779],[116.798289,39.446828],[116.795974,39.446849],[116.79234,39.45388],[116.797969,39.450624],[116.798056,39.457349],[116.795057,39.458942],[116.794424,39.461196],[116.791623,39.460835],[116.79015,39.465383],[116.785094,39.465892],[116.785684,39.46725],[116.788884,39.467052],[116.786516,39.4684],[116.789101,39.469518],[116.788858,39.47201],[116.792847,39.471723],[116.792544,39.473426],[116.799116,39.473413],[116.798492,39.47558],[116.811234,39.477544],[116.810722,39.480315],[116.813158,39.480441],[116.812924,39.481961],[116.820558,39.480589],[116.817811,39.482144],[116.820723,39.482404],[116.821624,39.486752],[116.818843,39.488463],[116.817267,39.496572],[116.815734,39.49935],[116.811193,39.499423],[116.811011,39.500834],[116.8142,39.500881],[116.814399,39.502178],[116.816384,39.500864],[116.813984,39.510285],[116.818248,39.510061],[116.816116,39.510637],[116.826202,39.513111],[116.823102,39.527344],[116.825641,39.527171],[116.822003,39.534462],[116.818372,39.532997],[116.819602,39.52851],[116.806213,39.528854],[116.803015,39.530374],[116.801923,39.536719],[116.798465,39.53645],[116.795267,39.545754],[116.790993,39.546728],[116.790628,39.548912],[116.787507,39.54875],[116.787689,39.554555],[116.792372,39.556229],[116.791566,39.559752],[116.795659,39.564456],[116.799197,39.564743],[116.796881,39.567886],[116.807231,39.571478],[116.807839,39.574202],[116.809278,39.574109],[116.808464,39.576485],[116.811636,39.576962],[116.800272,39.586095],[116.798443,39.589158],[116.800403,39.588708],[116.797906,39.594369],[116.799164,39.595166],[116.798436,39.597776],[116.800525,39.595984],[116.803204,39.59605],[116.802805,39.597478],[116.804486,39.597888],[116.805162,39.596546],[116.8083,39.597396],[116.806844,39.599426],[116.804261,39.598909],[116.805458,39.599502],[116.803403,39.600782],[116.805995,39.601646],[116.805233,39.603371],[116.799867,39.603999],[116.809818,39.608685],[116.810667,39.605832],[116.806992,39.603845],[116.808604,39.603651],[116.807451,39.603093],[116.808162,39.600457],[116.813951,39.600139],[116.812062,39.604523],[116.816049,39.605554],[116.813086,39.609935],[116.815,39.610739],[116.812748,39.616434],[116.820417,39.618934],[116.823987,39.617182],[116.825044,39.613881],[116.831845,39.617007],[116.835397,39.617005],[116.834125,39.621487],[116.838441,39.622224],[116.826363,39.633128],[116.82918,39.63551],[116.826894,39.638212],[116.834552,39.641847],[116.833563,39.64412],[116.834873,39.645179],[116.837896,39.643629],[116.840756,39.644244],[116.839136,39.647538],[116.840884,39.649047],[116.851249,39.652345],[116.849946,39.667552],[116.86049,39.667265],[116.863982,39.670392],[116.87122,39.671024],[116.874734,39.668382],[116.875859,39.66919],[116.87317,39.671384],[116.883229,39.675359],[116.888987,39.675573],[116.891148,39.674075],[116.895166,39.674966],[116.89572,39.673493],[116.897787,39.674059],[116.897327,39.675157],[116.906656,39.677423],[116.905203,39.681658],[116.909023,39.682859],[116.90595,39.687917],[116.912587,39.689229],[116.911294,39.695428],[116.913561,39.695437],[116.91284,39.697854],[116.915534,39.698259],[116.919749,39.696042],[116.919532,39.698204],[116.916863,39.699345],[116.916299,39.703794],[116.916925,39.706381],[116.919993,39.706782],[116.932401,39.706714],[116.935976,39.703533],[116.937682,39.706404],[116.950851,39.706825],[116.952661,39.699657],[116.948378,39.702826],[116.943145,39.694435],[116.944989,39.684658],[116.951457,39.678145],[116.945467,39.676611],[116.945693,39.670786],[116.957508,39.66625],[116.955338,39.658657],[116.957741,39.651061],[116.962391,39.644164],[116.964369,39.643588],[116.97066,39.648881],[116.974695,39.646665],[116.975008,39.63929],[116.973282,39.639029],[116.974563,39.636793],[116.977038,39.636361],[116.988659,39.640509],[116.991213,39.639153],[116.989923,39.641489],[117.004407,39.644511],[117.004276,39.645713],[117.007494,39.64633],[117.007878,39.648589],[117.011557,39.648248],[117.01127,39.651195],[117.015804,39.651977],[117.01577,39.654061],[117.057061,39.644575],[117.078594,39.637903],[117.100934,39.629656],[117.103306,39.627929],[117.103279,39.625159],[117.107639,39.62555],[117.108429,39.622776],[117.10876,39.625645],[117.112371,39.624407],[117.112666,39.621372],[117.117328,39.620676],[117.117596,39.619065],[117.121189,39.619176],[117.120895,39.621646],[117.121866,39.617283],[117.127065,39.616979],[117.124097,39.620541],[117.125103,39.621912],[117.136084,39.618077],[117.140082,39.62095],[117.145648,39.620677],[117.147876,39.622606],[117.149678,39.616612],[117.146713,39.614355],[117.238705,39.553474],[117.2367,39.550445],[117.231789,39.550136],[117.232232,39.548486],[117.241845,39.546391],[117.24523,39.541384],[117.247279,39.542368],[117.245525,39.545048],[117.254068,39.545419],[117.274883,39.532783],[117.275943,39.527604],[117.272901,39.526335],[117.265644,39.526257],[117.261926,39.527867],[117.254387,39.527046],[117.255142,39.523642],[117.263576,39.52261],[117.264557,39.519085],[117.266252,39.519332],[117.270431,39.515709],[117.272021,39.510782],[117.264773,39.506707],[117.265554,39.500494],[117.270281,39.500861],[117.271871,39.4985],[117.278817,39.499503],[117.280894,39.496288],[117.288694,39.495827],[117.294504,39.491458],[117.295182,39.484851],[117.298183,39.48347],[117.299504,39.478383],[117.295163,39.477404],[117.293536,39.473139],[117.299521,39.469873],[117.304401,39.461935],[117.307507,39.460994],[117.320726,39.444691],[117.325331,39.44625],[117.327237,39.4438],[117.322301,39.441754],[117.325469,39.436667],[117.328531,39.424554],[117.336156,39.419398],[117.334467,39.418509],[117.336581,39.405678],[117.340602,39.402055],[117.332384,39.395105],[117.324246,39.401295],[117.325081,39.397492],[117.318961,39.394281],[117.318648,39.398844],[117.320337,39.40173],[117.313044,39.406094],[117.313322,39.402516],[117.307926,39.399824],[117.31346,39.389447],[117.311249,39.389452],[117.312093,39.386874],[117.30755,39.384813],[117.305626,39.380576],[117.300666,39.380807],[117.299518,39.379381],[117.303093,39.368922],[117.314927,39.366392],[117.314892,39.362662],[117.316624,39.362657],[117.31631,39.355826],[117.31812,39.352906],[117.31973,39.353513],[117.320748,39.350554],[117.328504,39.350073],[117.322776,39.348725],[117.32429,39.343959],[117.326231,39.343768],[117.328015,39.339919],[117.325752,39.335246],[117.326796,39.332552]]]}},{"type":"Feature","properties":{"dt_adcode":"120115"},"geometry":{"type":"Polygon","coordinates":[[[117.159083,39.821868],[117.162522,39.817821],[117.167193,39.819206],[117.16715,39.823733],[117.190536,39.826368],[117.191462,39.825169],[117.195076,39.825492],[117.192165,39.833089],[117.199861,39.834594],[117.200675,39.832592],[117.207357,39.83499],[117.208431,39.831399],[117.212471,39.8323],[117.220117,39.830632],[117.220671,39.827202],[117.227263,39.831574],[117.237378,39.833914],[117.261522,39.829047],[117.265831,39.826778],[117.26882,39.828338],[117.27419,39.824491],[117.278241,39.825288],[117.286414,39.819037],[117.2849,39.816752],[117.285813,39.812708],[117.289605,39.813767],[117.290727,39.812114],[117.293475,39.812808],[117.295928,39.810984],[117.298277,39.812328],[117.298468,39.808869],[117.301374,39.805279],[117.306003,39.806315],[117.306465,39.808221],[117.318597,39.805117],[117.321643,39.802436],[117.319162,39.800066],[117.322565,39.7965],[117.323165,39.793436],[117.328683,39.79155],[117.333646,39.796534],[117.337772,39.796264],[117.339679,39.798338],[117.342203,39.795439],[117.345215,39.797688],[117.349132,39.794714],[117.356181,39.792851],[117.361568,39.793733],[117.363752,39.795776],[117.365971,39.794682],[117.365848,39.791079],[117.374495,39.79074],[117.375539,39.787624],[117.382243,39.787754],[117.387224,39.784829],[117.389181,39.787009],[117.388476,39.782516],[117.392613,39.782459],[117.392187,39.777679],[117.399102,39.770855],[117.407709,39.772146],[117.412423,39.76817],[117.412041,39.763521],[117.413751,39.760969],[117.426756,39.758292],[117.430104,39.756145],[117.437187,39.755543],[117.439935,39.764442],[117.449285,39.768889],[117.453996,39.767869],[117.45727,39.772916],[117.461894,39.776244],[117.463548,39.775359],[117.460421,39.769471],[117.46185,39.768248],[117.472963,39.773956],[117.469563,39.777537],[117.47716,39.776419],[117.479825,39.777406],[117.484193,39.774768],[117.488873,39.77946],[117.493041,39.770888],[117.503531,39.773877],[117.503911,39.770612],[117.507188,39.76719],[117.511581,39.765723],[117.515239,39.769663],[117.519942,39.764656],[117.523513,39.765601],[117.524509,39.768728],[117.528149,39.76613],[117.533055,39.766251],[117.531917,39.761393],[117.533236,39.760395],[117.542614,39.760836],[117.549236,39.756662],[117.55545,39.762546],[117.56133,39.754773],[117.571107,39.756489],[117.578598,39.749803],[117.595891,39.746135],[117.596325,39.744316],[117.590889,39.742261],[117.596857,39.738476],[117.596971,39.735767],[117.593414,39.735197],[117.588511,39.73791],[117.58878,39.731084],[117.583583,39.731588],[117.583453,39.727323],[117.577196,39.726436],[117.578678,39.722833],[117.585211,39.722455],[117.579756,39.718616],[117.588446,39.719486],[117.593309,39.715793],[117.593013,39.711194],[117.602998,39.705121],[117.6149,39.705978],[117.620961,39.702956],[117.627138,39.703639],[117.634477,39.700961],[117.634419,39.697819],[117.636028,39.696671],[117.644803,39.701817],[117.649051,39.695126],[117.643972,39.68812],[117.649458,39.68585],[117.650509,39.682003],[117.658035,39.682458],[117.653119,39.677986],[117.660195,39.674735],[117.656846,39.668831],[117.662605,39.665935],[117.669038,39.666439],[117.668158,39.662546],[117.663327,39.657116],[117.667862,39.651112],[117.665336,39.646172],[117.666473,39.642911],[117.664505,39.638401],[117.661993,39.636333],[117.652242,39.639051],[117.652777,39.628938],[117.648971,39.627772],[117.641973,39.629161],[117.644741,39.623269],[117.640204,39.620458],[117.641216,39.612672],[117.631794,39.613591],[117.631169,39.607144],[117.625485,39.602819],[117.623207,39.603439],[117.621249,39.606516],[117.619377,39.60593],[117.621258,39.592178],[117.626513,39.594287],[117.632193,39.602348],[117.636826,39.603694],[117.637249,39.596682],[117.639768,39.592829],[117.649936,39.594447],[117.654432,39.590752],[117.655711,39.585324],[117.650708,39.579234],[117.652687,39.575907],[117.655654,39.57491],[117.66325,39.576342],[117.670063,39.580657],[117.672853,39.583678],[117.674598,39.589852],[117.684957,39.588909],[117.693596,39.581049],[117.706814,39.575863],[117.709004,39.571993],[117.708249,39.568725],[117.704066,39.565371],[117.697292,39.564781],[117.689966,39.569384],[117.685897,39.567004],[117.685679,39.564425],[117.689593,39.559514],[117.692751,39.558156],[117.706349,39.55641],[117.709917,39.553038],[117.710194,39.550401],[117.708711,39.548224],[117.700874,39.551741],[117.69462,39.551096],[117.695446,39.549348],[117.690392,39.547454],[117.690756,39.537539],[117.687946,39.534903],[117.682317,39.534614],[117.681108,39.5366],[117.676644,39.533179],[117.66844,39.532339],[117.667666,39.530254],[117.660549,39.527674],[117.657505,39.528902],[117.658288,39.531131],[117.634157,39.537177],[117.633366,39.534797],[117.637102,39.522067],[117.630652,39.515995],[117.610037,39.511309],[117.608898,39.499747],[117.606875,39.498986],[117.607265,39.494675],[117.605746,39.494197],[117.607499,39.489747],[117.600945,39.488293],[117.600927,39.486678],[117.596667,39.487451],[117.580181,39.485092],[117.577399,39.491781],[117.572859,39.490962],[117.572391,39.494923],[117.567548,39.49397],[117.567228,39.4977],[117.555892,39.494547],[117.558099,39.486584],[117.562229,39.485699],[117.564948,39.480775],[117.557058,39.47162],[117.551387,39.467768],[117.541331,39.464379],[117.524376,39.466405],[117.523156,39.463642],[117.517985,39.463176],[117.51929,39.459203],[117.511645,39.456556],[117.509518,39.456323],[117.505636,39.461189],[117.502929,39.462001],[117.496996,39.459404],[117.499339,39.454426],[117.492463,39.451854],[117.489151,39.448621],[117.483398,39.449067],[117.49123,39.413679],[117.494984,39.41464],[117.496989,39.405394],[117.494983,39.404966],[117.495224,39.403606],[117.499772,39.393059],[117.497619,39.39234],[117.501077,39.384861],[117.505877,39.386141],[117.508038,39.383611],[117.501353,39.380744],[117.496726,39.381626],[117.485647,39.379526],[117.483873,39.375068],[117.485646,39.374554],[117.486087,39.372295],[117.479166,39.368693],[117.475168,39.36084],[117.477419,39.366566],[117.473092,39.366829],[117.471353,39.365235],[117.473204,39.362074],[117.46693,39.361347],[117.465389,39.359583],[117.461624,39.36244],[117.454801,39.361972],[117.44885,39.358852],[117.441729,39.361643],[117.438729,39.357839],[117.432896,39.360047],[117.43312,39.35537],[117.436518,39.352323],[117.433978,39.349655],[117.435443,39.348121],[117.433648,39.347102],[117.415188,39.346524],[117.41571,39.350541],[117.392556,39.352659],[117.392209,39.354261],[117.389488,39.354402],[117.389506,39.360438],[117.384447,39.362666],[117.382421,39.360297],[117.370585,39.359766],[117.36874,39.357666],[117.366088,39.360706],[117.350485,39.3615],[117.337706,39.359266],[117.335094,39.353837],[117.330211,39.353589],[117.328504,39.350073],[117.320748,39.350554],[117.31973,39.353513],[117.31812,39.352906],[117.31631,39.355826],[117.316624,39.362657],[117.314892,39.362662],[117.314927,39.366392],[117.303093,39.368922],[117.299518,39.379381],[117.300666,39.380807],[117.305626,39.380576],[117.30755,39.384813],[117.312093,39.386874],[117.311249,39.389452],[117.31346,39.389447],[117.307926,39.399824],[117.313322,39.402516],[117.313044,39.406094],[117.320337,39.40173],[117.318648,39.398844],[117.318961,39.394281],[117.325081,39.397492],[117.324246,39.401295],[117.332384,39.395105],[117.340602,39.402055],[117.336581,39.405678],[117.334467,39.418509],[117.336156,39.419398],[117.328531,39.424554],[117.325469,39.436667],[117.322301,39.441754],[117.327237,39.4438],[117.325331,39.44625],[117.320726,39.444691],[117.307507,39.460994],[117.304401,39.461935],[117.299521,39.469873],[117.293536,39.473139],[117.295163,39.477404],[117.299504,39.478383],[117.298183,39.48347],[117.295182,39.484851],[117.294504,39.491458],[117.288694,39.495827],[117.280894,39.496288],[117.278817,39.499503],[117.271871,39.4985],[117.270281,39.500861],[117.265554,39.500494],[117.264773,39.506707],[117.272021,39.510782],[117.270431,39.515709],[117.266252,39.519332],[117.264557,39.519085],[117.263576,39.52261],[117.255142,39.523642],[117.254387,39.527046],[117.261926,39.527867],[117.265644,39.526257],[117.272901,39.526335],[117.275943,39.527604],[117.274883,39.532783],[117.254068,39.545419],[117.245525,39.545048],[117.247279,39.542368],[117.24523,39.541384],[117.241845,39.546391],[117.237299,39.548308],[117.23309,39.547882],[117.231789,39.550136],[117.2367,39.550445],[117.238705,39.553474],[117.146713,39.614355],[117.149678,39.616612],[117.147876,39.622606],[117.152643,39.623514],[117.152167,39.625829],[117.15416,39.626047],[117.150278,39.628636],[117.150789,39.630806],[117.154768,39.631099],[117.157949,39.636599],[117.172827,39.636763],[117.173009,39.641212],[117.177896,39.64297],[117.177671,39.645627],[117.169067,39.648155],[117.169251,39.651799],[117.166374,39.651569],[117.166443,39.653006],[117.164017,39.651738],[117.163108,39.659932],[117.160777,39.658686],[117.16089,39.660348],[117.158906,39.661228],[117.159608,39.666853],[117.16466,39.666705],[117.164626,39.669097],[117.166575,39.669792],[117.166134,39.672966],[117.170111,39.673368],[117.167713,39.686876],[117.169922,39.687133],[117.169456,39.698225],[117.171267,39.70126],[117.168616,39.703509],[117.170609,39.704356],[117.168538,39.705077],[117.168296,39.708159],[117.170696,39.708303],[117.169146,39.713532],[117.164285,39.711826],[117.163575,39.715812],[117.169207,39.71759],[117.168168,39.721542],[117.166314,39.722197],[117.165048,39.717932],[117.164165,39.720421],[117.157319,39.722217],[117.158862,39.723391],[117.153185,39.722736],[117.155283,39.729244],[117.153316,39.729842],[117.153736,39.73632],[117.160501,39.736467],[117.160372,39.73902],[117.164626,39.736993],[117.166116,39.738028],[117.162106,39.746127],[117.163008,39.749897],[117.167211,39.749535],[117.173067,39.751884],[117.184738,39.751906],[117.18693,39.755804],[117.192831,39.754986],[117.194963,39.759835],[117.20174,39.759906],[117.2059,39.763845],[117.200059,39.768664],[117.198682,39.771974],[117.180626,39.782459],[117.178739,39.795346],[117.176435,39.795177],[117.175439,39.79751],[117.17193,39.797269],[117.171263,39.799805],[117.167771,39.799668],[117.165873,39.79672],[117.162953,39.798557],[117.161532,39.796927],[117.157503,39.79673],[117.157148,39.806762],[117.161663,39.807023],[117.156335,39.817484],[117.158857,39.819564],[117.159083,39.821868]]]}},{"type":"Feature","properties":{"dt_adcode":"120116"},"geometry":{"type":"Polygon","coordinates":[[[117.568799,39.177498],[117.591821,39.170195],[117.615239,39.166213],[117.616369,39.174352],[117.623232,39.183051],[117.620653,39.187266],[117.617803,39.186725],[117.617397,39.205034],[117.628379,39.207488],[117.635116,39.210505],[117.635151,39.212624],[117.637733,39.213917],[117.643654,39.215076],[117.666578,39.188776],[117.680098,39.188802],[117.679991,39.171726],[117.682732,39.173368],[117.71879,39.173255],[117.719671,39.19352],[117.715881,39.194904],[117.724541,39.213338],[117.743247,39.237881],[117.725475,39.24607],[117.727569,39.246997],[117.725441,39.251224],[117.721538,39.250091],[117.717992,39.257234],[117.715819,39.256914],[117.71043,39.267598],[117.708969,39.267982],[117.709276,39.28316],[117.720638,39.282433],[117.721691,39.290829],[117.731746,39.290062],[117.760458,39.294938],[117.765768,39.299014],[117.784573,39.304264],[117.791314,39.301161],[117.789686,39.299156],[117.789927,39.289585],[117.788696,39.287802],[117.811445,39.278239],[117.813411,39.280532],[117.817539,39.279025],[117.813607,39.279615],[117.809807,39.272735],[117.820684,39.267886],[117.824235,39.267709],[117.825008,39.265658],[117.831254,39.266302],[117.852397,39.297831],[117.850104,39.300583],[117.836911,39.306048],[117.837673,39.309721],[117.842806,39.311327],[117.839154,39.317235],[117.842886,39.323781],[117.844184,39.323669],[117.845871,39.314799],[117.849887,39.315526],[117.848745,39.31885],[117.850676,39.32229],[117.847949,39.322963],[117.848261,39.325191],[117.845144,39.325758],[117.846877,39.328494],[117.849673,39.327368],[117.854547,39.328167],[117.855326,39.331991],[117.861344,39.334192],[117.863206,39.331167],[117.866565,39.32985],[117.88832,39.332009],[117.893017,39.327364],[117.891794,39.323252],[117.902616,39.320467],[117.905739,39.316139],[117.91019,39.317537],[117.91032,39.319521],[117.919399,39.317922],[117.919251,39.318986],[117.931828,39.319143],[117.947377,39.317793],[117.951647,39.315404],[117.956901,39.316526],[117.965932,39.314623],[117.966046,39.316425],[117.967386,39.316416],[117.972199,39.314447],[117.972338,39.312632],[117.974645,39.314236],[117.972817,39.312234],[117.974018,39.311599],[117.972521,39.309958],[117.973399,39.30755],[117.976768,39.301358],[117.982749,39.298656],[117.983759,39.295506],[117.992144,39.296677],[117.99521,39.293546],[117.993624,39.290246],[117.995714,39.288802],[118.004973,39.290249],[118.00641,39.289502],[118.006349,39.286984],[118.008256,39.286151],[118.009626,39.287853],[118.016846,39.284125],[118.021721,39.286457],[118.022496,39.289294],[118.024638,39.289379],[118.023628,39.290553],[118.024734,39.292428],[118.026929,39.291448],[118.031694,39.285399],[118.028425,39.277682],[118.035303,39.274679],[118.033413,39.271347],[118.034109,39.268005],[118.036477,39.268159],[118.036503,39.26515],[118.064779,39.255929],[118.064741,39.231202],[118.037073,39.230519],[118.03488,39.218589],[118.03284,39.219881],[117.977426,39.205943],[117.973268,39.1888],[117.964609,39.172679],[117.871652,39.122578],[117.846439,39.088423],[117.840424,39.073779],[117.837386,39.057018],[117.839058,39.032864],[117.847417,39.010726],[117.850713,38.992918],[117.852542,38.963019],[117.855345,38.957633],[117.89791,38.948624],[117.899086,38.941556],[117.89242,38.925067],[117.875573,38.920371],[117.859516,38.888981],[117.861081,38.881518],[117.859905,38.871703],[117.847379,38.855626],[117.834073,38.855258],[117.821942,38.857244],[117.778477,38.869084],[117.768677,38.863986],[117.752201,38.847497],[117.689212,38.837104],[117.657738,38.836179],[117.646093,38.829099],[117.646433,38.788856],[117.654462,38.778292],[117.671533,38.771993],[117.729071,38.764783],[117.736378,38.76138],[117.741262,38.753942],[117.740753,38.700029],[117.738784,38.689101],[117.729061,38.680055],[117.656711,38.660489],[117.64922,38.654493],[117.642228,38.643264],[117.639026,38.626713],[117.557808,38.6138],[117.554536,38.617007],[117.545783,38.617859],[117.542391,38.611893],[117.538559,38.610184],[117.541439,38.603578],[117.527338,38.60059],[117.524207,38.601245],[117.524016,38.603308],[117.527148,38.606165],[117.522676,38.606716],[117.523853,38.611258],[117.522124,38.614211],[117.520481,38.613882],[117.520281,38.611112],[117.517306,38.610101],[117.512377,38.614031],[117.509575,38.612442],[117.505511,38.61357],[117.506229,38.616355],[117.504214,38.617911],[117.495643,38.615523],[117.478923,38.617242],[117.481578,38.611369],[117.480653,38.610261],[117.477599,38.610642],[117.475444,38.608794],[117.474406,38.610911],[117.471516,38.611239],[117.432433,38.601317],[117.415559,38.590618],[117.410039,38.59394],[117.401206,38.588004],[117.409213,38.585136],[117.396305,38.574556],[117.391969,38.572691],[117.369047,38.56476],[117.368867,38.582468],[117.354745,38.580739],[117.358042,38.570538],[117.350783,38.565819],[117.350478,38.561516],[117.347432,38.561398],[117.346423,38.564917],[117.324922,38.564624],[117.315504,38.557739],[117.308289,38.555578],[117.305635,38.556615],[117.304079,38.56461],[117.29992,38.571471],[117.295292,38.572086],[117.291596,38.571681],[117.292221,38.562418],[117.272535,38.55956],[117.265392,38.556721],[117.263536,38.562283],[117.25318,38.556177],[117.246488,38.566862],[117.245081,38.566928],[117.239433,38.578714],[117.262355,38.583733],[117.261296,38.586728],[117.238357,38.581032],[117.236509,38.584789],[117.245345,38.595312],[117.256676,38.598358],[117.255122,38.602461],[117.259533,38.603056],[117.258944,38.608322],[117.25765,38.607931],[117.254984,38.611774],[117.255254,38.614587],[117.246711,38.617402],[117.246537,38.618661],[117.237251,38.619204],[117.235117,38.623956],[117.230693,38.624007],[117.236611,38.631228],[117.22505,38.630776],[117.226132,38.63411],[117.229671,38.635652],[117.229706,38.642812],[117.223436,38.643874],[117.216481,38.642745],[117.212944,38.640305],[117.210284,38.630051],[117.203225,38.629692],[117.203797,38.626443],[117.200339,38.621959],[117.200235,38.624343],[117.198364,38.624524],[117.197809,38.621369],[117.189308,38.621367],[117.187245,38.616668],[117.186093,38.616532],[117.185409,38.621435],[117.183269,38.621417],[117.183858,38.61819],[117.176606,38.618229],[117.166355,38.614649],[117.165333,38.617234],[117.160758,38.61835],[117.159051,38.618253],[117.158296,38.615645],[117.156754,38.615574],[117.157074,38.617553],[117.15112,38.617715],[117.157431,38.623132],[117.156435,38.632746],[117.154104,38.634087],[117.157891,38.634545],[117.161506,38.647746],[117.163014,38.648395],[117.163154,38.654217],[117.163085,38.65582],[117.157001,38.655995],[117.162349,38.657961],[117.157106,38.658769],[117.157219,38.660354],[117.16065,38.660504],[117.161093,38.665683],[117.158754,38.670034],[117.153857,38.671549],[117.153823,38.676677],[117.148024,38.676126],[117.147366,38.681624],[117.149854,38.681815],[117.148321,38.687771],[117.149379,38.691633],[117.153132,38.691775],[117.154553,38.690257],[117.155732,38.69478],[117.158714,38.698049],[117.157814,38.715076],[117.160486,38.729565],[117.177053,38.731237],[117.176793,38.733261],[117.160217,38.731363],[117.157028,38.730244],[117.155987,38.726655],[117.154185,38.726549],[117.146479,38.729062],[117.144928,38.734458],[117.141695,38.735735],[117.13716,38.733708],[117.136024,38.737106],[117.137031,38.741156],[117.134099,38.741272],[117.154075,38.751087],[117.155056,38.759471],[117.161893,38.758339],[117.164406,38.755872],[117.2159,38.783048],[117.195204,38.795917],[117.20479,38.805185],[117.196731,38.809659],[117.207505,38.820271],[117.223151,38.811611],[117.256394,38.843129],[117.258887,38.847359],[117.312909,38.831069],[117.329333,38.82366],[117.335993,38.82875],[117.330161,38.83018],[117.331032,38.833808],[117.327376,38.836745],[117.385305,38.871186],[117.407533,38.887274],[117.43746,38.858612],[117.44059,38.869742],[117.448286,38.879441],[117.486702,38.905411],[117.50329,38.907764],[117.497068,38.942786],[117.511511,38.94745],[117.512859,38.945179],[117.52169,38.952032],[117.527744,38.953226],[117.543619,38.943053],[117.550984,38.943022],[117.548527,38.954489],[117.548683,38.958723],[117.550302,38.959114],[117.549351,38.968171],[117.560158,38.989512],[117.558011,38.991982],[117.549319,38.991654],[117.538279,39.002268],[117.531151,39.005844],[117.526981,39.005995],[117.524881,39.015073],[117.526343,39.021249],[117.524164,39.022402],[117.525393,39.026381],[117.521984,39.023759],[117.517384,39.026687],[117.520577,39.036831],[117.518821,39.037905],[117.523717,39.046732],[117.527116,39.046171],[117.530137,39.057859],[117.537922,39.055666],[117.559543,39.054918],[117.557821,39.065743],[117.563772,39.078505],[117.552879,39.078982],[117.553366,39.099706],[117.536189,39.099977],[117.535498,39.10655],[117.503225,39.108047],[117.509684,39.137507],[117.514598,39.15056],[117.516855,39.152147],[117.540788,39.14273],[117.552628,39.147227],[117.553088,39.153924],[117.555746,39.159181],[117.566952,39.162157],[117.566745,39.171321],[117.568799,39.177498]]]}},{"type":"Feature","properties":{"dt_adcode":"120117"},"geometry":{"type":"Polygon","coordinates":[[[117.845144,39.325758],[117.848261,39.325191],[117.847949,39.322963],[117.850676,39.32229],[117.848745,39.31885],[117.849887,39.315526],[117.845871,39.314799],[117.844184,39.323669],[117.842886,39.323781],[117.839154,39.317235],[117.842806,39.311327],[117.837673,39.309721],[117.836911,39.306048],[117.850104,39.300583],[117.852397,39.297831],[117.831254,39.266302],[117.825008,39.265658],[117.824235,39.267709],[117.820684,39.267886],[117.809807,39.272735],[117.813607,39.279615],[117.817539,39.279025],[117.813411,39.280532],[117.811445,39.278239],[117.788696,39.287802],[117.789927,39.289585],[117.789686,39.299156],[117.791314,39.301161],[117.784573,39.304264],[117.765768,39.299014],[117.760458,39.294938],[117.731746,39.290062],[117.721691,39.290829],[117.720638,39.282433],[117.709276,39.28316],[117.708969,39.267982],[117.71043,39.267598],[117.715819,39.256914],[117.717992,39.257234],[117.721538,39.250091],[117.725441,39.251224],[117.727569,39.246997],[117.725475,39.24607],[117.743247,39.237881],[117.724541,39.213338],[117.715881,39.194904],[117.719671,39.19352],[117.71879,39.173255],[117.682732,39.173368],[117.679991,39.171726],[117.680098,39.188802],[117.666578,39.188776],[117.643654,39.215076],[117.637733,39.213917],[117.635151,39.212624],[117.635116,39.210505],[117.628379,39.207488],[117.617397,39.205034],[117.617803,39.186725],[117.620653,39.187266],[117.623232,39.183051],[117.616369,39.174352],[117.615239,39.166213],[117.591821,39.170195],[117.559853,39.179741],[117.537168,39.182616],[117.513686,39.192436],[117.513731,39.204774],[117.509909,39.2075],[117.510687,39.202551],[117.502255,39.199641],[117.503768,39.197351],[117.502791,39.195392],[117.491358,39.198548],[117.492405,39.200008],[117.495587,39.199078],[117.501831,39.201361],[117.503587,39.204118],[117.503631,39.208804],[117.493002,39.204836],[117.485123,39.205228],[117.482978,39.20678],[117.487269,39.211045],[117.488005,39.22045],[117.472797,39.229363],[117.46577,39.229002],[117.45681,39.231359],[117.451285,39.236424],[117.447751,39.23191],[117.446382,39.23341],[117.442023,39.230594],[117.425746,39.229998],[117.417507,39.223642],[117.408176,39.225972],[117.410261,39.236624],[117.402611,39.240731],[117.39991,39.24638],[117.393907,39.248062],[117.393995,39.257273],[117.400398,39.259139],[117.407114,39.274479],[117.405456,39.282552],[117.401511,39.287616],[117.397237,39.284052],[117.388436,39.28121],[117.38515,39.282735],[117.383376,39.280293],[117.369045,39.291596],[117.364634,39.287373],[117.356202,39.293204],[117.362425,39.29602],[117.34314,39.310398],[117.337726,39.305997],[117.332494,39.309644],[117.338301,39.313572],[117.336874,39.31522],[117.339085,39.318941],[117.334707,39.323427],[117.331956,39.320833],[117.324201,39.329647],[117.326796,39.332552],[117.325752,39.335246],[117.328015,39.339919],[117.326231,39.343768],[117.32429,39.343959],[117.322776,39.348725],[117.328504,39.350073],[117.330211,39.353589],[117.335094,39.353837],[117.337706,39.359266],[117.350485,39.3615],[117.366088,39.360706],[117.36874,39.357666],[117.370585,39.359766],[117.382421,39.360297],[117.384447,39.362666],[117.389506,39.360438],[117.389488,39.354402],[117.392209,39.354261],[117.392556,39.352659],[117.41571,39.350541],[117.415188,39.346524],[117.435443,39.348121],[117.433978,39.349655],[117.436518,39.352323],[117.43312,39.35537],[117.432896,39.360047],[117.438729,39.357839],[117.441729,39.361643],[117.44885,39.358852],[117.454801,39.361972],[117.461624,39.36244],[117.465389,39.359583],[117.46693,39.361347],[117.473204,39.362074],[117.471353,39.365235],[117.473092,39.366829],[117.477419,39.366566],[117.475168,39.36084],[117.479166,39.368693],[117.486087,39.372295],[117.485646,39.374554],[117.483873,39.375068],[117.485647,39.379526],[117.496726,39.381626],[117.501353,39.380744],[117.508038,39.383611],[117.505877,39.386141],[117.501077,39.384861],[117.497619,39.39234],[117.499772,39.393059],[117.495224,39.403606],[117.494983,39.404966],[117.496989,39.405394],[117.494984,39.41464],[117.49123,39.413679],[117.483259,39.445659],[117.483398,39.449067],[117.489151,39.448621],[117.492463,39.451854],[117.499339,39.454426],[117.496996,39.459404],[117.502929,39.462001],[117.505636,39.461189],[117.509518,39.456323],[117.511645,39.456556],[117.51929,39.459203],[117.517985,39.463176],[117.523156,39.463642],[117.524376,39.466405],[117.541331,39.464379],[117.551387,39.467768],[117.557058,39.47162],[117.564948,39.480775],[117.562229,39.485699],[117.558099,39.486584],[117.555892,39.494547],[117.561927,39.496281],[117.567228,39.4977],[117.567548,39.49397],[117.572391,39.494923],[117.572859,39.490962],[117.577399,39.491781],[117.580181,39.485092],[117.596667,39.487451],[117.600927,39.486678],[117.600945,39.488293],[117.607499,39.489747],[117.605746,39.494197],[117.607265,39.494675],[117.606875,39.498986],[117.608898,39.499747],[117.610037,39.511309],[117.630652,39.515995],[117.637102,39.522067],[117.633366,39.534797],[117.634157,39.537177],[117.658288,39.531131],[117.657505,39.528902],[117.660549,39.527674],[117.667666,39.530254],[117.66844,39.532339],[117.676644,39.533179],[117.681108,39.5366],[117.682317,39.534614],[117.687946,39.534903],[117.690756,39.537539],[117.690392,39.547454],[117.695446,39.549348],[117.69462,39.551096],[117.698482,39.552019],[117.708711,39.548224],[117.707196,39.543411],[117.708847,39.538091],[117.71595,39.530087],[117.722746,39.534994],[117.732946,39.536099],[117.745366,39.548106],[117.735299,39.560808],[117.737741,39.574051],[117.753127,39.576007],[117.751954,39.57901],[117.75514,39.581094],[117.751339,39.584107],[117.748111,39.589671],[117.767533,39.599743],[117.788599,39.59713],[117.792476,39.600738],[117.801947,39.601769],[117.829658,39.590022],[117.839359,39.589631],[117.84705,39.591133],[117.851394,39.589264],[117.853505,39.592302],[117.858044,39.592227],[117.868275,39.596843],[117.884097,39.590129],[117.893301,39.591501],[117.899821,39.589514],[117.929358,39.578519],[117.933988,39.574148],[117.931129,39.568171],[117.929851,39.568517],[117.926672,39.562948],[117.924787,39.56332],[117.918612,39.555822],[117.917118,39.548311],[117.918204,39.548051],[117.915295,39.547816],[117.913298,39.542145],[117.90981,39.541958],[117.908299,39.538606],[117.909818,39.537977],[117.904855,39.536422],[117.90633,39.535389],[117.904933,39.533618],[117.907049,39.532445],[117.905288,39.530118],[117.908446,39.527869],[117.910511,39.529641],[117.909452,39.523171],[117.912593,39.521596],[117.911317,39.517736],[117.913252,39.519673],[117.912375,39.517567],[117.913659,39.517233],[117.908227,39.511371],[117.898581,39.509701],[117.897043,39.489292],[117.893046,39.48932],[117.892396,39.487049],[117.896523,39.485714],[117.898424,39.482696],[117.89953,39.474077],[117.888325,39.469164],[117.886317,39.466773],[117.878068,39.467203],[117.874081,39.454916],[117.870339,39.454947],[117.87185,39.411555],[117.847084,39.408072],[117.848133,39.401941],[117.859379,39.403285],[117.862495,39.397157],[117.860493,39.384668],[117.865705,39.378273],[117.858033,39.373491],[117.852397,39.380765],[117.83898,39.377285],[117.821001,39.376915],[117.805286,39.373303],[117.803406,39.364187],[117.804358,39.359665],[117.806774,39.356934],[117.813683,39.354153],[117.821007,39.356116],[117.833204,39.356319],[117.836467,39.353655],[117.83702,39.350684],[117.85323,39.360724],[117.848102,39.367112],[117.852076,39.369619],[117.854794,39.366488],[117.851859,39.36453],[117.853209,39.362969],[117.860673,39.364806],[117.862794,39.362458],[117.85184,39.349723],[117.849971,39.342355],[117.846101,39.34285],[117.844878,39.338823],[117.841939,39.336419],[117.848089,39.332065],[117.845144,39.325758]],[[117.782356,39.394624],[117.737292,39.410558],[117.69974,39.407603],[117.702325,39.388916],[117.673204,39.386666],[117.670811,39.405278],[117.668044,39.40507],[117.667187,39.407326],[117.670641,39.408504],[117.669096,39.41202],[117.665126,39.410429],[117.663753,39.412384],[117.655007,39.409742],[117.656296,39.407502],[117.651049,39.40573],[117.643478,39.405846],[117.643585,39.403176],[117.641458,39.402952],[117.641846,39.400167],[117.635818,39.398493],[117.635101,39.404486],[117.631667,39.404304],[117.63098,39.408532],[117.614135,39.407107],[117.614307,39.411069],[117.611302,39.413025],[117.612244,39.415331],[117.611086,39.417104],[117.601387,39.419491],[117.601794,39.416409],[117.59714,39.415032],[117.597118,39.412893],[117.59375,39.411932],[117.590638,39.405467],[117.571134,39.404621],[117.57148,39.400326],[117.568089,39.399896],[117.568692,39.397241],[117.560326,39.396494],[117.560924,39.393028],[117.553681,39.39258],[117.554368,39.388988],[117.557319,39.389154],[117.557879,39.385601],[117.55288,39.382576],[117.543977,39.381247],[117.545135,39.377947],[117.538934,39.377316],[117.539234,39.374396],[117.535329,39.374015],[117.537261,39.363681],[117.534171,39.362404],[117.529428,39.366651],[117.526188,39.365606],[117.528549,39.361342],[117.520868,39.357226],[117.529277,39.347401],[117.533633,39.348961],[117.536228,39.338043],[117.569745,39.342622],[117.595278,39.349126],[117.597511,39.345077],[117.606952,39.346968],[117.609226,39.343153],[117.61667,39.344412],[117.617338,39.338075],[117.633551,39.343518],[117.642103,39.344358],[117.642158,39.339271],[117.638167,39.338217],[117.637544,39.335978],[117.642553,39.331662],[117.646471,39.322731],[117.650805,39.322126],[117.652104,39.318466],[117.650419,39.318292],[117.650815,39.315205],[117.658155,39.315431],[117.664602,39.317341],[117.665032,39.31978],[117.669495,39.322856],[117.670947,39.356439],[117.692551,39.355769],[117.692439,39.351792],[117.706846,39.351505],[117.744605,39.354595],[117.751426,39.358487],[117.756537,39.358099],[117.754688,39.360222],[117.78457,39.377002],[117.782356,39.394624]]]}},{"type":"Feature","properties":{"dt_adcode":"120118"},"geometry":{"type":"Polygon","coordinates":[[[117.258887,38.847359],[117.256394,38.843129],[117.223151,38.811611],[117.207505,38.820271],[117.196731,38.809659],[117.20479,38.805185],[117.195204,38.795917],[117.2159,38.783048],[117.164406,38.755872],[117.161893,38.758339],[117.155056,38.759471],[117.154075,38.751087],[117.134099,38.741272],[117.137031,38.741156],[117.136024,38.737106],[117.13716,38.733708],[117.141695,38.735735],[117.144928,38.734458],[117.146479,38.729062],[117.154185,38.726549],[117.155987,38.726655],[117.157028,38.730244],[117.160217,38.731363],[117.176793,38.733261],[117.177053,38.731237],[117.160486,38.729565],[117.157814,38.715076],[117.158714,38.698049],[117.155732,38.69478],[117.154553,38.690257],[117.153132,38.691775],[117.149379,38.691633],[117.148321,38.687771],[117.149854,38.681815],[117.147366,38.681624],[117.148024,38.676126],[117.153823,38.676677],[117.153857,38.671549],[117.158754,38.670034],[117.161093,38.665683],[117.16065,38.660504],[117.157219,38.660354],[117.157106,38.658769],[117.162349,38.657961],[117.157001,38.655995],[117.163085,38.65582],[117.163014,38.648395],[117.161506,38.647746],[117.157891,38.634545],[117.154104,38.634087],[117.156435,38.632746],[117.157431,38.623132],[117.149291,38.615786],[117.150833,38.609319],[117.147878,38.609393],[117.147582,38.606628],[117.138141,38.603857],[117.138313,38.599689],[117.136432,38.598732],[117.1246,38.599938],[117.123967,38.597399],[117.121658,38.5977],[117.122231,38.59625],[117.120678,38.59619],[117.119549,38.589657],[117.109488,38.589114],[117.109852,38.584863],[117.098195,38.586899],[117.097474,38.590714],[117.095255,38.590495],[117.095303,38.592907],[117.092869,38.592715],[117.093,38.594434],[117.097076,38.595521],[117.096876,38.60041],[117.087228,38.599861],[117.086334,38.606369],[117.071556,38.607376],[117.064266,38.635711],[117.060496,38.635709],[117.060757,38.6391],[117.055611,38.639242],[117.054871,38.642466],[117.05218,38.64118],[117.051718,38.643502],[117.056317,38.644983],[117.05605,38.654186],[117.061127,38.672972],[117.068153,38.680643],[117.063261,38.68044],[117.063375,38.682954],[117.054345,38.684265],[117.055094,38.686164],[117.053021,38.68668],[117.044589,38.686222],[117.045374,38.692546],[117.038925,38.688444],[117.041646,38.701603],[117.045245,38.705781],[117.042302,38.706487],[117.01574,38.700401],[117.014465,38.689947],[116.992842,38.692283],[116.994455,38.695722],[116.947211,38.689613],[116.951068,38.689403],[116.94648,38.688474],[116.945592,38.685876],[116.930966,38.685726],[116.929636,38.687574],[116.926801,38.687437],[116.927322,38.680069],[116.917724,38.679611],[116.921228,38.686929],[116.917751,38.687566],[116.897782,38.680774],[116.898303,38.678378],[116.895413,38.680359],[116.877349,38.680678],[116.877566,38.682106],[116.875589,38.682686],[116.875494,38.693159],[116.873006,38.692498],[116.872251,38.693949],[116.874645,38.696481],[116.871906,38.701874],[116.875167,38.712625],[116.871829,38.712903],[116.872844,38.716141],[116.866489,38.717001],[116.867364,38.719861],[116.865874,38.720236],[116.866585,38.722476],[116.867954,38.722339],[116.87014,38.729883],[116.868675,38.729885],[116.869179,38.737917],[116.867341,38.745966],[116.860356,38.744982],[116.85911,38.741308],[116.835545,38.742799],[116.831464,38.741591],[116.829437,38.741812],[116.829757,38.743205],[116.796539,38.746691],[116.796323,38.743561],[116.794354,38.743542],[116.793011,38.744403],[116.794476,38.746194],[116.792846,38.746357],[116.791225,38.745066],[116.791224,38.74005],[116.784043,38.738339],[116.784512,38.740527],[116.778864,38.740623],[116.775021,38.742801],[116.766351,38.741937],[116.765787,38.746397],[116.763608,38.746098],[116.76281,38.750549],[116.759511,38.751674],[116.758938,38.754879],[116.7463,38.754243],[116.745083,38.752527],[116.75131,38.780196],[116.742323,38.78083],[116.742767,38.784017],[116.737335,38.784487],[116.741421,38.79621],[116.745766,38.795743],[116.746097,38.798588],[116.740761,38.799219],[116.744021,38.805318],[116.738485,38.807051],[116.744569,38.814932],[116.746239,38.824643],[116.74908,38.824431],[116.7512,38.831276],[116.749289,38.831979],[116.747447,38.830284],[116.743754,38.831564],[116.743495,38.839198],[116.746025,38.851458],[116.723127,38.85253],[116.722341,38.897055],[116.708028,38.897031],[116.708141,38.931854],[116.709992,38.931929],[116.710272,38.939256],[116.71617,38.938916],[116.718362,38.942974],[116.722623,38.956533],[116.723036,38.966589],[116.725393,38.966466],[116.728603,38.975359],[116.734898,38.977871],[116.735333,38.980621],[116.740366,38.980837],[116.745459,38.991419],[116.747831,38.991007],[116.748666,38.995763],[116.750525,38.994013],[116.752376,39.003437],[116.7546,39.003225],[116.756329,39.013049],[116.754905,39.013088],[116.754932,39.019042],[116.758867,39.02043],[116.759353,39.031641],[116.755411,39.032536],[116.754439,39.034942],[116.751711,39.034511],[116.751268,39.036166],[116.75662,39.050311],[116.760745,39.050558],[116.77301,39.046875],[116.774833,39.050427],[116.778841,39.049425],[116.781374,39.05344],[116.779474,39.053811],[116.781601,39.058456],[116.786805,39.059324],[116.78733,39.061927],[116.797185,39.060254],[116.796131,39.056333],[116.792192,39.057175],[116.785018,39.055699],[116.785026,39.052785],[116.782406,39.05274],[116.785902,39.05106],[116.783369,39.050958],[116.784843,39.048225],[116.787602,39.050124],[116.787801,39.052678],[116.792545,39.052446],[116.797071,39.054416],[116.802575,39.053244],[116.802679,39.050903],[116.812438,39.051061],[116.812828,39.049879],[116.813547,39.051655],[116.819301,39.050993],[116.819041,39.048297],[116.822603,39.048442],[116.821987,39.046754],[116.831475,39.049516],[116.840156,39.049599],[116.840139,39.052118],[116.842159,39.052165],[116.842141,39.049391],[116.860451,39.050567],[116.860304,39.053529],[116.871652,39.054668],[116.869927,39.059621],[116.873725,39.060537],[116.869876,39.069914],[116.877811,39.072588],[116.898183,39.066666],[116.897176,39.062753],[116.886771,39.059394],[116.888991,39.055062],[116.901004,39.061331],[116.904999,39.057417],[116.908673,39.061183],[116.919134,39.05964],[116.920011,39.058033],[116.921663,39.060115],[116.940927,39.050107],[116.945575,39.057054],[116.948239,39.056451],[116.949806,39.059859],[116.951739,39.059402],[116.948979,39.054285],[116.962389,39.050764],[116.960586,39.046691],[116.968391,39.045489],[116.968487,39.043548],[116.970831,39.043107],[116.970316,39.038836],[117.006808,39.032986],[117.038208,39.021212],[117.033336,39.015588],[117.040517,39.012736],[117.040055,39.010451],[117.037571,39.010474],[117.035321,38.997388],[117.057153,38.995876],[117.057973,39.000868],[117.063067,39.005016],[117.078616,38.993974],[117.12253,38.97503],[117.136954,38.963603],[117.179007,38.910359],[117.19396,38.894849],[117.248797,38.851729],[117.258887,38.847359]]]}},{"type":"Feature","properties":{"dt_adcode":"120119"},"geometry":{"type":"Polygon","coordinates":[[[117.781851,39.966319],[117.772351,39.97015],[117.76922,39.969148],[117.763426,39.972723],[117.755894,39.965123],[117.752119,39.966086],[117.741615,39.973335],[117.733927,39.971121],[117.727941,39.97213],[117.723788,39.980277],[117.719442,39.979894],[117.706688,39.986018],[117.695694,39.985751],[117.695398,39.987656],[117.694868,39.985446],[117.688987,39.984024],[117.685663,39.979495],[117.682096,39.979853],[117.674726,39.974804],[117.662894,39.974764],[117.6567,39.972075],[117.641368,39.971981],[117.640255,39.973434],[117.635221,39.96907],[117.631883,39.968706],[117.614828,39.972434],[117.611311,39.975896],[117.611902,39.977884],[117.613681,39.976716],[117.613439,39.977919],[117.615628,39.978775],[117.615654,39.982426],[117.613023,39.981808],[117.608673,39.983895],[117.60304,39.987749],[117.599639,39.993747],[117.592698,39.994461],[117.59177,39.996701],[117.578911,39.993856],[117.577256,39.996037],[117.572776,39.996052],[117.569899,39.994189],[117.571874,39.992893],[117.568764,39.992967],[117.566234,39.990883],[117.562138,39.992874],[117.563031,39.995668],[117.560502,39.997078],[117.550296,39.997073],[117.546634,39.998913],[117.543951,39.994084],[117.538337,39.997324],[117.535706,39.99641],[117.537713,39.989985],[117.540827,39.987647],[117.542981,39.983114],[117.546292,39.981417],[117.547337,39.97685],[117.538653,39.970377],[117.536281,39.961529],[117.534422,39.961595],[117.534464,39.954714],[117.532915,39.952492],[117.530355,39.951158],[117.527276,39.952356],[117.524256,39.946523],[117.519615,39.948439],[117.517718,39.946107],[117.514951,39.946684],[117.511146,39.941079],[117.512468,39.933679],[117.525508,39.929608],[117.522057,39.924796],[117.521961,39.920634],[117.51954,39.921257],[117.518537,39.919671],[117.516807,39.921192],[117.51525,39.918805],[117.514386,39.921437],[117.511377,39.92132],[117.511039,39.919928],[117.503464,39.918974],[117.505487,39.918165],[117.504665,39.915689],[117.506914,39.915084],[117.507286,39.916728],[117.510114,39.916624],[117.513235,39.919974],[117.511904,39.917395],[117.513624,39.916674],[117.512741,39.910548],[117.514358,39.909853],[117.514358,39.906836],[117.511963,39.907672],[117.512888,39.908915],[117.511522,39.909458],[117.510086,39.908129],[117.507432,39.909049],[117.503938,39.904875],[117.507189,39.904162],[117.51005,39.893828],[117.516836,39.895159],[117.518586,39.892164],[117.521369,39.870622],[117.52981,39.860982],[117.527852,39.860814],[117.52818,39.859658],[117.532591,39.856308],[117.534026,39.852037],[117.537185,39.852837],[117.544734,39.844587],[117.54575,39.848037],[117.548501,39.845851],[117.546726,39.842821],[117.547981,39.839706],[117.5431,39.838159],[117.544328,39.833016],[117.542589,39.831758],[117.538004,39.835251],[117.536178,39.834036],[117.536411,39.831786],[117.539067,39.831697],[117.540139,39.828951],[117.540865,39.821935],[117.543253,39.822975],[117.54308,39.821461],[117.544396,39.821379],[117.548843,39.824067],[117.558102,39.812187],[117.561446,39.800039],[117.568228,39.799437],[117.560389,39.795001],[117.554146,39.795109],[117.554396,39.787083],[117.546138,39.776154],[117.552257,39.774087],[117.551953,39.772386],[117.554836,39.771425],[117.550377,39.762961],[117.546127,39.763666],[117.54418,39.761292],[117.541679,39.762235],[117.536812,39.759958],[117.531917,39.761393],[117.533055,39.766251],[117.528149,39.76613],[117.524509,39.768728],[117.523513,39.765601],[117.519942,39.764656],[117.515239,39.769663],[117.511581,39.765723],[117.507188,39.76719],[117.503911,39.770612],[117.503531,39.773877],[117.493041,39.770888],[117.488873,39.77946],[117.484193,39.774768],[117.479825,39.777406],[117.47716,39.776419],[117.469563,39.777537],[117.472963,39.773956],[117.46185,39.768248],[117.460421,39.769471],[117.463548,39.775359],[117.461894,39.776244],[117.45727,39.772916],[117.453996,39.767869],[117.449285,39.768889],[117.439935,39.764442],[117.437187,39.755543],[117.431231,39.755901],[117.426756,39.758292],[117.413751,39.760969],[117.412041,39.763521],[117.412423,39.76817],[117.407709,39.772146],[117.399102,39.770855],[117.392187,39.777679],[117.392613,39.782459],[117.388476,39.782516],[117.389181,39.787009],[117.387224,39.784829],[117.382243,39.787754],[117.375539,39.787624],[117.374495,39.79074],[117.365848,39.791079],[117.365971,39.794682],[117.363752,39.795776],[117.361568,39.793733],[117.356181,39.792851],[117.349132,39.794714],[117.345215,39.797688],[117.342203,39.795439],[117.340131,39.798299],[117.337772,39.796264],[117.333646,39.796534],[117.329302,39.791581],[117.323687,39.793146],[117.319162,39.800066],[117.321791,39.801976],[117.319624,39.804603],[117.306465,39.808221],[117.306003,39.806315],[117.301374,39.805279],[117.298468,39.808869],[117.298277,39.812328],[117.295928,39.810984],[117.293475,39.812808],[117.290727,39.812114],[117.289605,39.813767],[117.285813,39.812708],[117.2849,39.816752],[117.286414,39.819037],[117.278537,39.825123],[117.27419,39.824491],[117.26882,39.828338],[117.264893,39.827008],[117.257231,39.829797],[117.255625,39.832748],[117.252241,39.832766],[117.251856,39.83429],[117.255296,39.836251],[117.253333,39.838474],[117.255566,39.842663],[117.259987,39.844021],[117.25205,39.854882],[117.251625,39.857811],[117.24745,39.861059],[117.239794,39.860451],[117.236887,39.855791],[117.230857,39.856898],[117.22946,39.853023],[117.227795,39.852778],[117.220051,39.856549],[117.212439,39.856382],[117.211113,39.859921],[117.199734,39.862283],[117.19411,39.861256],[117.18698,39.866629],[117.183609,39.864157],[117.180819,39.864119],[117.181296,39.868645],[117.178394,39.870903],[117.174885,39.866426],[117.16843,39.866685],[117.166541,39.868608],[117.174392,39.873615],[117.174124,39.87533],[117.17052,39.87752],[117.167071,39.872469],[117.164636,39.872813],[117.162609,39.876844],[117.157756,39.878741],[117.152851,39.875485],[117.152366,39.878168],[117.158407,39.889317],[117.149118,39.896286],[117.148173,39.898727],[117.150557,39.902052],[117.157578,39.904589],[117.158835,39.909205],[117.145479,39.910919],[117.142515,39.918796],[117.13583,39.920363],[117.149875,39.924237],[117.147691,39.926732],[117.1464,39.933141],[117.149972,39.935874],[117.155042,39.934143],[117.157374,39.935936],[117.153553,39.942045],[117.145926,39.946146],[117.146957,39.947277],[117.15104,39.944857],[117.158641,39.950769],[117.164525,39.952078],[117.166484,39.954909],[117.164873,39.963129],[117.160827,39.965644],[117.16626,39.962939],[117.171216,39.963746],[117.173892,39.959253],[117.175937,39.959119],[117.179672,39.965597],[117.178625,39.977288],[117.188121,39.978806],[117.188,39.980339],[117.191146,39.981822],[117.190895,39.986471],[117.193382,39.986518],[117.193304,39.989357],[117.198114,39.992743],[117.195749,40.003946],[117.197674,40.010588],[117.195274,40.009993],[117.195647,40.012375],[117.193221,40.016768],[117.194088,40.021567],[117.187807,40.025867],[117.186961,40.046429],[117.188711,40.047772],[117.183409,40.053033],[117.184094,40.055072],[117.181772,40.059018],[117.184069,40.062586],[117.192023,40.061494],[117.192977,40.066537],[117.202526,40.064975],[117.203556,40.063598],[117.209312,40.065784],[117.211895,40.064131],[117.222871,40.065514],[117.219733,40.071117],[117.215121,40.073672],[117.213032,40.079408],[117.209782,40.082243],[117.211811,40.084832],[117.215391,40.085347],[117.213805,40.086457],[117.214196,40.088652],[117.211066,40.090662],[117.21118,40.096578],[117.224497,40.094655],[117.224411,40.098614],[117.228426,40.100038],[117.229086,40.103666],[117.235957,40.108344],[117.238223,40.111749],[117.245504,40.113256],[117.249263,40.11648],[117.253405,40.115707],[117.255532,40.11328],[117.260396,40.114157],[117.266825,40.112176],[117.269918,40.107203],[117.274358,40.105808],[117.276654,40.109308],[117.275428,40.113465],[117.278611,40.114861],[117.279845,40.117979],[117.281793,40.118085],[117.283289,40.120517],[117.289481,40.121209],[117.297822,40.119137],[117.297066,40.121267],[117.302991,40.125929],[117.307126,40.132481],[117.307614,40.136975],[117.311713,40.139447],[117.318563,40.138518],[117.323272,40.140709],[117.330932,40.135758],[117.330653,40.133613],[117.339594,40.13538],[117.344538,40.134655],[117.349073,40.136522],[117.352451,40.140851],[117.354549,40.139093],[117.35635,40.14091],[117.35689,40.145043],[117.350763,40.144664],[117.355281,40.148591],[117.350372,40.148613],[117.35744,40.15594],[117.360625,40.156965],[117.357684,40.160871],[117.357581,40.164057],[117.352977,40.168073],[117.351376,40.172919],[117.358756,40.173566],[117.36188,40.171661],[117.362925,40.172348],[117.361436,40.174408],[117.363604,40.174958],[117.364221,40.176839],[117.366284,40.174398],[117.364151,40.172814],[117.366622,40.172272],[117.366353,40.173947],[117.368841,40.172996],[117.368536,40.174688],[117.372025,40.176534],[117.376296,40.176652],[117.381217,40.17246],[117.382131,40.173078],[117.380392,40.176926],[117.393188,40.174902],[117.393666,40.176378],[117.391416,40.178139],[117.401226,40.183618],[117.404744,40.183237],[117.407697,40.187496],[117.397709,40.192915],[117.393051,40.188931],[117.390826,40.190727],[117.388862,40.190235],[117.388349,40.188255],[117.383854,40.187968],[117.38389,40.192843],[117.385577,40.194469],[117.381464,40.194903],[117.379874,40.201985],[117.382344,40.204566],[117.382748,40.201771],[117.393287,40.203877],[117.387082,40.207558],[117.382692,40.206933],[117.380944,40.208159],[117.381136,40.210057],[117.378553,40.210066],[117.379049,40.215689],[117.377589,40.218613],[117.393724,40.221662],[117.393213,40.2253],[117.390023,40.227967],[117.39516,40.234252],[117.397758,40.235196],[117.403005,40.233431],[117.403022,40.231082],[117.405357,40.230181],[117.41247,40.236466],[117.415361,40.23686],[117.414962,40.240984],[117.412653,40.243516],[117.415744,40.248776],[117.417905,40.24832],[117.419459,40.249891],[117.429972,40.246536],[117.434177,40.248112],[117.439726,40.253206],[117.450279,40.252469],[117.472846,40.243186],[117.474481,40.240873],[117.481091,40.241732],[117.484074,40.235299],[117.488978,40.232533],[117.490994,40.233269],[117.4992,40.230961],[117.504526,40.227225],[117.534527,40.229938],[117.546631,40.23292],[117.548509,40.232603],[117.548206,40.230416],[117.550906,40.228044],[117.554481,40.229686],[117.563227,40.229313],[117.569826,40.225569],[117.567461,40.225356],[117.569358,40.22494],[117.571125,40.221256],[117.570994,40.217094],[117.569184,40.213893],[117.565692,40.212613],[117.562366,40.206065],[117.567311,40.205357],[117.572829,40.200322],[117.571867,40.195839],[117.575705,40.19247],[117.573174,40.190034],[117.575565,40.185833],[117.574378,40.183534],[117.576396,40.178604],[117.579672,40.177963],[117.58411,40.171772],[117.58887,40.168201],[117.593267,40.17056],[117.601191,40.171214],[117.606275,40.165292],[117.607881,40.160782],[117.611979,40.16123],[117.613142,40.157776],[117.618614,40.157587],[117.618882,40.153538],[117.620785,40.152215],[117.618465,40.151332],[117.621409,40.146572],[117.624615,40.145789],[117.625954,40.146984],[117.626692,40.145809],[117.630586,40.147774],[117.63228,40.144086],[117.631567,40.141573],[117.636947,40.136852],[117.634799,40.134024],[117.635529,40.132488],[117.650154,40.128189],[117.64851,40.126399],[117.65058,40.124974],[117.652902,40.125889],[117.651893,40.122389],[117.650371,40.122095],[117.651822,40.114823],[117.654614,40.114663],[117.651944,40.113686],[117.654805,40.112223],[117.653144,40.110758],[117.658197,40.109642],[117.656231,40.109482],[117.657554,40.10916],[117.655788,40.106761],[117.648733,40.10417],[117.647533,40.101751],[117.648315,40.098601],[117.644845,40.096666],[117.649584,40.091276],[117.652071,40.092122],[117.654211,40.090762],[117.655603,40.092506],[117.656838,40.091002],[117.658422,40.09656],[117.663954,40.096501],[117.668105,40.100927],[117.669462,40.096889],[117.671732,40.096546],[117.672315,40.09215],[117.674542,40.092149],[117.674411,40.089007],[117.676873,40.089159],[117.674906,40.082141],[117.678134,40.082373],[117.678735,40.088173],[117.679317,40.085661],[117.683868,40.085774],[117.683519,40.08349],[117.688252,40.082852],[117.689862,40.086771],[117.687224,40.087619],[117.688711,40.087567],[117.69028,40.093555],[117.696926,40.094926],[117.703954,40.092238],[117.707981,40.093956],[117.711354,40.082688],[117.713084,40.083176],[117.711754,40.085844],[117.714119,40.085969],[117.716352,40.082152],[117.72016,40.082501],[117.718769,40.081961],[117.722376,40.079799],[117.730528,40.080559],[117.734306,40.077303],[117.745181,40.078538],[117.74789,40.081738],[117.75164,40.081995],[117.75558,40.079547],[117.758477,40.073319],[117.753392,40.073327],[117.754294,40.068674],[117.756117,40.068987],[117.758199,40.065962],[117.767802,40.066077],[117.76925,40.061679],[117.770976,40.06183],[117.771808,40.059681],[117.774986,40.060607],[117.776146,40.058931],[117.773564,40.052306],[117.762522,40.045981],[117.758286,40.044352],[117.75246,40.045339],[117.752859,40.048104],[117.751279,40.04576],[117.750151,40.047466],[117.747911,40.047452],[117.74804,40.037239],[117.743742,40.031269],[117.744148,40.018439],[117.756864,40.010269],[117.758437,40.011989],[117.757648,40.017566],[117.761116,40.020969],[117.767362,40.018935],[117.767597,40.021817],[117.769747,40.022176],[117.770466,40.01645],[117.770346,40.023547],[117.782448,40.023513],[117.784149,40.015302],[117.785925,40.017909],[117.791265,40.016217],[117.791751,40.012461],[117.797029,40.010292],[117.796933,40.008057],[117.794733,40.008042],[117.794715,40.006089],[117.792948,40.005588],[117.79507,40.003497],[117.796472,39.996624],[117.794974,39.996978],[117.791517,39.99374],[117.791915,39.991973],[117.789636,39.990943],[117.78668,39.981653],[117.787105,39.977902],[117.785493,39.976441],[117.787555,39.973995],[117.782094,39.968449],[117.781851,39.966319]]]}}]}