{"type":"FeatureCollection","features":[{"type":"Feature","properties":{"dt_adcode":"310101"},"geometry":{"type":"Polygon","coordinates":[[[121.470387,31.191271],[121.466868,31.204262],[121.462269,31.203173],[121.46123,31.211716],[121.456896,31.221918],[121.456756,31.223898],[121.467547,31.224093],[121.466323,31.234315],[121.462973,31.241401],[121.46956,31.239214],[121.475601,31.241491],[121.480575,31.240168],[121.486969,31.244242],[121.494832,31.242209],[121.493361,31.238924],[121.494347,31.234544],[121.50672,31.223139],[121.509395,31.218465],[121.508374,31.210159],[121.498071,31.195598],[121.493236,31.192162],[121.475985,31.187888],[121.474463,31.19022],[121.470387,31.191271]]]}},{"type":"Feature","properties":{"dt_adcode":"310104"},"geometry":{"type":"Polygon","coordinates":[[[121.457686,31.220194],[121.46123,31.211716],[121.462269,31.203173],[121.466868,31.204262],[121.470344,31.1913],[121.474463,31.19022],[121.475985,31.187888],[121.468733,31.184118],[121.466249,31.181089],[121.464907,31.175406],[121.469302,31.160254],[121.457459,31.146451],[121.458982,31.139357],[121.468728,31.127867],[121.469299,31.118731],[121.463239,31.108584],[121.462857,31.101956],[121.45542,31.100756],[121.452623,31.10123],[121.450536,31.104952],[121.446275,31.105739],[121.452364,31.108592],[121.450156,31.112817],[121.451663,31.115012],[121.446632,31.11425],[121.445938,31.115422],[121.439413,31.112066],[121.436042,31.113226],[121.438935,31.119664],[121.436504,31.129051],[121.421521,31.127132],[121.41295,31.138701],[121.404949,31.156692],[121.400974,31.155215],[121.40145,31.153774],[121.396937,31.152685],[121.3959,31.155882],[121.404575,31.15759],[121.40264,31.162231],[121.394572,31.159606],[121.391507,31.168691],[121.394052,31.169493],[121.392697,31.173086],[121.395421,31.174593],[121.394447,31.177879],[121.415158,31.183396],[121.415774,31.185816],[121.412909,31.187729],[121.41257,31.191118],[121.416191,31.192428],[121.416651,31.190957],[121.420754,31.191079],[121.422168,31.192665],[121.421639,31.195353],[121.423796,31.197311],[121.437927,31.203972],[121.435222,31.211122],[121.437835,31.211785],[121.439464,31.214483],[121.448846,31.216255],[121.457686,31.220194]]]}},{"type":"Feature","properties":{"dt_adcode":"310105"},"geometry":{"type":"Polygon","coordinates":[[[121.41257,31.191118],[121.392204,31.191962],[121.380159,31.190208],[121.363428,31.185109],[121.358319,31.186014],[121.356953,31.182763],[121.353299,31.181632],[121.351421,31.183496],[121.342104,31.179695],[121.341747,31.177794],[121.341416,31.179442],[121.338336,31.180111],[121.331804,31.189626],[121.338051,31.192615],[121.338513,31.21218],[121.339992,31.212274],[121.341228,31.214304],[121.339722,31.212981],[121.339366,31.216609],[121.34222,31.217313],[121.34309,31.223077],[121.345631,31.223531],[121.340794,31.224551],[121.343108,31.227506],[121.345369,31.227889],[121.345379,31.230392],[121.343509,31.234309],[121.338768,31.235592],[121.33835,31.237526],[121.340865,31.239947],[121.34558,31.239884],[121.344614,31.243553],[121.346033,31.243981],[121.346816,31.241043],[121.348921,31.243865],[121.35013,31.241842],[121.348738,31.239369],[121.353687,31.237825],[121.361253,31.226363],[121.366062,31.226008],[121.366967,31.223734],[121.370958,31.222812],[121.373539,31.219838],[121.376912,31.220686],[121.399146,31.218293],[121.400466,31.220808],[121.415387,31.223901],[121.415266,31.228578],[121.419942,31.225197],[121.427515,31.229284],[121.427712,31.224225],[121.429031,31.22309],[121.434302,31.225891],[121.439464,31.214483],[121.437835,31.211785],[121.435222,31.211122],[121.437927,31.203972],[121.423796,31.197311],[121.421639,31.195353],[121.422168,31.192665],[121.420754,31.191079],[121.416651,31.190957],[121.416191,31.192428],[121.41257,31.191118]]]}},{"type":"Feature","properties":{"dt_adcode":"310106"},"geometry":{"type":"Polygon","coordinates":[[[121.425251,31.270666],[121.422836,31.284259],[121.4238,31.291057],[121.419696,31.291068],[121.418646,31.29289],[121.420034,31.296912],[121.426938,31.298531],[121.426428,31.303203],[121.431294,31.303635],[121.432167,31.311686],[121.43462,31.312297],[121.432471,31.318665],[121.433599,31.320867],[121.446718,31.319813],[121.447887,31.317103],[121.457136,31.320999],[121.468146,31.320241],[121.467679,31.306304],[121.463532,31.306003],[121.464527,31.297994],[121.460051,31.289911],[121.461808,31.284695],[121.461462,31.278926],[121.470196,31.267127],[121.480494,31.258569],[121.479625,31.253389],[121.481681,31.250723],[121.479589,31.24981],[121.482989,31.24192],[121.480324,31.240106],[121.475601,31.241491],[121.46956,31.239214],[121.462973,31.241401],[121.466323,31.234315],[121.46746,31.223866],[121.456756,31.223898],[121.457686,31.220194],[121.449544,31.216474],[121.439303,31.21441],[121.43541,31.225069],[121.434302,31.225891],[121.429031,31.22309],[121.427712,31.224225],[121.427747,31.230669],[121.431006,31.235103],[121.435685,31.23541],[121.44925,31.242499],[121.448314,31.24522],[121.451467,31.251992],[121.449319,31.252923],[121.451043,31.256263],[121.442719,31.267381],[121.432415,31.271941],[121.429838,31.274927],[121.425251,31.270666]]]}},{"type":"Feature","properties":{"dt_adcode":"310107"},"geometry":{"type":"Polygon","coordinates":[[[121.354183,31.237123],[121.35621,31.23804],[121.356069,31.240156],[121.36009,31.240499],[121.360727,31.238605],[121.363672,31.239463],[121.364521,31.242936],[121.368382,31.247385],[121.372352,31.24375],[121.373093,31.245688],[121.375747,31.244447],[121.380891,31.257763],[121.376898,31.259521],[121.375159,31.259488],[121.374568,31.257054],[121.365882,31.257686],[121.366021,31.259354],[121.361778,31.25994],[121.358917,31.263607],[121.359848,31.266997],[121.366993,31.266666],[121.36744,31.269636],[121.361266,31.270843],[121.358917,31.268796],[121.357326,31.271414],[121.35235,31.273133],[121.344721,31.273916],[121.343547,31.271435],[121.338266,31.27284],[121.338884,31.275001],[121.33623,31.275463],[121.336065,31.280042],[121.334717,31.279809],[121.333125,31.2824],[121.332734,31.286069],[121.328992,31.2846],[121.326635,31.285918],[121.326389,31.288926],[121.33282,31.290921],[121.332227,31.292993],[121.33437,31.293045],[121.334023,31.294331],[121.341017,31.293722],[121.34093,31.297434],[121.342287,31.29799],[121.348537,31.296533],[121.348899,31.300252],[121.352718,31.301707],[121.355249,31.299779],[121.360312,31.302711],[121.363538,31.302738],[121.358589,31.293465],[121.369667,31.289116],[121.370154,31.290324],[121.374832,31.289101],[121.376249,31.290598],[121.381533,31.289434],[121.38162,31.292714],[121.383202,31.293873],[121.38839,31.295265],[121.394757,31.294676],[121.393489,31.291278],[121.397892,31.290518],[121.397501,31.289313],[121.399846,31.288467],[121.398448,31.287144],[121.404448,31.286221],[121.40054,31.277373],[121.406496,31.276857],[121.405443,31.273062],[121.410961,31.273179],[121.410597,31.270337],[121.415273,31.269143],[121.415721,31.265907],[121.419502,31.265239],[121.421689,31.267283],[121.420622,31.268606],[121.423229,31.26838],[121.429838,31.274927],[121.432415,31.271941],[121.442719,31.267381],[121.451043,31.256263],[121.449319,31.252923],[121.451285,31.250735],[121.448314,31.24522],[121.44925,31.242499],[121.435685,31.23541],[121.431006,31.235103],[121.427515,31.229284],[121.423333,31.228119],[121.420835,31.22542],[121.414954,31.228497],[121.415387,31.223901],[121.400466,31.220808],[121.399146,31.218293],[121.376912,31.220686],[121.373539,31.219838],[121.370958,31.222812],[121.366967,31.223734],[121.366062,31.226008],[121.361253,31.226363],[121.354183,31.237123]]]}},{"type":"Feature","properties":{"dt_adcode":"310109"},"geometry":{"type":"Polygon","coordinates":[[[121.485097,31.314734],[121.485546,31.303861],[121.490171,31.292599],[121.501288,31.294631],[121.50271,31.289658],[121.496482,31.284474],[121.496566,31.276402],[121.501408,31.275059],[121.50651,31.270593],[121.506925,31.264858],[121.517651,31.251841],[121.516007,31.251599],[121.51649,31.246951],[121.502876,31.24581],[121.494832,31.242209],[121.486969,31.244242],[121.482989,31.24192],[121.479589,31.24981],[121.481681,31.250723],[121.479625,31.253389],[121.480494,31.258569],[121.470196,31.267127],[121.461884,31.27727],[121.460051,31.289911],[121.464527,31.297994],[121.463532,31.306003],[121.467679,31.306304],[121.468311,31.316035],[121.485097,31.314734]]]}},{"type":"Feature","properties":{"dt_adcode":"310110"},"geometry":{"type":"Polygon","coordinates":[[[121.51649,31.246951],[121.516007,31.251599],[121.517651,31.251841],[121.506925,31.264858],[121.50651,31.270593],[121.501408,31.275059],[121.496566,31.276402],[121.496482,31.284474],[121.50271,31.289658],[121.501288,31.294631],[121.490171,31.292599],[121.485546,31.303861],[121.485407,31.311578],[121.496714,31.311489],[121.496222,31.323347],[121.498947,31.325636],[121.493585,31.330471],[121.505678,31.345852],[121.517631,31.340774],[121.52026,31.344036],[121.522883,31.342886],[121.525486,31.346799],[121.549403,31.337791],[121.558572,31.331258],[121.561888,31.321159],[121.561757,31.303338],[121.569144,31.28525],[121.569525,31.279564],[121.565964,31.271808],[121.559077,31.264219],[121.541537,31.251832],[121.527562,31.247253],[121.51649,31.246951]]]}},{"type":"Feature","properties":{"dt_adcode":"310112"},"geometry":{"type":"Polygon","coordinates":[[[121.33835,31.237526],[121.338768,31.235592],[121.343509,31.234309],[121.345379,31.230392],[121.345369,31.227889],[121.343108,31.227506],[121.340794,31.224551],[121.345631,31.223531],[121.34309,31.223077],[121.34222,31.217313],[121.339366,31.216609],[121.339722,31.212981],[121.341228,31.214304],[121.339992,31.212274],[121.338513,31.21218],[121.338051,31.192615],[121.331804,31.189626],[121.338336,31.180111],[121.341416,31.179442],[121.341903,31.177781],[121.342104,31.179695],[121.351421,31.183496],[121.353299,31.181632],[121.356953,31.182763],[121.358319,31.186014],[121.363428,31.185109],[121.386515,31.191322],[121.41257,31.191118],[121.412909,31.187729],[121.415774,31.185816],[121.415158,31.183396],[121.394447,31.177879],[121.395421,31.174593],[121.392697,31.173086],[121.394052,31.169493],[121.391507,31.168691],[121.394572,31.159606],[121.40264,31.162231],[121.404575,31.15759],[121.3959,31.155882],[121.396937,31.152685],[121.40145,31.153774],[121.400974,31.155215],[121.404949,31.156692],[121.41295,31.138701],[121.421521,31.127132],[121.436504,31.129051],[121.438935,31.119664],[121.435732,31.113542],[121.439413,31.112066],[121.445938,31.115422],[121.446632,31.11425],[121.451663,31.115012],[121.450156,31.112817],[121.452364,31.108592],[121.446154,31.106567],[121.451879,31.103853],[121.452623,31.10123],[121.462857,31.101956],[121.463239,31.108584],[121.465204,31.112097],[121.471557,31.110194],[121.472959,31.1111],[121.471427,31.111962],[121.474525,31.114436],[121.477095,31.109365],[121.478531,31.111333],[121.479318,31.109984],[121.48136,31.1107],[121.47745,31.117333],[121.481871,31.118498],[121.481915,31.120089],[121.485704,31.121937],[121.486128,31.124637],[121.490272,31.12428],[121.492806,31.118714],[121.499129,31.121137],[121.501576,31.114662],[121.505295,31.115488],[121.50386,31.118318],[121.509742,31.121453],[121.512794,31.119437],[121.514515,31.115278],[121.521418,31.116309],[121.522871,31.115239],[121.523935,31.116716],[121.531419,31.118422],[121.532249,31.117204],[121.535347,31.117973],[121.537882,31.113982],[121.542244,31.116157],[121.545775,31.109881],[121.550424,31.11162],[121.549212,31.113421],[121.552311,31.1139],[121.553333,31.112682],[121.555281,31.114882],[121.559862,31.111892],[121.557523,31.110609],[121.55787,31.108949],[121.561394,31.106224],[121.560138,31.105428],[121.563646,31.101864],[121.562069,31.101255],[121.562952,31.09809],[121.565006,31.098712],[121.567266,31.093629],[121.563108,31.091777],[121.561341,31.093578],[121.551608,31.090126],[121.551539,31.08815],[121.548543,31.086886],[121.55056,31.082834],[121.553555,31.080298],[121.561063,31.083723],[121.571181,31.080096],[121.575445,31.08076],[121.573225,31.078872],[121.570019,31.078989],[121.571121,31.077625],[121.568599,31.076524],[121.557529,31.073361],[121.559036,31.072175],[121.552784,31.069508],[121.554039,31.068463],[121.553294,31.066973],[121.555,31.068272],[121.556749,31.067366],[121.552264,31.066005],[121.547199,31.061651],[121.548679,31.057865],[121.545907,31.056387],[121.546031,31.047192],[121.546678,31.048137],[121.54853,31.046798],[121.548302,31.048194],[121.554739,31.050822],[121.556124,31.047633],[121.559086,31.046746],[121.55938,31.044194],[121.561497,31.043192],[121.559457,31.041397],[121.560297,31.030209],[121.557958,31.029171],[121.5584,31.024525],[121.552797,31.023264],[121.552174,31.021476],[121.554139,31.018608],[121.558702,31.020254],[121.56027,31.024127],[121.562358,31.024536],[121.561621,31.022717],[121.563657,31.023545],[121.564297,31.021186],[121.566212,31.021135],[121.569054,31.024394],[121.568387,31.025286],[121.572511,31.026385],[121.574721,31.020316],[121.571012,31.016423],[121.569824,31.012448],[121.565241,31.011506],[121.569729,31.010601],[121.571461,31.005634],[121.570707,31.002298],[121.567961,31.000879],[121.570473,30.998351],[121.563499,30.995771],[121.555912,30.995147],[121.556224,30.993376],[121.552552,30.994661],[121.553479,30.992511],[121.551392,30.987958],[121.549539,30.988311],[121.545004,30.994026],[121.538236,30.993144],[121.534506,30.995852],[121.531963,30.994815],[121.524592,30.99915],[121.520318,30.999351],[121.520085,31.002563],[121.522239,31.002965],[121.517006,31.007629],[121.50475,31.003549],[121.498876,30.998214],[121.496212,30.997972],[121.491949,31.010034],[121.492883,31.01275],[121.489155,31.014954],[121.47636,31.01334],[121.459949,31.007396],[121.448302,31.007459],[121.440808,31.005784],[121.423972,30.994518],[121.417597,30.992394],[121.390657,30.987414],[121.351264,30.975984],[121.343748,30.976596],[121.332029,30.98121],[121.327366,30.980658],[121.3258,30.9833],[121.326984,30.995202],[121.330343,30.99691],[121.338235,31.006199],[121.339836,31.010265],[121.344247,31.013935],[121.332976,31.01423],[121.335725,31.062944],[121.338091,31.061173],[121.341458,31.062758],[121.34345,31.059135],[121.353437,31.061287],[121.358195,31.064045],[121.357274,31.066764],[121.363744,31.068353],[121.364423,31.069876],[121.36211,31.072602],[121.364336,31.073706],[121.365479,31.077897],[121.370623,31.078368],[121.372022,31.079874],[121.37098,31.08327],[121.362756,31.099769],[121.359086,31.098934],[121.35839,31.100793],[121.351165,31.099378],[121.348536,31.10666],[121.351676,31.107734],[121.353232,31.106608],[121.356879,31.111172],[121.356029,31.112536],[121.353768,31.111511],[121.350663,31.115551],[121.353059,31.117606],[121.349583,31.117751],[121.346747,31.121655],[121.344678,31.130335],[121.341084,31.135986],[121.337097,31.137501],[121.336772,31.138973],[121.33879,31.140326],[121.333731,31.145981],[121.333888,31.148548],[121.331287,31.149767],[121.329025,31.15642],[121.326415,31.157992],[121.321567,31.156136],[121.317481,31.15839],[121.322355,31.159924],[121.323832,31.163228],[121.303877,31.195125],[121.301661,31.195677],[121.294653,31.203167],[121.285836,31.195335],[121.277388,31.193572],[121.263055,31.205696],[121.264679,31.20673],[121.263846,31.208916],[121.259399,31.212775],[121.261215,31.215081],[121.257446,31.220209],[121.258471,31.221853],[121.256587,31.226323],[121.258011,31.226866],[121.257161,31.230704],[121.253879,31.233025],[121.252794,31.236966],[121.251076,31.238197],[121.249695,31.236534],[121.247917,31.240918],[121.239933,31.241066],[121.241677,31.247349],[121.245912,31.248825],[121.248212,31.251224],[121.246572,31.25155],[121.24731,31.253282],[121.254402,31.259628],[121.260219,31.258323],[121.26398,31.259156],[121.264449,31.256499],[121.267514,31.254511],[121.267775,31.251503],[121.268514,31.254162],[121.271285,31.252262],[121.275299,31.253522],[121.284224,31.251835],[121.28159,31.247789],[121.287049,31.243699],[121.287987,31.239264],[121.292186,31.233153],[121.296925,31.231047],[121.31539,31.227207],[121.333877,31.232002],[121.334644,31.235614],[121.33835,31.237526]]]}},{"type":"Feature","properties":{"dt_adcode":"310113"},"geometry":{"type":"Polygon","coordinates":[[[121.468311,31.316035],[121.468146,31.320241],[121.465191,31.320102],[121.465378,31.3214],[121.457136,31.320999],[121.447887,31.317103],[121.446718,31.319813],[121.433599,31.320867],[121.432471,31.318665],[121.43462,31.312297],[121.432167,31.311686],[121.431294,31.303635],[121.426428,31.303203],[121.426938,31.298531],[121.420034,31.296912],[121.418872,31.294027],[121.419696,31.291068],[121.4238,31.291057],[121.422836,31.284259],[121.425251,31.270666],[121.423229,31.26838],[121.420622,31.268606],[121.421689,31.267283],[121.419502,31.265239],[121.415721,31.265907],[121.415273,31.269143],[121.410597,31.270337],[121.410961,31.273179],[121.405443,31.273062],[121.406496,31.276857],[121.40054,31.277373],[121.404448,31.286221],[121.398448,31.287144],[121.399846,31.288467],[121.397501,31.289313],[121.397892,31.290518],[121.393489,31.291278],[121.394757,31.294676],[121.38839,31.295265],[121.383202,31.293873],[121.38162,31.292714],[121.381533,31.289434],[121.376249,31.290598],[121.374832,31.289101],[121.370154,31.290324],[121.369667,31.289116],[121.358589,31.293465],[121.363538,31.302738],[121.362251,31.302884],[121.355249,31.299779],[121.352718,31.301707],[121.348995,31.300328],[121.348537,31.296533],[121.34093,31.297434],[121.341017,31.293722],[121.336919,31.293662],[121.337633,31.29555],[121.335884,31.297042],[121.334196,31.296117],[121.331308,31.301441],[121.335911,31.303454],[121.343281,31.316964],[121.347692,31.31671],[121.349206,31.321308],[121.345578,31.320839],[121.344848,31.32333],[121.347518,31.324073],[121.34169,31.333285],[121.342839,31.336063],[121.346284,31.336326],[121.344346,31.34193],[121.342396,31.341309],[121.336462,31.346819],[121.332504,31.347089],[121.332252,31.351309],[121.336393,31.351614],[121.337742,31.353403],[121.337116,31.35602],[121.341579,31.357904],[121.341101,31.359329],[121.335011,31.366968],[121.335995,31.370098],[121.333333,31.371285],[121.333968,31.37284],[121.328731,31.377346],[121.331306,31.378458],[121.330523,31.381133],[121.326608,31.381064],[121.323068,31.388495],[121.320423,31.389117],[121.323338,31.393328],[121.323138,31.395871],[121.321798,31.395591],[121.321476,31.39757],[121.314752,31.398369],[121.315735,31.402967],[121.317371,31.403658],[121.314318,31.407199],[121.328464,31.411956],[121.329952,31.410415],[121.333136,31.410738],[121.332492,31.413118],[121.334102,31.413657],[121.332388,31.416943],[121.335207,31.418298],[121.334624,31.419297],[121.336559,31.419062],[121.337435,31.424437],[121.335104,31.427558],[121.336609,31.432256],[121.334191,31.439595],[121.328258,31.441092],[121.326109,31.448036],[121.327267,31.450189],[121.324126,31.455011],[121.319794,31.454873],[121.318654,31.456893],[121.320533,31.457285],[121.317784,31.459937],[121.319516,31.461759],[121.317828,31.462336],[121.317028,31.466063],[121.321004,31.46813],[121.31762,31.468649],[121.314201,31.472242],[121.318708,31.475888],[121.316907,31.476627],[121.316325,31.481188],[121.313349,31.480603],[121.312001,31.482373],[121.308636,31.48865],[121.310271,31.489736],[121.309168,31.492493],[121.305766,31.492741],[121.30467,31.495774],[121.300861,31.496749],[121.300261,31.498373],[121.302496,31.498446],[121.299931,31.499758],[121.302444,31.499555],[121.302105,31.502394],[121.30521,31.502811],[121.305532,31.505336],[121.310351,31.505915],[121.313839,31.502205],[121.313421,31.500748],[121.315839,31.501896],[121.316649,31.50577],[121.320163,31.50588],[121.321886,31.503404],[121.320033,31.502996],[121.319902,31.49972],[121.322512,31.499363],[121.324513,31.504174],[121.329516,31.504253],[121.343498,31.512056],[121.376295,31.50111],[121.40543,31.487219],[121.406286,31.485382],[121.403972,31.481489],[121.404334,31.479212],[121.481342,31.427296],[121.505997,31.40702],[121.507226,31.409722],[121.501241,31.412824],[121.517238,31.406304],[121.516584,31.405283],[121.509428,31.408292],[121.507354,31.405931],[121.521232,31.394788],[121.512367,31.385858],[121.503838,31.373749],[121.503837,31.364935],[121.508421,31.357256],[121.514907,31.351999],[121.525486,31.346799],[121.522883,31.342886],[121.52026,31.344036],[121.517631,31.340774],[121.505557,31.345735],[121.493585,31.330471],[121.498947,31.325636],[121.496222,31.323347],[121.496714,31.311489],[121.485407,31.311578],[121.485097,31.314734],[121.468311,31.316035]]]}},{"type":"Feature","properties":{"dt_adcode":"310114"},"geometry":{"type":"Polygon","coordinates":[[[121.108047,31.367017],[121.110444,31.364642],[121.112848,31.365134],[121.11369,31.367194],[121.120214,31.368671],[121.119078,31.370558],[121.115226,31.37114],[121.113751,31.374449],[121.123286,31.378476],[121.124271,31.376726],[121.138412,31.381146],[121.13752,31.382789],[121.139353,31.384176],[121.148437,31.385406],[121.147094,31.3899],[121.143827,31.392328],[121.149468,31.394498],[121.147658,31.397329],[121.152736,31.398168],[121.149071,31.400314],[121.153897,31.403686],[121.153101,31.405841],[121.157329,31.40765],[121.159382,31.405789],[121.157892,31.407893],[121.158863,31.410112],[121.15713,31.411367],[121.155475,31.4104],[121.155519,31.413831],[121.148907,31.415861],[121.149271,31.419132],[121.146204,31.419703],[121.146247,31.421075],[121.151161,31.421794],[121.150884,31.423086],[121.155277,31.425745],[121.159791,31.425253],[121.162001,31.427953],[121.164305,31.427224],[121.16434,31.43106],[121.163136,31.429002],[121.162711,31.432215],[121.154983,31.432752],[121.147826,31.436187],[121.146569,31.439004],[121.147861,31.439447],[121.147341,31.44393],[121.160919,31.449681],[121.163051,31.44887],[121.166053,31.450173],[121.167733,31.448318],[121.169826,31.450027],[121.173767,31.449052],[121.180819,31.451461],[121.18606,31.454358],[121.186061,31.460819],[121.189448,31.462267],[121.194317,31.467507],[121.202904,31.469351],[121.203026,31.471894],[121.206371,31.474997],[121.213799,31.478908],[121.215029,31.477531],[121.213643,31.475937],[121.219069,31.475223],[121.225355,31.476023],[121.226769,31.47804],[121.230359,31.477431],[121.230845,31.481106],[121.228885,31.482941],[121.232997,31.487899],[121.235408,31.4881],[121.235235,31.49312],[121.238071,31.491898],[121.241898,31.49329],[121.241143,31.490911],[121.243797,31.487316],[121.244404,31.481178],[121.248173,31.481876],[121.24581,31.479885],[121.247667,31.476896],[121.253362,31.479804],[121.254427,31.483747],[121.255645,31.483631],[121.254794,31.477638],[121.256374,31.47756],[121.256261,31.479726],[121.25765,31.477792],[121.259431,31.477946],[121.262876,31.481779],[121.267439,31.483362],[121.267326,31.486223],[121.268872,31.487461],[121.272043,31.484331],[121.276223,31.485378],[121.280324,31.488668],[121.280629,31.490717],[121.289382,31.489027],[121.291512,31.491698],[121.293486,31.489805],[121.298599,31.491514],[121.297547,31.494102],[121.303044,31.496672],[121.305766,31.492741],[121.309168,31.492493],[121.310271,31.489736],[121.308636,31.48865],[121.312001,31.482373],[121.313349,31.480603],[121.316325,31.481188],[121.316907,31.476627],[121.318708,31.475888],[121.314201,31.472242],[121.31762,31.468649],[121.321004,31.46813],[121.317028,31.466063],[121.317828,31.462336],[121.319516,31.461759],[121.317784,31.459937],[121.320533,31.457285],[121.318654,31.456893],[121.319794,31.454873],[121.324126,31.455011],[121.327267,31.450189],[121.326109,31.448036],[121.328258,31.441092],[121.333661,31.440121],[121.33647,31.433085],[121.336652,31.429499],[121.335104,31.427558],[121.337435,31.424437],[121.336559,31.419062],[121.334624,31.419297],[121.335207,31.418298],[121.332388,31.416943],[121.334102,31.413657],[121.332492,31.413118],[121.333136,31.410738],[121.329952,31.410415],[121.328464,31.411956],[121.314318,31.407199],[121.317371,31.403658],[121.315735,31.402967],[121.314491,31.398929],[121.321476,31.39757],[121.321798,31.395591],[121.323138,31.395871],[121.323338,31.393328],[121.320423,31.389117],[121.323068,31.388495],[121.326608,31.381064],[121.330523,31.381133],[121.331306,31.378458],[121.328731,31.377346],[121.333968,31.37284],[121.333333,31.371285],[121.335995,31.370098],[121.335011,31.366968],[121.341101,31.359329],[121.341579,31.357904],[121.337116,31.35602],[121.337742,31.353403],[121.336393,31.351614],[121.332252,31.351309],[121.332504,31.347089],[121.336462,31.346819],[121.342396,31.341309],[121.344346,31.34193],[121.346284,31.336326],[121.342839,31.336063],[121.34169,31.333285],[121.347518,31.324073],[121.344848,31.32333],[121.345578,31.320839],[121.349206,31.321308],[121.347692,31.31671],[121.343281,31.316964],[121.335911,31.303454],[121.331308,31.301441],[121.334196,31.296117],[121.335884,31.297042],[121.337633,31.29555],[121.332227,31.292993],[121.33282,31.290921],[121.326389,31.288926],[121.326069,31.287289],[121.328992,31.2846],[121.332734,31.286069],[121.333125,31.2824],[121.334717,31.279809],[121.336065,31.280042],[121.33623,31.275463],[121.338884,31.275001],[121.338266,31.27284],[121.343547,31.271435],[121.344721,31.273916],[121.35235,31.273133],[121.357326,31.271414],[121.358917,31.268796],[121.361266,31.270843],[121.36744,31.269636],[121.366993,31.266666],[121.359848,31.266997],[121.358917,31.263607],[121.361778,31.25994],[121.366021,31.259354],[121.365882,31.257686],[121.374568,31.257054],[121.375159,31.259488],[121.379862,31.258763],[121.380891,31.257763],[121.377825,31.248976],[121.375747,31.244447],[121.373093,31.245688],[121.372352,31.24375],[121.368382,31.247385],[121.364521,31.242936],[121.363672,31.239463],[121.360727,31.238605],[121.36009,31.240499],[121.356069,31.240156],[121.35621,31.23804],[121.354183,31.237123],[121.348738,31.239369],[121.349478,31.243556],[121.347285,31.243191],[121.346816,31.241043],[121.346033,31.243981],[121.344614,31.243553],[121.34558,31.239884],[121.340865,31.239947],[121.334644,31.235614],[121.333877,31.232002],[121.314067,31.227132],[121.292638,31.232763],[121.287987,31.239264],[121.287049,31.243699],[121.28159,31.247789],[121.284224,31.251835],[121.275299,31.253522],[121.271285,31.252262],[121.268514,31.254162],[121.267775,31.251503],[121.267514,31.254511],[121.264449,31.256499],[121.26398,31.259156],[121.252014,31.258761],[121.250982,31.259975],[121.25119,31.258401],[121.246763,31.258447],[121.246581,31.259796],[121.242251,31.259369],[121.236395,31.262473],[121.229083,31.262705],[121.223863,31.261494],[121.223862,31.259032],[121.218565,31.255716],[121.218547,31.253228],[121.217325,31.255412],[121.214187,31.254352],[121.213303,31.260467],[121.210417,31.261307],[121.209819,31.258014],[121.208476,31.257487],[121.20637,31.260059],[121.202869,31.257126],[121.203137,31.255817],[121.19489,31.253869],[121.195842,31.251261],[121.193372,31.251458],[121.193017,31.253624],[121.189101,31.254986],[121.184241,31.252153],[121.181538,31.254411],[121.179338,31.253423],[121.177847,31.256222],[121.176773,31.254603],[121.174253,31.256861],[121.17142,31.254928],[121.168942,31.256196],[121.168492,31.257595],[121.170381,31.259124],[121.168042,31.259623],[121.167661,31.263938],[121.162619,31.269171],[121.161051,31.267624],[121.157404,31.270483],[121.155541,31.266146],[121.15178,31.267631],[121.155542,31.280759],[121.159406,31.281573],[121.161286,31.283984],[121.159303,31.287663],[121.156395,31.287406],[121.151288,31.291934],[121.151106,31.293901],[121.152718,31.294077],[121.151511,31.296368],[121.147788,31.298199],[121.150786,31.299017],[121.149118,31.301347],[121.147067,31.301311],[121.146443,31.302735],[121.148146,31.303329],[121.143776,31.3097],[121.138957,31.30563],[121.13965,31.302989],[121.129948,31.302592],[121.126967,31.318587],[121.133566,31.32648],[121.131824,31.328019],[121.13348,31.330164],[121.12983,31.335103],[121.130438,31.344207],[121.123942,31.342759],[121.117974,31.343449],[121.117324,31.347125],[121.120195,31.347568],[121.117974,31.351405],[121.108325,31.350643],[121.107275,31.355248],[121.108248,31.360455],[121.106542,31.365847],[121.108047,31.367017]]]}},{"type":"Feature","properties":{"dt_adcode":"310115"},"geometry":{"type":"MultiPolygon","coordinates":[[[[121.769695,30.817309],[121.768139,30.863266],[121.773127,30.880597],[121.776681,30.881],[121.776014,30.886421],[121.778807,30.894585],[121.777741,30.894881],[121.778409,30.90531],[121.781114,30.917565],[121.77952,30.922487],[121.777734,30.922597],[121.779407,30.922893],[121.777656,30.926719],[121.778732,30.930188],[121.773374,30.931551],[121.773027,30.933927],[121.77125,30.933928],[121.767989,30.938332],[121.766428,30.936534],[121.763843,30.936846],[121.764277,30.938518],[121.761475,30.938419],[121.761684,30.94013],[121.764546,30.941762],[121.760921,30.944614],[121.761025,30.947606],[121.75929,30.949148],[121.751984,30.952725],[121.747861,30.951888],[121.743738,30.956583],[121.736861,30.958701],[121.737921,30.960639],[121.733388,30.966244],[121.721304,30.975144],[121.705503,30.98498],[121.692982,30.989336],[121.674553,30.991797],[121.672483,30.989884],[121.667517,30.992011],[121.654534,30.993258],[121.621157,30.992576],[121.614713,31.00125],[121.61249,31.001443],[121.595583,31.002047],[121.59468,31.000696],[121.584307,31.00082],[121.582937,30.999492],[121.570473,30.998351],[121.567961,31.000879],[121.570707,31.002298],[121.571461,31.005634],[121.569729,31.010601],[121.565241,31.011506],[121.569824,31.012448],[121.571012,31.016423],[121.574721,31.020316],[121.572511,31.026385],[121.568387,31.025286],[121.569054,31.024394],[121.566212,31.021135],[121.564297,31.021186],[121.563657,31.023545],[121.561621,31.022717],[121.562358,31.024536],[121.56027,31.024127],[121.558702,31.020254],[121.554139,31.018608],[121.552174,31.021476],[121.552797,31.023264],[121.5584,31.024525],[121.557958,31.029171],[121.560297,31.030209],[121.559457,31.041397],[121.561497,31.043192],[121.55938,31.044194],[121.559086,31.046746],[121.556124,31.047633],[121.554739,31.050822],[121.548302,31.048194],[121.54853,31.046798],[121.546678,31.048137],[121.546031,31.047192],[121.545907,31.056387],[121.548679,31.057865],[121.547199,31.061651],[121.552264,31.066005],[121.556749,31.067366],[121.555,31.068272],[121.553294,31.066973],[121.554039,31.068463],[121.552784,31.069508],[121.559036,31.072175],[121.557529,31.073361],[121.568599,31.076524],[121.571121,31.077625],[121.570019,31.078989],[121.573225,31.078872],[121.575445,31.08076],[121.571181,31.080096],[121.561063,31.083723],[121.553555,31.080298],[121.55056,31.082834],[121.548543,31.086886],[121.551539,31.08815],[121.551608,31.090126],[121.561341,31.093578],[121.563108,31.091777],[121.567266,31.093629],[121.565006,31.098712],[121.562952,31.09809],[121.562069,31.101255],[121.563646,31.101864],[121.560138,31.105428],[121.561394,31.106224],[121.55787,31.108949],[121.557523,31.110609],[121.559862,31.111892],[121.555281,31.114882],[121.553333,31.112682],[121.552311,31.1139],[121.549212,31.113421],[121.550424,31.11162],[121.545775,31.109881],[121.542244,31.116157],[121.537882,31.113982],[121.535347,31.117973],[121.532249,31.117204],[121.531419,31.118422],[121.523935,31.116716],[121.522871,31.115239],[121.521418,31.116309],[121.514515,31.115278],[121.512794,31.119437],[121.509742,31.121453],[121.50386,31.118318],[121.505295,31.115488],[121.501576,31.114662],[121.499129,31.121137],[121.492806,31.118714],[121.488801,31.124851],[121.485964,31.12452],[121.485704,31.121937],[121.481915,31.120089],[121.481249,31.11803],[121.47745,31.117333],[121.48136,31.1107],[121.48008,31.109906],[121.478531,31.111333],[121.477095,31.109365],[121.474525,31.114436],[121.471427,31.111962],[121.472959,31.1111],[121.471557,31.110194],[121.465204,31.112097],[121.469299,31.118731],[121.46968,31.124862],[121.468728,31.127867],[121.458982,31.139357],[121.457268,31.144343],[121.458793,31.148557],[121.469302,31.160254],[121.464907,31.178026],[121.471277,31.185836],[121.495969,31.193812],[121.508374,31.210159],[121.509905,31.214503],[121.50672,31.223139],[121.494347,31.234544],[121.493941,31.241061],[121.502876,31.24581],[121.527562,31.247253],[121.540005,31.251021],[121.559077,31.264219],[121.565964,31.271808],[121.569525,31.279564],[121.569144,31.28525],[121.561757,31.303338],[121.561888,31.321159],[121.558572,31.331258],[121.549403,31.337791],[121.514907,31.351999],[121.508421,31.357256],[121.503837,31.364935],[121.503838,31.373749],[121.512367,31.385858],[121.521232,31.394788],[121.538014,31.388495],[121.598945,31.374606],[121.722513,31.303514],[121.729099,31.298287],[121.743748,31.283202],[121.809814,31.196909],[121.853365,31.155347],[121.884036,31.13064],[121.889459,31.121706],[121.946794,31.065888],[121.962675,31.047288],[121.977555,31.016103],[121.990932,30.968427],[121.996232,30.935457],[121.998493,30.899961],[121.996985,30.874903],[121.993954,30.863059],[121.985368,30.850696],[121.954715,30.825817],[121.955471,30.817133],[121.969709,30.789198],[121.943682,30.777097],[121.924604,30.806606],[121.915287,30.812894],[121.769695,30.817309]]],[[[121.951042,31.228817],[121.957253,31.230419],[121.969182,31.230287],[122.008565,31.220992],[122.01104,31.217408],[122.012615,31.210006],[122.012013,31.192044],[121.999558,31.165074],[121.995731,31.160798],[121.965678,31.157543],[121.959631,31.159276],[121.952629,31.167202],[121.944839,31.18688],[121.941824,31.20768],[121.94659,31.224363],[121.951042,31.228817]]],[[[121.897368,31.242113],[121.923553,31.233862],[121.926732,31.229735],[121.927522,31.224019],[121.925453,31.205436],[121.922438,31.196858],[121.918782,31.194315],[121.908782,31.195265],[121.889275,31.215002],[121.88254,31.225607],[121.880877,31.236328],[121.88262,31.240852],[121.88991,31.242594],[121.897368,31.242113]]]]}},{"type":"Feature","properties":{"dt_adcode":"310116"},"geometry":{"type":"MultiPolygon","coordinates":[[[[121.426478,30.682127],[121.428697,30.681369],[121.42679,30.680309],[121.426478,30.682127]]],[[[121.424874,30.691379],[121.428698,30.688577],[121.424735,30.687469],[121.418751,30.691106],[121.424874,30.691379]]],[[[121.40636,30.704707],[121.409294,30.70452],[121.406073,30.70305],[121.40636,30.704707]]],[[[121.017475,30.882725],[121.008022,30.883327],[121.008519,30.888126],[120.993421,30.889722],[120.9929,30.893914],[120.990405,30.895558],[120.994154,30.903278],[120.998632,30.903388],[120.998711,30.905944],[121.00257,30.904848],[121.004522,30.906954],[121.004574,30.909301],[120.998976,30.909533],[121.000822,30.937731],[120.995673,30.944332],[120.997817,30.951031],[121.00206,30.951044],[121.002652,30.94702],[121.010067,30.948638],[121.008821,30.949155],[121.011252,30.950967],[121.015015,30.949728],[121.015364,30.948168],[121.013342,30.946809],[121.011077,30.947182],[121.010798,30.944786],[121.01383,30.944172],[121.015293,30.940288],[121.017698,30.93922],[121.016931,30.941334],[121.029894,30.944455],[121.029615,30.941875],[121.031853,30.939774],[121.031504,30.936082],[121.024926,30.909801],[121.034654,30.906149],[121.034393,30.902731],[121.038782,30.902147],[121.040332,30.904498],[121.042317,30.899413],[121.04519,30.901898],[121.053024,30.903375],[121.067946,30.904499],[121.070407,30.902127],[121.072494,30.903187],[121.072424,30.90492],[121.080832,30.905952],[121.081805,30.904257],[121.083726,30.905286],[121.089139,30.903147],[121.094342,30.904809],[121.094256,30.902548],[121.097122,30.903207],[121.098781,30.906612],[121.097322,30.908874],[121.095802,30.908644],[121.096202,30.910333],[121.090078,30.911045],[121.089018,30.915296],[121.100397,30.926457],[121.10512,30.920136],[121.11071,30.922521],[121.121443,30.919964],[121.119715,30.910385],[121.117798,30.910701],[121.117399,30.908384],[121.116193,30.908613],[121.110847,30.901032],[121.11345,30.897425],[121.116678,30.900715],[121.12223,30.901111],[121.12354,30.902856],[121.130166,30.902591],[121.131709,30.899729],[121.134423,30.901815],[121.141262,30.901333],[121.140084,30.910331],[121.137423,30.913344],[121.139054,30.919608],[121.143249,30.918113],[121.142001,30.916827],[121.142997,30.914932],[121.149835,30.912613],[121.149766,30.911265],[121.156645,30.909966],[121.156741,30.918958],[121.158206,30.920292],[121.164617,30.91994],[121.171261,30.914682],[121.186473,30.915404],[121.209392,30.920575],[121.222994,30.930754],[121.227338,30.926782],[121.234491,30.928561],[121.234775,30.925976],[121.240652,30.925148],[121.242934,30.919912],[121.24565,30.918879],[121.245511,30.917078],[121.243681,30.917851],[121.246196,30.908778],[121.248739,30.910295],[121.255232,30.90955],[121.255892,30.907976],[121.262127,30.908092],[121.262526,30.906833],[121.266938,30.906261],[121.266165,30.901712],[121.272976,30.9004],[121.274774,30.894821],[121.27818,30.897199],[121.27964,30.894453],[121.282074,30.894799],[121.282309,30.896573],[121.288411,30.896065],[121.288724,30.899957],[121.290158,30.900015],[121.291011,30.902678],[121.289672,30.906911],[121.290698,30.908],[121.288699,30.909915],[121.289751,30.917386],[121.294942,30.918509],[121.294811,30.914952],[121.296272,30.914954],[121.298481,30.909746],[121.301776,30.908457],[121.303438,30.909286],[121.303716,30.912095],[121.306499,30.912123],[121.307717,30.909434],[121.311022,30.910189],[121.311909,30.908888],[121.313832,30.910722],[121.314606,30.909143],[121.32013,30.911094],[121.322497,30.908575],[121.32763,30.910138],[121.331101,30.90751],[121.336625,30.906743],[121.345151,30.90895],[121.345491,30.912334],[121.34757,30.913141],[121.350598,30.911399],[121.351816,30.913222],[121.356686,30.908617],[121.363268,30.886957],[121.367233,30.886669],[121.376909,30.880288],[121.382211,30.878958],[121.381905,30.863999],[121.384008,30.863486],[121.383773,30.85102],[121.38544,30.843176],[121.37907,30.843239],[121.380982,30.835197],[121.383224,30.835713],[121.383493,30.834052],[121.387594,30.832805],[121.387594,30.829859],[121.391721,30.829916],[121.393267,30.827687],[121.396984,30.827993],[121.397766,30.833791],[121.404209,30.833793],[121.403627,30.82988],[121.400684,30.830101],[121.400987,30.827401],[121.404781,30.823077],[121.414172,30.821753],[121.415517,30.819936],[121.415135,30.815804],[121.419291,30.816023],[121.420531,30.819796],[121.433859,30.818351],[121.434023,30.817029],[121.437022,30.8181],[121.44164,30.806828],[121.445426,30.804866],[121.446717,30.80558],[121.478769,30.756343],[121.426361,30.730284],[121.406995,30.718082],[121.361894,30.679523],[121.346646,30.675593],[121.291036,30.67833],[121.274652,30.677396],[121.270421,30.698071],[121.271028,30.701023],[121.268654,30.702134],[121.265862,30.70949],[121.268443,30.712151],[121.267061,30.71504],[121.270337,30.716892],[121.270102,30.720474],[121.272031,30.72325],[121.270337,30.72587],[121.271449,30.72695],[121.269643,30.726949],[121.271067,30.727914],[121.269756,30.730724],[121.27145,30.73273],[121.268175,30.734925],[121.266829,30.733497],[121.265726,30.734236],[121.254307,30.745106],[121.243102,30.750531],[121.242018,30.749799],[121.239632,30.752035],[121.23552,30.752269],[121.236482,30.75381],[121.23199,30.756397],[121.225591,30.776594],[121.222123,30.777119],[121.217988,30.78496],[121.205533,30.785907],[121.201053,30.783989],[121.199172,30.780754],[121.200324,30.773624],[121.196953,30.773354],[121.190967,30.781086],[121.18952,30.778969],[121.186358,30.779033],[121.183438,30.775033],[121.174671,30.772014],[121.170989,30.774678],[121.170791,30.777089],[121.160741,30.773219],[121.16068,30.776584],[121.152692,30.778978],[121.144121,30.779484],[121.140619,30.776927],[121.138704,30.778426],[121.135097,30.77718],[121.127111,30.778702],[121.126044,30.793039],[121.128143,30.81008],[121.132372,30.819285],[121.137416,30.825031],[121.137416,30.829984],[121.136237,30.82787],[121.134261,30.828507],[121.132917,30.831603],[121.134617,30.833027],[121.131608,30.836006],[121.129987,30.834896],[121.120637,30.836333],[121.117748,30.835303],[121.119839,30.837732],[121.120248,30.843297],[121.123544,30.847263],[121.121723,30.849988],[121.120049,30.84912],[121.114748,30.851471],[121.11316,30.854051],[121.110903,30.851414],[121.104793,30.849329],[121.100096,30.851762],[121.097717,30.857097],[121.080475,30.848741],[121.066998,30.848772],[121.060526,30.845181],[121.062051,30.837788],[121.046751,30.831092],[121.048892,30.825185],[121.045105,30.825912],[121.043512,30.828153],[121.039951,30.827222],[121.041718,30.824851],[121.037974,30.819363],[121.041082,30.819197],[121.041318,30.821545],[121.042301,30.819693],[121.043755,30.820016],[121.044974,30.815526],[121.037912,30.813887],[121.035808,30.82018],[121.030056,30.828548],[121.014875,30.833957],[121.014405,30.835814],[121.010894,30.834616],[121.004786,30.827847],[121.003418,30.828711],[121.003914,30.826539],[121.000748,30.829413],[120.995193,30.824398],[120.994609,30.821497],[120.990924,30.822704],[120.992754,30.82613],[120.989148,30.828696],[120.992458,30.831574],[120.989122,30.832318],[120.992238,30.837901],[120.995656,30.838569],[120.997756,30.84408],[120.999899,30.843333],[121.001651,30.846266],[121.003977,30.846099],[121.010137,30.853131],[121.013361,30.85169],[121.015016,30.853608],[121.010983,30.85603],[121.016271,30.862856],[121.013971,30.864386],[121.017779,30.869381],[121.014821,30.871026],[121.017782,30.873359],[121.020462,30.871877],[121.021508,30.872885],[121.019801,30.874001],[121.021891,30.875166],[121.019418,30.876666],[121.021465,30.878796],[121.017475,30.882725]]]]}},{"type":"Feature","properties":{"dt_adcode":"310117"},"geometry":{"type":"Polygon","coordinates":[[[121.028038,30.943935],[121.027908,30.945831],[121.033648,30.947794],[121.036252,30.957088],[121.043514,30.957511],[121.042627,30.960438],[121.045944,30.963449],[121.043115,30.969424],[121.051028,30.969366],[121.053256,30.964448],[121.057355,30.965341],[121.056893,30.961907],[121.060338,30.956513],[121.068724,30.954911],[121.076489,30.955806],[121.081238,30.962277],[121.08818,30.962151],[121.088032,30.96417],[121.097492,30.965637],[121.095781,30.968414],[121.095556,30.974245],[121.099168,30.973071],[121.100151,30.994941],[121.104111,30.995081],[121.104207,31.007996],[121.102054,31.011761],[121.085535,31.025498],[121.089514,31.027898],[121.091182,31.025936],[121.096411,31.026439],[121.096968,31.031451],[121.099937,31.031198],[121.100285,31.033408],[121.097767,31.038871],[121.093103,31.040715],[121.096213,31.044809],[121.090254,31.048131],[121.09121,31.048781],[121.089925,31.051935],[121.087153,31.052947],[121.085867,31.050223],[121.080966,31.056898],[121.084417,31.058775],[121.083174,31.059942],[121.08652,31.061168],[121.085938,31.062848],[121.090673,31.065033],[121.092932,31.064537],[121.094538,31.061899],[121.093009,31.058438],[121.094633,31.056334],[121.098342,31.056624],[121.101146,31.053641],[121.101815,31.057274],[121.108396,31.057942],[121.109559,31.056393],[121.11821,31.056066],[121.118002,31.058409],[121.125886,31.057378],[121.127812,31.058916],[121.126398,31.059809],[121.126226,31.066647],[121.122244,31.067178],[121.118385,31.075945],[121.112598,31.077624],[121.107269,31.082116],[121.102911,31.080217],[121.100689,31.080933],[121.099404,31.08594],[121.100837,31.088687],[121.097607,31.093537],[121.099526,31.094154],[121.099848,31.096597],[121.097972,31.099335],[121.099205,31.100076],[121.100612,31.098423],[121.103842,31.100545],[121.103547,31.102642],[121.1057,31.100866],[121.105031,31.101778],[121.106386,31.101976],[121.104632,31.103382],[121.110726,31.107648],[121.110231,31.109129],[121.112592,31.111936],[121.114371,31.109801],[121.116123,31.110976],[121.117728,31.108878],[121.120635,31.109074],[121.125509,31.103372],[121.130686,31.100527],[121.131943,31.102052],[121.133313,31.099073],[121.141609,31.098685],[121.141894,31.096889],[121.144486,31.097452],[121.145855,31.093954],[121.14946,31.095296],[121.151158,31.091648],[121.155162,31.090471],[121.155379,31.093159],[121.15673,31.093156],[121.156791,31.098943],[121.154339,31.098886],[121.1544,31.101841],[121.16465,31.100655],[121.165196,31.104265],[121.166798,31.104288],[121.166452,31.108316],[121.174916,31.108865],[121.172993,31.114095],[121.175211,31.115237],[121.174319,31.117869],[121.176416,31.119011],[121.1793,31.117171],[121.183822,31.118697],[121.185122,31.120673],[121.179916,31.129401],[121.179864,31.131872],[121.181658,31.131782],[121.181962,31.143482],[121.195693,31.137986],[121.201629,31.140941],[121.200571,31.13713],[121.206169,31.138305],[121.208284,31.135687],[121.227989,31.139093],[121.221154,31.116727],[121.221301,31.115075],[121.224093,31.115141],[121.234392,31.117219],[121.234587,31.119004],[121.236177,31.119098],[121.237763,31.126212],[121.244531,31.125394],[121.245321,31.129292],[121.239421,31.130486],[121.245477,31.130764],[121.246988,31.134157],[121.258047,31.132348],[121.258524,31.126996],[121.261607,31.127175],[121.260617,31.132266],[121.263622,31.135424],[121.265576,31.134789],[121.265733,31.136393],[121.28099,31.133247],[121.287484,31.139957],[121.28418,31.142622],[121.281782,31.14202],[121.279287,31.145706],[121.277011,31.144176],[121.276411,31.145854],[121.278638,31.150492],[121.283533,31.151392],[121.284755,31.153268],[121.290416,31.152256],[121.31622,31.160189],[121.3187,31.156829],[121.320601,31.157736],[121.321567,31.156136],[121.326415,31.157992],[121.329582,31.155633],[121.331287,31.149767],[121.333888,31.148548],[121.333731,31.145981],[121.33879,31.140326],[121.336772,31.138973],[121.337097,31.137501],[121.341084,31.135986],[121.344678,31.130335],[121.346007,31.126203],[121.344884,31.125764],[121.348846,31.118378],[121.353059,31.117606],[121.350663,31.115551],[121.353768,31.111511],[121.356029,31.112536],[121.356879,31.111172],[121.353232,31.106608],[121.351676,31.107734],[121.348536,31.10666],[121.351165,31.099378],[121.35839,31.100793],[121.359086,31.098934],[121.362756,31.099769],[121.37098,31.08327],[121.372022,31.079874],[121.370623,31.078368],[121.365479,31.077897],[121.364336,31.073706],[121.36211,31.072602],[121.364423,31.069876],[121.363744,31.068353],[121.357274,31.066764],[121.358195,31.064045],[121.353437,31.061287],[121.34345,31.059135],[121.341458,31.062758],[121.338091,31.061173],[121.335864,31.063088],[121.335334,31.060436],[121.332976,31.01423],[121.344247,31.013935],[121.339836,31.010265],[121.338235,31.006199],[121.330343,30.99691],[121.326984,30.995202],[121.326044,30.982124],[121.327366,30.980658],[121.334413,30.980698],[121.346114,30.976029],[121.35871,30.977858],[121.361101,30.972824],[121.360987,30.965578],[121.362857,30.95954],[121.362482,30.948902],[121.365464,30.947228],[121.364456,30.945472],[121.361212,30.944907],[121.362663,30.934757],[121.355636,30.934036],[121.355114,30.931086],[121.351156,30.930632],[121.352164,30.923805],[121.355374,30.921382],[121.355748,30.91754],[121.350598,30.911399],[121.34757,30.913141],[121.345491,30.912334],[121.346317,30.911447],[121.344325,30.908478],[121.33405,30.90671],[121.32763,30.910138],[121.322497,30.908575],[121.32013,30.911094],[121.314606,30.909143],[121.313832,30.910722],[121.311909,30.908888],[121.311022,30.910189],[121.307717,30.909434],[121.306499,30.912123],[121.303716,30.912095],[121.303438,30.909286],[121.301776,30.908457],[121.298481,30.909746],[121.296272,30.914954],[121.294811,30.914952],[121.294942,30.918509],[121.288838,30.916898],[121.288699,30.909915],[121.290698,30.908],[121.289672,30.906911],[121.291011,30.902678],[121.290158,30.900015],[121.288724,30.899957],[121.288411,30.896065],[121.282309,30.896573],[121.282074,30.894799],[121.27964,30.894453],[121.27818,30.897199],[121.274774,30.894821],[121.272976,30.9004],[121.266165,30.901712],[121.266938,30.906261],[121.262526,30.906833],[121.262127,30.908092],[121.255892,30.907976],[121.255232,30.90955],[121.248739,30.910295],[121.246196,30.908778],[121.243681,30.917851],[121.245511,30.917078],[121.24565,30.918879],[121.242934,30.919912],[121.240652,30.925148],[121.234775,30.925976],[121.234491,30.928561],[121.227338,30.926782],[121.222994,30.930754],[121.209392,30.920575],[121.186473,30.915404],[121.171261,30.914682],[121.164617,30.91994],[121.158206,30.920292],[121.156741,30.918958],[121.156645,30.909966],[121.149766,30.911265],[121.149835,30.912613],[121.142997,30.914932],[121.142001,30.916827],[121.143249,30.918113],[121.139054,30.919608],[121.137423,30.913344],[121.140084,30.910331],[121.141262,30.901333],[121.134423,30.901815],[121.131709,30.899729],[121.130166,30.902591],[121.12354,30.902856],[121.12223,30.901111],[121.116678,30.900715],[121.11345,30.897425],[121.110847,30.901032],[121.116193,30.908613],[121.117399,30.908384],[121.117798,30.910701],[121.119715,30.910385],[121.121443,30.919964],[121.11071,30.922521],[121.10512,30.920136],[121.100397,30.926457],[121.089018,30.915296],[121.090078,30.911045],[121.096202,30.910333],[121.095802,30.908644],[121.097322,30.908874],[121.098781,30.906612],[121.097122,30.903207],[121.094256,30.902548],[121.094342,30.904809],[121.089139,30.903147],[121.083726,30.905286],[121.081805,30.904257],[121.080832,30.905952],[121.072424,30.90492],[121.072494,30.903187],[121.070407,30.902127],[121.067946,30.904499],[121.053024,30.903375],[121.04519,30.901898],[121.042317,30.899413],[121.040332,30.904498],[121.038782,30.902147],[121.034393,30.902731],[121.034654,30.906149],[121.024926,30.909801],[121.031853,30.939774],[121.029615,30.941875],[121.029894,30.944455],[121.028038,30.943935]]]}},{"type":"Feature","properties":{"dt_adcode":"310118"},"geometry":{"type":"MultiPolygon","coordinates":[[[[121.31622,31.160189],[121.290416,31.152256],[121.285442,31.153449],[121.283533,31.151392],[121.278638,31.150492],[121.277011,31.144176],[121.279287,31.145706],[121.281782,31.14202],[121.28418,31.142622],[121.287484,31.139957],[121.28099,31.133247],[121.265733,31.136393],[121.265576,31.134789],[121.263622,31.135424],[121.260617,31.132266],[121.261607,31.127175],[121.258524,31.126996],[121.258047,31.132348],[121.246988,31.134157],[121.245477,31.130764],[121.239421,31.130486],[121.245321,31.129292],[121.244531,31.125394],[121.237763,31.126212],[121.236177,31.119098],[121.234587,31.119004],[121.234392,31.117219],[121.224093,31.115141],[121.221301,31.115075],[121.221154,31.116727],[121.227989,31.139093],[121.208284,31.135687],[121.206169,31.138305],[121.200571,31.13713],[121.201629,31.140941],[121.195693,31.137986],[121.181962,31.143482],[121.181658,31.131782],[121.179864,31.131872],[121.179916,31.129401],[121.185122,31.120673],[121.183822,31.118697],[121.1793,31.117171],[121.176416,31.119011],[121.174319,31.117869],[121.175211,31.115237],[121.172993,31.114095],[121.174916,31.108865],[121.166452,31.108316],[121.166798,31.104288],[121.165196,31.104265],[121.16465,31.100655],[121.1544,31.101841],[121.154339,31.098886],[121.156791,31.098943],[121.15673,31.093156],[121.155379,31.093159],[121.155162,31.090471],[121.151158,31.091648],[121.14946,31.095296],[121.145855,31.093954],[121.144486,31.097452],[121.141894,31.096889],[121.141609,31.098685],[121.133313,31.099073],[121.131943,31.102052],[121.130686,31.100527],[121.125509,31.103372],[121.120635,31.109074],[121.117728,31.108878],[121.116123,31.110976],[121.114371,31.109801],[121.112592,31.111936],[121.110231,31.109129],[121.110726,31.107648],[121.104632,31.103382],[121.106386,31.101976],[121.105031,31.101778],[121.1057,31.100866],[121.103547,31.102642],[121.103842,31.100545],[121.100612,31.098423],[121.099205,31.100076],[121.097972,31.099335],[121.0999,31.095511],[121.097607,31.093537],[121.100837,31.088687],[121.099508,31.083571],[121.102139,31.08029],[121.107269,31.082116],[121.112598,31.077624],[121.118385,31.075945],[121.122244,31.067178],[121.126226,31.066647],[121.126398,31.059809],[121.127812,31.058916],[121.125886,31.057378],[121.118002,31.058409],[121.11821,31.056066],[121.109559,31.056393],[121.108396,31.057942],[121.101815,31.057274],[121.101146,31.053641],[121.098342,31.056624],[121.094633,31.056334],[121.093009,31.058438],[121.094538,31.061899],[121.092932,31.064537],[121.090673,31.065033],[121.085938,31.062848],[121.08652,31.061168],[121.083174,31.059942],[121.084417,31.058775],[121.080966,31.056898],[121.085867,31.050223],[121.087153,31.052947],[121.089925,31.051935],[121.09121,31.048781],[121.090254,31.048131],[121.096213,31.044809],[121.093103,31.040715],[121.097767,31.038871],[121.100285,31.033408],[121.099937,31.031198],[121.096968,31.031451],[121.096411,31.026439],[121.091182,31.025936],[121.089514,31.027898],[121.085535,31.025498],[121.102054,31.011761],[121.104207,31.007996],[121.104111,30.995081],[121.100151,30.994941],[121.099168,30.973071],[121.095556,30.974245],[121.095781,30.968414],[121.097492,30.965637],[121.088032,30.96417],[121.08818,30.962151],[121.081238,30.962277],[121.076489,30.955806],[121.068724,30.954911],[121.060338,30.956513],[121.056893,30.961907],[121.057355,30.965341],[121.053256,30.964448],[121.051028,30.969366],[121.043115,30.969424],[121.045944,30.963449],[121.042627,30.960438],[121.043514,30.957511],[121.036252,30.957088],[121.033212,30.947111],[121.027908,30.945831],[121.028038,30.943935],[121.016931,30.941334],[121.017698,30.93922],[121.015293,30.940288],[121.01383,30.944172],[121.010798,30.944786],[121.011077,30.947182],[121.013342,30.946809],[121.015364,30.948168],[121.015015,30.949728],[121.011252,30.950967],[121.008821,30.949155],[121.010067,30.948638],[121.002652,30.94702],[121.00206,30.951044],[120.995369,30.950366],[120.994794,30.954824],[120.992529,30.955026],[120.991684,30.958215],[120.99476,30.958698],[120.9926,30.962834],[120.993671,30.965137],[120.992112,30.966053],[120.991851,30.97051],[120.993141,30.972114],[120.999117,30.972931],[121.000573,30.977005],[121.002359,30.977625],[121.000834,30.980463],[120.999344,30.980102],[120.997132,30.989231],[120.994597,30.991922],[120.994833,30.995254],[120.990511,30.994551],[120.989841,30.996668],[120.992045,30.997109],[120.990538,31.003254],[120.992089,31.003419],[120.992089,31.005286],[120.989058,31.012912],[120.990417,31.013811],[120.983858,31.014447],[120.982987,31.016087],[120.963202,31.016597],[120.964856,31.019747],[120.960477,31.021665],[120.958302,31.02857],[120.952201,31.030257],[120.948181,31.028434],[120.949443,31.027733],[120.948738,31.025067],[120.951174,31.024017],[120.949973,31.017633],[120.935542,31.016526],[120.939794,31.009388],[120.933786,31.010023],[120.931377,31.011776],[120.926988,31.012065],[120.926162,31.010424],[120.918108,31.01279],[120.91102,31.010561],[120.910057,31.016945],[120.901358,31.017499],[120.901976,31.037643],[120.899737,31.039602],[120.894566,31.053892],[120.899619,31.078361],[120.905026,31.079387],[120.901676,31.084093],[120.90211,31.085659],[120.896695,31.086646],[120.895419,31.090707],[120.892696,31.092825],[120.892349,31.097494],[120.891021,31.094305],[120.887482,31.094075],[120.878628,31.095418],[120.878966,31.098384],[120.87601,31.097862],[120.876634,31.099942],[120.873175,31.100317],[120.872542,31.098887],[120.869812,31.098942],[120.869578,31.097221],[120.865747,31.097624],[120.863996,31.100303],[120.859768,31.100284],[120.856804,31.102831],[120.857914,31.108523],[120.868713,31.117263],[120.872345,31.127158],[120.881293,31.134721],[120.899215,31.136053],[120.906402,31.134272],[120.916919,31.13619],[120.930336,31.14141],[120.983911,31.13171],[121.018489,31.134097],[121.022811,31.138311],[121.022271,31.140462],[121.025677,31.140773],[121.026723,31.143766],[121.028368,31.143873],[121.028778,31.141253],[121.033089,31.142205],[121.03612,31.140331],[121.036259,31.137373],[121.040769,31.137587],[121.044775,31.145529],[121.041545,31.146932],[121.041476,31.149822],[121.045254,31.151577],[121.04542,31.154031],[121.049129,31.15461],[121.050269,31.150715],[121.051888,31.150484],[121.062556,31.153126],[121.064139,31.150842],[121.066062,31.150948],[121.065722,31.148596],[121.069123,31.148701],[121.067776,31.152294],[121.070906,31.153508],[121.071411,31.155424],[121.073028,31.153848],[121.073029,31.156267],[121.077028,31.158456],[121.076794,31.162622],[121.073699,31.161711],[121.073125,31.163256],[121.077368,31.164538],[121.077298,31.166017],[121.075468,31.170317],[121.071917,31.170513],[121.072526,31.172698],[121.07543,31.173444],[121.071222,31.181466],[121.075587,31.18285],[121.074988,31.184385],[121.069474,31.182892],[121.068752,31.184895],[121.071683,31.185959],[121.070614,31.191294],[121.072562,31.191533],[121.069597,31.195309],[121.066796,31.194964],[121.066605,31.197187],[121.069214,31.196519],[121.062631,31.224665],[121.062806,31.226965],[121.06472,31.227274],[121.064651,31.230781],[121.067173,31.230922],[121.067382,31.23293],[121.064581,31.23296],[121.061241,31.237822],[121.063903,31.238441],[121.064347,31.246136],[121.061651,31.245246],[121.057677,31.246754],[121.060981,31.246489],[121.062462,31.267451],[121.079176,31.269883],[121.082149,31.271538],[121.084548,31.275708],[121.081359,31.277259],[121.082419,31.280921],[121.086904,31.291723],[121.08879,31.292081],[121.092195,31.289204],[121.093585,31.289879],[121.09309,31.28821],[121.0954,31.287004],[121.098057,31.27738],[121.103179,31.274107],[121.105445,31.273651],[121.10581,31.27504],[121.103822,31.275327],[121.114993,31.285271],[121.119288,31.28512],[121.120136,31.287274],[121.121335,31.286961],[121.121135,31.285752],[121.125016,31.284409],[121.124327,31.283106],[121.12721,31.281207],[121.131051,31.280107],[121.13168,31.281365],[121.134186,31.280258],[121.133689,31.278889],[121.135861,31.279641],[121.139701,31.276932],[121.142881,31.277662],[121.142997,31.275468],[121.153739,31.276642],[121.15412,31.27292],[121.15178,31.267631],[121.152881,31.266722],[121.155541,31.266146],[121.157404,31.270483],[121.161051,31.267624],[121.162619,31.269171],[121.167661,31.263938],[121.168042,31.259623],[121.170381,31.259124],[121.168492,31.257595],[121.168942,31.256196],[121.17142,31.254928],[121.174253,31.256861],[121.176773,31.254603],[121.177847,31.256222],[121.179338,31.253423],[121.181538,31.254411],[121.184241,31.252153],[121.189101,31.254986],[121.193017,31.253624],[121.193372,31.251458],[121.195842,31.251261],[121.19489,31.253869],[121.203137,31.255817],[121.202869,31.257126],[121.20637,31.260059],[121.208476,31.257487],[121.209819,31.258014],[121.210417,31.261307],[121.213303,31.260467],[121.214187,31.254352],[121.217325,31.255412],[121.218547,31.253228],[121.218565,31.255716],[121.223862,31.259032],[121.223863,31.261494],[121.229083,31.262705],[121.236395,31.262473],[121.242251,31.259369],[121.246581,31.259796],[121.246763,31.258447],[121.25119,31.258401],[121.250982,31.259975],[121.254185,31.258689],[121.24731,31.253282],[121.246572,31.25155],[121.248212,31.251224],[121.245912,31.248825],[121.241677,31.247349],[121.239933,31.241066],[121.247917,31.240918],[121.249695,31.236534],[121.251076,31.238197],[121.252794,31.236966],[121.253879,31.233025],[121.257161,31.230704],[121.258011,31.226866],[121.256587,31.226323],[121.258471,31.221853],[121.257446,31.220209],[121.261215,31.215081],[121.259399,31.212775],[121.263846,31.208916],[121.264679,31.20673],[121.263055,31.205696],[121.277388,31.193572],[121.285836,31.195335],[121.294653,31.203167],[121.301661,31.195677],[121.303877,31.195125],[121.323832,31.163228],[121.320986,31.1593],[121.317481,31.15839],[121.31622,31.160189]]],[[[121.111368,31.286082],[121.109622,31.286454],[121.111552,31.287375],[121.111368,31.286082]]]]}},{"type":"Feature","properties":{"dt_adcode":"310120"},"geometry":{"type":"Polygon","coordinates":[[[121.570473,30.998351],[121.582937,30.999492],[121.584307,31.00082],[121.59468,31.000696],[121.595583,31.002047],[121.61249,31.001443],[121.614713,31.00125],[121.621157,30.992576],[121.654534,30.993258],[121.667517,30.992011],[121.672483,30.989884],[121.674553,30.991797],[121.692982,30.989336],[121.705503,30.98498],[121.721304,30.975144],[121.733388,30.966244],[121.737921,30.960639],[121.736861,30.958701],[121.743738,30.956583],[121.747861,30.951888],[121.751984,30.952725],[121.761025,30.947606],[121.760921,30.944614],[121.764546,30.941762],[121.761684,30.94013],[121.761475,30.938419],[121.764277,30.938518],[121.763843,30.936846],[121.766428,30.936534],[121.767989,30.938332],[121.77125,30.933928],[121.773027,30.933927],[121.773374,30.931551],[121.778732,30.930188],[121.777656,30.926719],[121.779407,30.922893],[121.777734,30.922597],[121.77952,30.922487],[121.781114,30.917565],[121.778409,30.90531],[121.777741,30.894881],[121.778807,30.894585],[121.776014,30.886421],[121.776681,30.881],[121.773127,30.880597],[121.768139,30.863266],[121.769695,30.817309],[121.681192,30.818403],[121.648424,30.816202],[121.601328,30.805082],[121.55283,30.7894],[121.517203,30.775392],[121.478769,30.756343],[121.446717,30.80558],[121.445426,30.804866],[121.44164,30.806828],[121.437022,30.8181],[121.434023,30.817029],[121.433859,30.818351],[121.420531,30.819796],[121.419291,30.816023],[121.415135,30.815804],[121.415517,30.819936],[121.414172,30.821753],[121.404781,30.823077],[121.400987,30.827401],[121.400684,30.830101],[121.403627,30.82988],[121.404209,30.833793],[121.397766,30.833791],[121.396984,30.827993],[121.393267,30.827687],[121.391721,30.829916],[121.387594,30.829859],[121.387594,30.832805],[121.383493,30.834052],[121.383224,30.835713],[121.380982,30.835197],[121.37907,30.843239],[121.38544,30.843176],[121.383773,30.85102],[121.384008,30.863486],[121.381905,30.863999],[121.382211,30.878958],[121.376909,30.880288],[121.367233,30.886669],[121.363268,30.886957],[121.356686,30.908617],[121.351528,30.91365],[121.355078,30.916344],[121.356052,30.919742],[121.352164,30.923805],[121.351156,30.930632],[121.355114,30.931086],[121.355636,30.934036],[121.362663,30.934757],[121.361212,30.944907],[121.364456,30.945472],[121.365464,30.947228],[121.362482,30.948902],[121.362857,30.95954],[121.360987,30.965578],[121.361101,30.972824],[121.35871,30.977858],[121.390657,30.987414],[121.409327,30.990227],[121.423972,30.994518],[121.440808,31.005784],[121.448302,31.007459],[121.459949,31.007396],[121.47636,31.01334],[121.489155,31.014954],[121.492883,31.01275],[121.491949,31.010034],[121.496212,30.997972],[121.498876,30.998214],[121.50475,31.003549],[121.517006,31.007629],[121.522239,31.002965],[121.520085,31.002563],[121.520318,30.999351],[121.524592,30.99915],[121.531963,30.994815],[121.534506,30.995852],[121.538236,30.993144],[121.545004,30.994026],[121.549539,30.988311],[121.551392,30.987958],[121.553479,30.992511],[121.552552,30.994661],[121.556224,30.993376],[121.555912,30.995147],[121.563499,30.995771],[121.570473,30.998351]]]}},{"type":"Feature","properties":{"dt_adcode":"310151"},"geometry":{"type":"MultiPolygon","coordinates":[[[[121.800564,31.363992],[121.792804,31.377577],[121.79387,31.380473],[121.81745,31.380588],[121.831746,31.375528],[121.845585,31.374587],[121.951729,31.337269],[122.041072,31.323811],[122.116671,31.321234],[122.121979,31.315438],[122.122684,31.307202],[122.105206,31.262136],[122.097771,31.255658],[122.087286,31.257541],[122.071999,31.266826],[122.016446,31.282289],[121.975783,31.279998],[121.932257,31.283148],[121.900758,31.291166],[121.865962,31.294935],[121.860789,31.294943],[121.852879,31.292363],[121.840559,31.295436],[121.833603,31.299651],[121.822615,31.307367],[121.806646,31.324173],[121.803756,31.328449],[121.80178,31.356974],[121.800564,31.363992]]],[[[121.770952,31.31168],[121.764248,31.315309],[121.749766,31.339062],[121.740767,31.346488],[121.727939,31.354803],[121.641039,31.401111],[121.572251,31.436067],[121.543277,31.462399],[121.510135,31.482575],[121.509349,31.489801],[121.516934,31.494302],[121.549922,31.48975],[121.562352,31.486372],[121.567342,31.483506],[121.575823,31.463808],[121.585567,31.454671],[121.606319,31.449408],[121.673842,31.427747],[121.697193,31.423993],[121.723713,31.412359],[121.742179,31.407206],[121.769386,31.390744],[121.787882,31.371636],[121.792379,31.363304],[121.793003,31.35507],[121.796011,31.345623],[121.795871,31.329982],[121.79877,31.310352],[121.796707,31.307357],[121.785489,31.311064],[121.778859,31.310198],[121.770952,31.31168]]],[[[122.241475,31.4184],[122.245214,31.421323],[122.247149,31.419332],[122.243392,31.417746],[122.241475,31.4184]]],[[[121.613861,31.447886],[121.586273,31.464076],[121.57612,31.474774],[121.575809,31.478199],[121.586896,31.479537],[121.60857,31.474449],[121.631616,31.456825],[121.636289,31.449878],[121.634004,31.445932],[121.631511,31.445099],[121.613861,31.447886]]],[[[121.200328,31.835144],[121.265578,31.864123],[121.281339,31.869038],[121.301902,31.872716],[121.315854,31.871483],[121.385049,31.833531],[121.405464,31.809838],[121.411494,31.806344],[121.416307,31.797643],[121.410903,31.795582],[121.42091,31.779601],[121.431488,31.769261],[121.464143,31.757141],[121.487748,31.75342],[121.49856,31.75326],[121.513043,31.743696],[121.539423,31.735498],[121.540124,31.733313],[121.549505,31.726968],[121.551384,31.727384],[121.565022,31.716706],[121.57854,31.710528],[121.599665,31.703118],[121.600909,31.706996],[121.602752,31.706938],[121.633275,31.696162],[121.642654,31.697459],[121.648492,31.695559],[121.648724,31.705501],[121.673583,31.699379],[121.817811,31.652027],[121.975185,31.617039],[121.988245,31.529596],[121.993863,31.51189],[121.995716,31.4931],[121.991697,31.476758],[121.981808,31.464095],[121.918046,31.434692],[121.89055,31.428787],[121.857813,31.430044],[121.834217,31.433976],[121.819178,31.438211],[121.763436,31.458228],[121.682858,31.491067],[121.625777,31.501769],[121.60879,31.506904],[121.547679,31.531128],[121.471172,31.57443],[121.43422,31.590338],[121.403519,31.590007],[121.395461,31.585441],[121.372212,31.553206],[121.345591,31.571686],[121.289106,31.616282],[121.145332,31.753923],[121.118496,31.759078],[121.149226,31.787289],[121.171808,31.816628],[121.200328,31.835144]]]]}}]}