{"type":"FeatureCollection","features":[{"type":"Feature","properties":{"dt_adcode":"710000"},"geometry":{"type":"MultiPolygon","coordinates":[[[[120.822369,21.760794],[120.819568,21.759587],[120.818621,21.760825],[120.819497,21.763106],[120.822698,21.762803],[120.822369,21.760794]]],[[[120.37375,22.323442],[120.363768,22.317243],[120.354415,22.317964],[120.348032,22.323158],[120.347707,22.327918],[120.348897,22.331488],[120.354848,22.337439],[120.357985,22.349556],[120.361772,22.353559],[120.373456,22.35886],[120.383626,22.359834],[120.393147,22.353559],[120.396474,22.346634],[120.395459,22.342294],[120.39158,22.33703],[120.383821,22.332593],[120.37375,22.323442]]],[[[119.451016,23.212353],[119.449377,23.198468],[119.447962,23.196753],[119.441482,23.197361],[119.438353,23.195425],[119.436284,23.186092],[119.419979,23.190179],[119.420203,23.193986],[119.423932,23.199734],[119.415506,23.208548],[119.414424,23.213365],[119.416215,23.215305],[119.444612,23.220502],[119.453376,23.217677],[119.451016,23.212353]]],[[[119.625644,23.250581],[119.624151,23.246151],[119.625325,23.242825],[119.620506,23.241451],[119.614733,23.243697],[119.61236,23.246486],[119.612997,23.249324],[119.621019,23.251555],[119.625644,23.250581]]],[[[119.684295,23.259141],[119.682382,23.252333],[119.679129,23.250568],[119.678248,23.244986],[119.67511,23.241309],[119.66914,23.248255],[119.670212,23.252271],[119.669255,23.258424],[119.674996,23.261187],[119.683377,23.26063],[119.684295,23.259141]]],[[[119.526692,23.261603],[119.526997,23.259653],[119.523908,23.257795],[119.520471,23.252252],[119.517499,23.252872],[119.515914,23.250797],[119.514257,23.251316],[119.514136,23.253763],[119.51801,23.256834],[119.519381,23.261356],[119.522923,23.262646],[119.526692,23.261603]]],[[[119.50772,23.270441],[119.514958,23.269661],[119.515299,23.264106],[119.510742,23.264682],[119.507404,23.267775],[119.50772,23.270441]]],[[[119.354065,23.295793],[119.349834,23.296343],[119.350185,23.298923],[119.352874,23.298991],[119.354065,23.295793]]],[[[119.342466,23.31948],[119.343407,23.315411],[119.339784,23.314841],[119.339988,23.320415],[119.342466,23.31948]]],[[[119.32493,23.325167],[119.325441,23.323264],[119.327439,23.320893],[119.323554,23.322038],[119.32493,23.325167]]],[[[119.528943,23.367319],[119.531181,23.370514],[119.53437,23.369932],[119.54156,23.372207],[119.545751,23.370286],[119.547465,23.362924],[119.536751,23.363189],[119.531942,23.360192],[119.530894,23.356086],[119.528514,23.355471],[119.527657,23.357528],[119.523897,23.358255],[119.522469,23.362799],[119.523421,23.364802],[119.529276,23.36469],[119.528943,23.367319]]],[[[119.499163,23.394673],[119.503387,23.388569],[119.505707,23.388502],[119.509931,23.391953],[119.513381,23.389316],[119.51231,23.380659],[119.513678,23.374922],[119.516058,23.372645],[119.514273,23.368649],[119.517129,23.369238],[119.519271,23.372397],[119.521115,23.371734],[119.521174,23.364986],[119.513737,23.361603],[119.513737,23.356348],[119.517485,23.351559],[119.51686,23.349919],[119.50859,23.351854],[119.495145,23.350162],[119.491932,23.352083],[119.492111,23.356741],[119.497823,23.364369],[119.495592,23.373423],[119.495831,23.378976],[119.498449,23.384045],[119.494166,23.393553],[119.499163,23.394673]]],[[[119.322503,23.407704],[119.32466,23.409958],[119.330908,23.405103],[119.334829,23.404964],[119.336422,23.402276],[119.331226,23.39664],[119.320886,23.393954],[119.318374,23.400297],[119.322454,23.404842],[119.322503,23.407704]]],[[[119.518401,23.487106],[119.522399,23.48614],[119.525521,23.49064],[119.541785,23.4961],[119.548643,23.492377],[119.548186,23.490506],[119.541861,23.488915],[119.534662,23.483812],[119.522703,23.482355],[119.514707,23.479627],[119.512461,23.48292],[119.51288,23.488346],[119.516916,23.489825],[119.518401,23.487106]]],[[[120.009253,23.486236],[120.054189,23.541487],[120.060116,23.545228],[120.061419,23.542947],[120.043304,23.521221],[120.032158,23.504387],[120.028475,23.493558],[120.017538,23.481053],[120.012355,23.470675],[120.008379,23.466495],[120.005816,23.469568],[120.006507,23.480174],[120.009253,23.486236]]],[[[119.520196,23.512558],[119.526289,23.512779],[119.526622,23.506664],[119.524385,23.505381],[119.518578,23.506353],[119.518102,23.508791],[119.520196,23.512558]]],[[[120.067771,23.538402],[120.074711,23.538287],[120.051568,23.513441],[120.048451,23.512007],[120.04781,23.514227],[120.053529,23.52401],[120.067771,23.538402]]],[[[119.621712,23.534324],[119.618352,23.532642],[119.614459,23.525422],[119.614179,23.521877],[119.616978,23.520852],[119.617164,23.51796],[119.612872,23.511426],[119.613245,23.505456],[119.611939,23.503682],[119.597297,23.507039],[119.579172,23.502805],[119.575446,23.503556],[119.57377,23.50589],[119.574609,23.515126],[119.573409,23.518522],[119.567346,23.520827],[119.561063,23.519951],[119.556779,23.525143],[119.556589,23.528486],[119.553107,23.529923],[119.550635,23.534087],[119.544595,23.53482],[119.543107,23.538648],[119.544224,23.544243],[119.547852,23.549926],[119.550364,23.553092],[119.553992,23.553178],[119.563298,23.529277],[119.570652,23.533371],[119.576239,23.530378],[119.579313,23.52543],[119.581828,23.525707],[119.584437,23.530743],[119.595061,23.528685],[119.598044,23.529524],[119.600096,23.543611],[119.590961,23.5452],[119.578941,23.54241],[119.570373,23.543727],[119.56637,23.546065],[119.565765,23.555535],[119.571631,23.554314],[119.573401,23.556084],[119.571445,23.558979],[119.563438,23.557032],[119.559995,23.558811],[119.560647,23.561515],[119.56316,23.56291],[119.562415,23.567856],[119.569397,23.573722],[119.56465,23.581753],[119.566326,23.584735],[119.57899,23.585185],[119.583183,23.591058],[119.587695,23.593261],[119.591475,23.587788],[119.594364,23.577245],[119.599119,23.574725],[119.60145,23.575751],[119.602476,23.582002],[119.607745,23.586434],[119.608399,23.590445],[119.605881,23.599773],[119.608026,23.603133],[119.620435,23.604538],[119.626409,23.607715],[119.632459,23.608614],[119.639754,23.599969],[119.642946,23.599062],[119.647051,23.59998],[119.65184,23.607959],[119.656401,23.609334],[119.659366,23.608656],[119.66598,23.598191],[119.670542,23.597972],[119.672824,23.602076],[119.67807,23.600036],[119.689246,23.583203],[119.690386,23.564757],[119.699281,23.559761],[119.702245,23.55635],[119.701104,23.550654],[119.691297,23.54722],[119.683314,23.546294],[119.661188,23.555363],[119.651153,23.554206],[119.624885,23.53386],[119.621712,23.534324]]],[[[119.516583,23.647706],[119.522532,23.648465],[119.535385,23.638877],[119.541426,23.637936],[119.546367,23.639656],[119.549195,23.637112],[119.545623,23.629299],[119.525566,23.624874],[119.527915,23.596776],[119.525148,23.591261],[119.519674,23.590621],[119.518662,23.588056],[119.521756,23.582375],[119.518869,23.574472],[119.523212,23.563712],[119.522439,23.562103],[119.518928,23.559724],[119.506554,23.561851],[119.500724,23.564376],[119.49638,23.560329],[119.489151,23.559783],[119.480523,23.556524],[119.472429,23.557143],[119.470822,23.560431],[119.47237,23.563054],[119.480702,23.566793],[119.484808,23.572693],[119.488676,23.573518],[119.494983,23.569558],[119.49766,23.56961],[119.506257,23.577495],[119.507744,23.582566],[119.506971,23.585613],[119.501379,23.589929],[119.496798,23.590957],[119.495966,23.592751],[119.498554,23.597729],[119.501053,23.597781],[119.503313,23.594849],[119.505395,23.594783],[119.506407,23.597049],[119.506348,23.601228],[119.510899,23.6102],[119.504772,23.616666],[119.506676,23.624004],[119.506438,23.630691],[119.507866,23.634209],[119.510662,23.635216],[119.512983,23.63909],[119.516583,23.647706]]],[[[119.611188,23.619851],[119.618556,23.617593],[119.618648,23.611358],[119.61452,23.607106],[119.608284,23.606034],[119.604372,23.608295],[119.604494,23.610343],[119.600797,23.613858],[119.601898,23.61557],[119.606817,23.615846],[119.611188,23.619851]]],[[[119.683658,23.618075],[119.681881,23.616711],[119.680683,23.618385],[119.68174,23.619624],[119.683658,23.618075]]],[[[119.596651,23.671101],[119.602152,23.672686],[119.606535,23.671381],[119.610732,23.667838],[119.612877,23.662894],[119.61549,23.660937],[119.61409,23.657951],[119.617355,23.650491],[119.616142,23.643214],[119.607932,23.643304],[119.606253,23.641064],[119.607279,23.635561],[119.615861,23.632579],[119.615208,23.62978],[119.609984,23.627726],[119.608584,23.620262],[119.604107,23.616996],[119.600284,23.620448],[119.592267,23.618771],[119.59292,23.626606],[119.597301,23.630523],[119.59814,23.634534],[119.591429,23.639854],[119.582391,23.654039],[119.582484,23.656278],[119.57764,23.657495],[119.573356,23.654328],[119.568793,23.647618],[119.566373,23.647342],[119.559392,23.649313],[119.554367,23.652774],[119.552786,23.656229],[119.554089,23.662289],[119.557439,23.666481],[119.586492,23.675957],[119.590126,23.675581],[119.596651,23.671101]]],[[[119.659683,23.659806],[119.669407,23.661047],[119.670974,23.658507],[119.665145,23.655342],[119.660516,23.65548],[119.658434,23.657555],[119.659683,23.659806]]],[[[119.576204,23.68666],[119.559021,23.677318],[119.555633,23.678488],[119.554296,23.682481],[119.554987,23.688749],[119.558739,23.692273],[119.566225,23.695572],[119.572619,23.695797],[119.576204,23.68666]]],[[[119.561886,23.716447],[119.563545,23.717447],[119.561031,23.712365],[119.562739,23.708157],[119.559738,23.706328],[119.558665,23.708287],[119.560373,23.714641],[119.557299,23.717263],[119.560081,23.718798],[119.561886,23.716447]]],[[[119.613318,23.753956],[119.617283,23.754579],[119.617187,23.750329],[119.62402,23.748233],[119.626409,23.745417],[119.627321,23.740646],[119.626556,23.73907],[119.621204,23.737966],[119.619818,23.733858],[119.612413,23.734618],[119.606514,23.724229],[119.603936,23.732586],[119.600117,23.733684],[119.59964,23.736407],[119.601358,23.739511],[119.608039,23.743949],[119.612673,23.750398],[119.613318,23.753956]]],[[[119.604935,23.789917],[119.602677,23.791001],[119.603482,23.79251],[119.605589,23.791988],[119.604935,23.789917]]],[[[119.60132,23.800257],[119.598239,23.800558],[119.598757,23.803206],[119.601721,23.802222],[119.60132,23.800257]]],[[[120.823606,21.752883],[120.819541,21.751744],[120.819038,21.754284],[120.82266,21.75478],[120.823606,21.752883]]],[[[121.617218,21.952694],[121.618762,21.948521],[121.618126,21.942775],[121.614463,21.940897],[121.610559,21.941349],[121.606111,21.949907],[121.617218,21.952694]]],[[[121.573437,22.08588],[121.575598,22.084435],[121.577326,22.079242],[121.575597,22.066553],[121.581072,22.055731],[121.573579,22.054297],[121.571418,22.051127],[121.572714,22.041031],[121.575019,22.037134],[121.582079,22.032512],[121.604573,22.022697],[121.606304,22.019814],[121.605005,22.011449],[121.600893,22.003156],[121.594547,21.99537],[121.584743,21.994943],[121.570191,22.000294],[121.564575,22.011984],[121.557664,22.017476],[121.54097,22.019099],[121.534064,22.022145],[121.521264,22.035592],[121.509833,22.042765],[121.507676,22.04854],[121.508827,22.059929],[121.511128,22.066124],[121.508972,22.070168],[121.499482,22.077985],[121.500776,22.085768],[121.50509,22.08763],[121.510554,22.087181],[121.52062,22.081526],[121.549535,22.082749],[121.573437,22.08588]]],[[[121.494813,22.677616],[121.499069,22.675871],[121.512874,22.677677],[121.514714,22.676401],[121.517934,22.662769],[121.515748,22.65885],[121.515748,22.651808],[121.508845,22.646749],[121.50758,22.644097],[121.509535,22.637858],[121.512871,22.634731],[121.513561,22.631842],[121.511835,22.629307],[121.498721,22.629116],[121.496076,22.635127],[121.491474,22.638258],[121.476517,22.641649],[121.474676,22.646156],[121.476748,22.653539],[121.473641,22.660243],[121.465583,22.670286],[121.466506,22.675616],[121.468233,22.676651],[121.483078,22.674187],[121.494813,22.677616]]],[[[120.274291,22.560197],[120.200415,22.721097],[120.180041,22.796729],[120.149135,22.896703],[120.132975,23.000352],[120.13139,23.002115],[120.099908,23.013589],[120.04474,23.039864],[120.029563,23.048636],[120.022152,23.060069],[120.018969,23.073102],[120.023207,23.107655],[120.027802,23.121413],[120.041573,23.147178],[120.05639,23.201839],[120.075083,23.262309],[120.077906,23.28099],[120.081432,23.291919],[120.097637,23.313425],[120.107847,23.341263],[120.121752,23.504658],[120.114369,23.525362],[120.101347,23.554078],[120.096239,23.570105],[120.094834,23.587456],[120.101352,23.628673],[120.103819,23.686881],[120.102762,23.700969],[120.105936,23.708014],[120.120709,23.727028],[120.134425,23.74075],[120.146018,23.762039],[120.175354,23.807398],[120.214324,23.828123],[120.245762,23.840532],[120.255474,23.851801],[120.259052,23.861828],[120.270147,23.910697],[120.278257,23.927782],[120.305049,23.953085],[120.316168,23.984888],[120.341919,24.027196],[120.357839,24.059382],[120.392037,24.118244],[120.451468,24.182704],[120.459195,24.21036],[120.470552,24.242592],[120.520999,24.312032],[120.546295,24.370432],[120.589196,24.432361],[120.642772,24.49016],[120.656887,24.535098],[120.672075,24.571762],[120.688677,24.600694],[120.70774,24.616933],[120.762375,24.658352],[120.823767,24.68831],[120.862099,24.732808],[120.881266,24.745821],[120.892275,24.767526],[120.900027,24.827331],[120.908484,24.851995],[120.927519,24.886537],[120.940404,24.905314],[120.960886,24.940237],[120.99517,24.973188],[121.009665,24.993669],[121.014788,25.005927],[121.019205,25.027258],[121.024684,25.040488],[121.034054,25.045447],[121.055781,25.047963],[121.068933,25.0538],[121.087274,25.066944],[121.102083,25.07514],[121.127437,25.0768],[121.13316,25.078732],[121.153383,25.096189],[121.209299,25.127094],[121.236396,25.132701],[121.31927,25.140694],[121.357239,25.152004],[121.371868,25.159867],[121.389875,25.181869],[121.400436,25.213915],[121.413467,25.238928],[121.44444,25.270604],[121.462369,25.282193],[121.485729,25.292877],[121.515394,25.303005],[121.535062,25.307528],[121.584982,25.308937],[121.602414,25.304355],[121.623027,25.294676],[121.642247,25.268102],[121.655304,25.241876],[121.659712,25.238449],[121.673834,25.232839],[121.687244,25.231807],[121.700304,25.226898],[121.705946,25.218804],[121.70524,25.202596],[121.707352,25.1915],[121.745253,25.161944],[121.750539,25.16071],[121.766564,25.161767],[121.782396,25.160433],[121.804197,25.155119],[121.820721,25.148747],[121.83513,25.137445],[121.842161,25.135318],[121.917094,25.137893],[121.928777,25.130097],[121.929879,25.125987],[121.928374,25.119932],[121.929788,25.083643],[121.941769,25.038471],[121.947419,25.031961],[121.980783,25.030807],[121.989967,25.027311],[122.009447,25.015314],[122.012752,25.007908],[122.012201,25.001451],[121.994647,24.985746],[121.932862,24.938653],[121.887414,24.888432],[121.870884,24.872769],[121.845043,24.836255],[121.840114,24.81301],[121.838354,24.783416],[121.838006,24.760162],[121.84152,24.734083],[121.862605,24.671509],[121.892503,24.617927],[121.894263,24.603482],[121.890036,24.552226],[121.885457,24.529684],[121.874197,24.512434],[121.870331,24.500815],[121.867514,24.478979],[121.859777,24.466662],[121.826735,24.423572],[121.815838,24.383085],[121.809157,24.339072],[121.787348,24.305292],[121.760605,24.271677],[121.717959,24.209317],[121.689026,24.174406],[121.680554,24.151148],[121.678084,24.133887],[121.664316,24.114667],[121.643848,24.09773],[121.638553,24.08434],[121.639969,24.064268],[121.645966,24.050543],[121.657963,24.029786],[121.661136,24.016056],[121.65937,24.006899],[121.641371,23.973942],[121.621616,23.920742],[121.587791,23.761021],[121.540308,23.591844],[121.523092,23.538694],[121.520988,23.517739],[121.523271,23.50135],[121.521514,23.483209],[121.510101,23.459196],[121.497804,23.419771],[121.479542,23.322305],[121.468471,23.304185],[121.440347,23.272085],[121.432961,23.257119],[121.425391,23.235629],[121.426441,23.226846],[121.415004,23.195986],[121.414831,23.189467],[121.418525,23.169991],[121.430318,23.137206],[121.430664,23.128745],[121.429086,23.123901],[121.422217,23.114392],[121.40954,23.102678],[121.390421,23.093537],[121.382044,23.092136],[121.370405,23.084367],[121.361579,23.055807],[121.354697,23.010064],[121.324684,22.945683],[121.308443,22.920631],[121.276335,22.877237],[121.244611,22.84586],[121.237921,22.836348],[121.210462,22.770647],[121.198153,22.751989],[121.170546,22.723142],[121.145052,22.705742],[121.078476,22.669646],[121.033277,22.650704],[121.0278,22.644084],[121.016918,22.614013],[121.014986,22.584178],[120.995448,22.56638],[120.981659,22.528288],[120.952683,22.42869],[120.930442,22.359963],[120.91493,22.302712],[120.903466,22.126439],[120.904169,22.119746],[120.910159,22.105662],[120.912268,22.086293],[120.910859,22.046939],[120.907332,22.033206],[120.902575,22.024225],[120.897115,22.01824],[120.883272,21.995149],[120.8718,21.989996],[120.86649,21.984376],[120.864028,21.972581],[120.864556,21.954446],[120.872886,21.897386],[120.867013,21.888944],[120.86209,21.885429],[120.854706,21.883328],[120.843096,21.885461],[120.83607,21.889349],[120.8213,21.903814],[120.781556,21.923947],[120.766421,21.927479],[120.757614,21.927835],[120.748479,21.921674],[120.743253,21.915559],[120.731779,21.914788],[120.711079,21.920054],[120.701551,21.927083],[120.67896,21.969123],[120.667672,21.983188],[120.65144,22.033162],[120.651441,22.045841],[120.662025,22.066987],[120.660968,22.106428],[120.659214,22.15432],[120.645271,22.226582],[120.640508,22.241366],[120.633104,22.25527],[120.5991,22.317503],[120.581676,22.344457],[120.569889,22.361731],[120.517558,22.408542],[120.505529,22.416038],[120.443536,22.441261],[120.369163,22.485875],[120.355233,22.492722],[120.2972,22.531331],[120.274291,22.560197]]],[[[121.953501,24.848754],[121.963022,24.84556],[121.965439,24.838994],[121.968993,24.837111],[121.968329,24.833327],[121.964775,24.831711],[121.961458,24.833405],[121.949805,24.832576],[121.944549,24.8346],[121.941377,24.840269],[121.937969,24.842627],[121.938395,24.844425],[121.946396,24.840939],[121.951037,24.847898],[121.953501,24.848754]]],[[[121.954038,25.414673],[121.942957,25.414085],[121.937182,25.415919],[121.933396,25.426597],[121.935384,25.432366],[121.941396,25.435069],[121.948167,25.435506],[121.952477,25.433387],[121.956407,25.428338],[121.956928,25.422951],[121.954038,25.414673]]],[[[122.120163,25.478168],[122.116936,25.473892],[122.1109,25.470958],[122.104781,25.471587],[122.097446,25.475276],[122.093716,25.484622],[122.095686,25.491831],[122.100883,25.496233],[122.107631,25.496987],[122.113415,25.495771],[122.117816,25.492376],[122.119828,25.488143],[122.120163,25.478168]]],[[[122.089062,25.630033],[122.089403,25.625874],[122.086016,25.620644],[122.082788,25.619794],[122.076377,25.623963],[122.075813,25.626133],[122.077838,25.629824],[122.084883,25.631364],[122.089062,25.630033]]],[[[123.548014,25.72651],[123.549854,25.725877],[123.548846,25.724962],[123.549129,25.724368],[123.548424,25.723993],[123.549017,25.723252],[123.54648,25.722229],[123.541955,25.728886],[123.545809,25.731673],[123.545821,25.729297],[123.548014,25.72651]]],[[[123.546704,25.728598],[123.546468,25.728562],[123.546491,25.728658],[123.546704,25.728598]]],[[[123.546518,25.729085],[123.546432,25.728801],[123.546327,25.729012],[123.546518,25.729085]]],[[[123.465825,25.732538],[123.465812,25.732034],[123.465597,25.732337],[123.465825,25.732538]]],[[[123.492683,25.737392],[123.492569,25.737285],[123.492552,25.737385],[123.492683,25.737392]]],[[[123.48065,25.737651],[123.480608,25.737192],[123.480391,25.737301],[123.48065,25.737651]]],[[[123.492986,25.737545],[123.492877,25.737343],[123.492807,25.737472],[123.492986,25.737545]]],[[[123.493549,25.737601],[123.493503,25.737514],[123.493495,25.737595],[123.493549,25.737601]]],[[[123.493333,25.737613],[123.493456,25.737508],[123.493324,25.737558],[123.493333,25.737613]]],[[[123.493269,25.737608],[123.493223,25.737541],[123.493197,25.737592],[123.493269,25.737608]]],[[[123.4947,25.737491],[123.495066,25.737669],[123.494887,25.737422],[123.4947,25.737491]]],[[[123.495104,25.73783],[123.495174,25.737726],[123.495096,25.737703],[123.495104,25.73783]]],[[[123.494519,25.73796],[123.494665,25.73766],[123.494553,25.737629],[123.494519,25.73796]]],[[[123.49488,25.738033],[123.494826,25.737684],[123.494723,25.737701],[123.49488,25.738033]]],[[[123.49704,25.738974],[123.497152,25.738734],[123.496933,25.738764],[123.49704,25.738974]]],[[[123.470523,25.745914],[123.481886,25.748891],[123.491182,25.747037],[123.49739,25.741968],[123.497822,25.739556],[123.4928,25.737612],[123.481558,25.738518],[123.478665,25.736744],[123.478314,25.735313],[123.476499,25.736164],[123.469571,25.732665],[123.463833,25.732651],[123.462232,25.737134],[123.463532,25.740437],[123.470523,25.745914]]],[[[123.491866,25.746963],[123.492193,25.747351],[123.492229,25.747032],[123.491866,25.746963]]],[[[123.544956,25.775927],[123.545682,25.776404],[123.546028,25.776129],[123.544956,25.775927]]],[[[123.54374,25.776098],[123.544606,25.776341],[123.544642,25.775809],[123.54374,25.776098]]],[[[123.560534,25.718351],[123.560702,25.718132],[123.560593,25.718056],[123.560534,25.718351]]],[[[123.560003,25.718501],[123.560127,25.718251],[123.559974,25.718132],[123.560003,25.718501]]],[[[123.560634,25.718643],[123.560869,25.718487],[123.560698,25.718469],[123.560634,25.718643]]],[[[123.560258,25.718771],[123.560142,25.718696],[123.56014,25.718789],[123.560258,25.718771]]],[[[123.560874,25.718858],[123.560707,25.718898],[123.560874,25.718946],[123.560874,25.718858]]],[[[123.56056,25.719191],[123.5605,25.719062],[123.560452,25.719174],[123.56056,25.719191]]],[[[123.54721,25.720031],[123.547129,25.719827],[123.547054,25.719923],[123.54721,25.720031]]],[[[123.547341,25.720211],[123.54745,25.719863],[123.547212,25.720134],[123.547341,25.720211]]],[[[123.556457,25.721998],[123.559768,25.717967],[123.549111,25.719508],[123.549916,25.722137],[123.556457,25.721998]]],[[[123.549086,25.720909],[123.548923,25.720581],[123.548861,25.720602],[123.549086,25.720909]]],[[[123.548192,25.721214],[123.548468,25.720951],[123.548195,25.721001],[123.548192,25.721214]]],[[[123.5488,25.721526],[123.548579,25.721419],[123.54871,25.721606],[123.5488,25.721526]]],[[[123.54934,25.725126],[123.549194,25.724838],[123.54907,25.724885],[123.54934,25.725126]]],[[[123.571639,25.752646],[123.570882,25.751854],[123.570004,25.752516],[123.571639,25.752646]]],[[[123.585742,25.754917],[123.583237,25.754455],[123.581076,25.757053],[123.584034,25.762079],[123.586587,25.760481],[123.587189,25.758067],[123.585742,25.754917]]],[[[123.54726,25.776964],[123.547095,25.776833],[123.547102,25.776969],[123.54726,25.776964]]],[[[123.547424,25.777204],[123.547835,25.778944],[123.548828,25.777837],[123.547424,25.777204]]],[[[123.569249,25.780397],[123.567365,25.77932],[123.561958,25.780122],[123.561066,25.784753],[123.563134,25.786105],[123.566192,25.785577],[123.569249,25.780397]]],[[[123.551386,25.7808],[123.549757,25.785974],[123.552844,25.791192],[123.555275,25.789158],[123.555197,25.783761],[123.551386,25.7808]]],[[[123.691124,25.916952],[123.69098,25.917012],[123.691105,25.917034],[123.691124,25.916952]]],[[[123.693413,25.918891],[123.693351,25.918675],[123.693201,25.918849],[123.693413,25.918891]]],[[[124.560315,25.919654],[124.56313,25.920227],[124.565605,25.919129],[124.559521,25.917508],[124.560315,25.919654]]],[[[123.684048,25.925814],[123.689203,25.924317],[123.692275,25.92056],[123.692795,25.920349],[123.691863,25.91731],[123.685891,25.915917],[123.680213,25.91963],[123.680557,25.922238],[123.684048,25.925814]]],[[[123.691282,25.921878],[123.692376,25.921848],[123.691552,25.921541],[123.691282,25.921878]]],[[[123.690378,25.923293],[123.690234,25.923137],[123.69021,25.923254],[123.690378,25.923293]]],[[[123.69063,25.923842],[123.690483,25.923737],[123.690451,25.923845],[123.69063,25.923842]]]]}}]}