{"type":"FeatureCollection","features":[{"type":"Feature","properties":{"dt_adcode":"810001"},"geometry":{"type":"MultiPolygon","coordinates":[[[[114.171913,22.252441],[114.155126,22.250527],[114.153412,22.255572],[114.140353,22.269282],[114.122488,22.268343],[114.120451,22.272254],[114.120893,22.277697],[114.123841,22.281324],[114.143819,22.292886],[114.156254,22.293144],[114.172946,22.287709],[114.173948,22.264625],[114.173394,22.254815],[114.171913,22.252441]]],[[[114.12053,22.281431],[114.116351,22.280071],[114.115736,22.281009],[114.117808,22.283741],[114.12053,22.281431]]],[[[114.121076,22.283396],[114.122454,22.283621],[114.122774,22.282401],[114.121778,22.282042],[114.121076,22.283396]]]]}},{"type":"Feature","properties":{"dt_adcode":"810002"},"geometry":{"type":"Polygon","coordinates":[[[114.186278,22.286391],[114.187498,22.279487],[114.19097,22.280539],[114.192337,22.277204],[114.195125,22.275761],[114.200866,22.276849],[114.206555,22.268422],[114.209725,22.268408],[114.212661,22.271708],[114.214826,22.268893],[114.216325,22.265811],[114.214479,22.264028],[114.205281,22.26124],[114.204493,22.252297],[114.19334,22.250695],[114.172839,22.252306],[114.173948,22.264625],[114.172946,22.287709],[114.181888,22.284798],[114.186278,22.286391]]]}},{"type":"Feature","properties":{"dt_adcode":"810003"},"geometry":{"type":"Polygon","coordinates":[[[114.204493,22.252297],[114.205281,22.26124],[114.214479,22.264028],[114.216325,22.265811],[114.214826,22.268893],[114.212661,22.271708],[114.209725,22.268408],[114.206555,22.268422],[114.200866,22.276849],[114.195125,22.275761],[114.192337,22.277204],[114.19097,22.280539],[114.187498,22.279487],[114.186278,22.286391],[114.215556,22.29627],[114.249497,22.279811],[114.248473,22.275834],[114.249523,22.272695],[114.263082,22.258661],[114.261424,22.256575],[114.261615,22.248203],[114.255896,22.242807],[114.255688,22.240831],[114.248168,22.248947],[114.241482,22.250221],[114.236844,22.249002],[114.218498,22.253364],[114.204493,22.252297]]]}},{"type":"Feature","properties":{"dt_adcode":"810004"},"geometry":{"type":"MultiPolygon","coordinates":[[[[114.228815,22.203945],[114.227636,22.20343],[114.226259,22.204737],[114.227627,22.204866],[114.228815,22.203945]]],[[[114.193069,22.2138],[114.193043,22.212003],[114.189909,22.210658],[114.188021,22.213876],[114.189277,22.215091],[114.193069,22.2138]]],[[[114.264364,22.222752],[114.262099,22.222222],[114.260094,22.223731],[114.263141,22.224018],[114.264364,22.222752]]],[[[114.128543,22.267858],[114.136932,22.269733],[114.142215,22.268221],[114.153412,22.255572],[114.155516,22.250359],[114.164745,22.252488],[114.19334,22.250695],[114.208329,22.25331],[114.218498,22.253364],[114.236844,22.249002],[114.241482,22.250221],[114.248827,22.248763],[114.259956,22.233952],[114.2598,22.229038],[114.265406,22.227937],[114.264686,22.226202],[114.257804,22.223957],[114.260572,22.218768],[114.261612,22.210127],[114.266611,22.205799],[114.266012,22.201113],[114.261603,22.203422],[114.259573,22.202343],[114.246934,22.203925],[114.240266,22.21315],[114.238298,22.213867],[114.225765,22.207222],[114.22592,22.202204],[114.229629,22.196262],[114.229404,22.193624],[114.22572,22.191693],[114.217637,22.190954],[114.215315,22.193419],[114.212631,22.209674],[114.207279,22.207306],[114.201883,22.207226],[114.200914,22.210528],[114.202992,22.216169],[114.195711,22.220952],[114.196391,22.222567],[114.200646,22.223065],[114.201339,22.229761],[114.200058,22.232614],[114.194672,22.233181],[114.188785,22.239119],[114.18598,22.239551],[114.179322,22.225794],[114.170821,22.227786],[114.166094,22.225973],[114.162354,22.23059],[114.153531,22.235138],[114.146344,22.242354],[114.138532,22.246524],[114.122488,22.268343],[114.128543,22.267858]]],[[[114.193772,22.233551],[114.194629,22.231638],[114.189399,22.22914],[114.186672,22.231575],[114.187651,22.233773],[114.193772,22.233551]]],[[[114.146578,22.240989],[114.144647,22.240141],[114.142638,22.240661],[114.145504,22.241309],[114.146578,22.240989]]]]}},{"type":"Feature","properties":{"dt_adcode":"810005"},"geometry":{"type":"Polygon","coordinates":[[[114.154436,22.293106],[114.154187,22.319873],[114.160732,22.323381],[114.163027,22.321869],[114.179458,22.32378],[114.177787,22.318497],[114.179605,22.313651],[114.186054,22.305201],[114.192564,22.300213],[114.196702,22.289906],[114.181888,22.284798],[114.154436,22.293106]]]}},{"type":"Feature","properties":{"dt_adcode":"810006"},"geometry":{"type":"Polygon","coordinates":[[[114.154359,22.311515],[114.134006,22.311376],[114.131832,22.319011],[114.146411,22.327859],[114.136754,22.331468],[114.13542,22.336863],[114.142393,22.339069],[114.150975,22.337544],[114.152413,22.34166],[114.157522,22.3434],[114.177824,22.344393],[114.181917,22.330822],[114.179458,22.32378],[114.163027,22.321869],[114.160732,22.323381],[114.154187,22.319873],[114.154359,22.311515]]]}},{"type":"Feature","properties":{"dt_adcode":"810007"},"geometry":{"type":"Polygon","coordinates":[[[114.184316,22.345975],[114.18687,22.339993],[114.198627,22.328275],[114.208196,22.332523],[114.209503,22.32543],[114.206506,22.319928],[114.215159,22.312782],[114.212924,22.309888],[114.223578,22.300493],[114.225034,22.291668],[114.215556,22.29627],[114.196702,22.289906],[114.192564,22.300213],[114.182911,22.308664],[114.177891,22.317577],[114.181986,22.329889],[114.177824,22.344393],[114.184316,22.345975]]]}},{"type":"Feature","properties":{"dt_adcode":"810008"},"geometry":{"type":"Polygon","coordinates":[[[114.208196,22.332523],[114.198627,22.328275],[114.18687,22.339993],[114.184316,22.345975],[114.201286,22.350332],[114.201633,22.353552],[114.205789,22.35215],[114.208881,22.354319],[114.213611,22.35314],[114.228322,22.354564],[114.227117,22.34826],[114.230635,22.332988],[114.232325,22.331305],[114.218902,22.329622],[114.215991,22.3318],[114.211756,22.33096],[114.208196,22.332523]]]}},{"type":"Feature","properties":{"dt_adcode":"810009"},"geometry":{"type":"Polygon","coordinates":[[[114.208196,22.332523],[114.211756,22.33096],[114.215991,22.3318],[114.218902,22.329622],[114.234812,22.331531],[114.238686,22.320328],[114.243359,22.31836],[114.244747,22.321161],[114.245024,22.31591],[114.248962,22.316991],[114.24485,22.30645],[114.252829,22.296631],[114.249255,22.294167],[114.24589,22.286572],[114.246219,22.284314],[114.249584,22.281922],[114.249497,22.279811],[114.225034,22.291668],[114.223578,22.300493],[114.212924,22.309888],[114.215159,22.312782],[114.206506,22.319928],[114.209503,22.32543],[114.208196,22.332523]]]}},{"type":"Feature","properties":{"dt_adcode":"810010"},"geometry":{"type":"Polygon","coordinates":[[[114.158173,22.377115],[114.144422,22.373874],[114.143565,22.377931],[114.142049,22.378566],[114.126802,22.373138],[114.128578,22.368135],[114.126183,22.362624],[114.118454,22.357885],[114.115117,22.35724],[114.114996,22.364071],[114.088302,22.362534],[114.078482,22.358067],[114.082613,22.329378],[114.074797,22.329189],[114.070062,22.327074],[114.060746,22.312539],[113.986008,22.315524],[114.015753,22.332061],[114.022707,22.337864],[114.025648,22.343045],[114.025953,22.347819],[114.031634,22.349473],[114.032887,22.355611],[114.045891,22.363581],[114.040648,22.366161],[114.039552,22.369649],[114.036916,22.371287],[114.03756,22.373992],[114.041622,22.374274],[114.044779,22.377265],[114.054579,22.375265],[114.053866,22.379202],[114.055744,22.380696],[114.071091,22.380747],[114.071257,22.384894],[114.074871,22.388919],[114.07798,22.388869],[114.090032,22.397214],[114.098112,22.396241],[114.106084,22.403434],[114.11388,22.404129],[114.122367,22.40962],[114.12826,22.410992],[114.130184,22.414684],[114.151561,22.415435],[114.153699,22.410938],[114.172902,22.41204],[114.172002,22.408338],[114.173975,22.39965],[114.174069,22.388549],[114.165975,22.387197],[114.163836,22.381878],[114.158173,22.377115]]]}},{"type":"Feature","properties":{"dt_adcode":"810011"},"geometry":{"type":"MultiPolygon","coordinates":[[[[113.984225,22.324278],[113.983503,22.323568],[113.983355,22.324601],[113.984225,22.324278]]],[[[113.974177,22.328618],[113.972289,22.325968],[113.969923,22.326361],[113.970828,22.331254],[113.974177,22.328618]]],[[[113.987854,22.333483],[113.985157,22.330794],[113.985766,22.335703],[113.988298,22.337859],[113.987854,22.333483]]],[[[113.896692,22.342789],[113.8954,22.339133],[113.893718,22.33995],[113.893112,22.343585],[113.896692,22.342789]]],[[[113.89365,22.349612],[113.891699,22.347793],[113.890304,22.348527],[113.892133,22.350954],[113.89365,22.349612]]],[[[113.879003,22.354346],[113.880346,22.353696],[113.880233,22.352264],[113.879306,22.352642],[113.879003,22.354346]]],[[[113.882627,22.379336],[113.89034,22.376756],[113.888242,22.371576],[113.88969,22.370553],[113.886665,22.366891],[113.885113,22.367777],[113.885729,22.37485],[113.881656,22.377223],[113.882627,22.379336]]],[[[114.071909,22.390423],[114.071091,22.380747],[114.05504,22.380515],[114.053866,22.379202],[114.054579,22.375265],[114.044779,22.377265],[114.041622,22.374274],[114.03756,22.373992],[114.036916,22.371287],[114.039552,22.369649],[114.040648,22.366161],[114.045891,22.363581],[114.032887,22.355611],[114.031634,22.349473],[114.025953,22.347819],[114.018757,22.354828],[113.999838,22.358096],[113.97993,22.366087],[113.970204,22.366194],[113.960429,22.362651],[113.956403,22.359388],[113.959256,22.353259],[113.957062,22.352587],[113.951909,22.355067],[113.941393,22.35527],[113.920039,22.367869],[113.918191,22.373299],[113.92083,22.38091],[113.916691,22.395313],[113.914235,22.398964],[113.905221,22.402724],[113.918324,22.418231],[113.931043,22.422199],[113.941128,22.420094],[113.944656,22.413785],[113.955791,22.427646],[113.9678,22.427648],[113.971539,22.425594],[113.985424,22.423637],[113.992386,22.425359],[113.990184,22.419661],[113.996431,22.415758],[114.008389,22.414673],[114.007962,22.407109],[114.013801,22.406393],[114.014261,22.396383],[114.056936,22.396118],[114.057275,22.399929],[114.064402,22.400089],[114.064637,22.397158],[114.06216,22.396829],[114.062264,22.390649],[114.071909,22.390423]]]]}},{"type":"Feature","properties":{"dt_adcode":"810012"},"geometry":{"type":"Polygon","coordinates":[[[114.129066,22.418048],[114.12826,22.410992],[114.122367,22.40962],[114.11388,22.404129],[114.106084,22.403434],[114.098112,22.396241],[114.090032,22.397214],[114.07798,22.388869],[114.074871,22.388919],[114.072143,22.386017],[114.071909,22.390423],[114.062264,22.390649],[114.06216,22.396829],[114.064637,22.397158],[114.064402,22.400089],[114.057275,22.399929],[114.056936,22.396118],[114.014261,22.396383],[114.013801,22.406393],[114.007962,22.407109],[114.008389,22.414673],[113.996431,22.415758],[113.990184,22.419661],[113.992386,22.425359],[113.985424,22.423637],[113.971539,22.425594],[113.9678,22.427648],[113.955791,22.427646],[113.944656,22.413785],[113.941128,22.420094],[113.931043,22.422199],[113.942223,22.426196],[113.95774,22.447979],[113.977666,22.456826],[113.985959,22.471146],[113.998655,22.482224],[114.000953,22.490942],[114.01432,22.488552],[114.021211,22.480558],[114.024988,22.480528],[114.027059,22.483353],[114.026206,22.487734],[114.032906,22.492724],[114.028496,22.500757],[114.029166,22.503061],[114.031872,22.504141],[114.057076,22.499623],[114.061899,22.50221],[114.064091,22.50995],[114.069123,22.51378],[114.077003,22.515486],[114.082262,22.512473],[114.089388,22.517975],[114.092114,22.506338],[114.089493,22.50044],[114.091133,22.496454],[114.090629,22.489735],[114.094673,22.483604],[114.092354,22.460121],[114.118548,22.465138],[114.124251,22.460184],[114.129043,22.459599],[114.114897,22.436502],[114.119794,22.426545],[114.129066,22.418048]]]}},{"type":"Feature","properties":{"dt_adcode":"810013"},"geometry":{"type":"MultiPolygon","coordinates":[[[[114.204028,22.554192],[114.215322,22.553947],[114.218293,22.551725],[114.223007,22.552983],[114.230766,22.545941],[114.23102,22.541309],[114.232563,22.540043],[114.223828,22.538497],[114.215684,22.529713],[114.214678,22.524003],[114.218403,22.523837],[114.223117,22.525589],[114.226037,22.528852],[114.22907,22.526612],[114.232147,22.527972],[114.233213,22.532019],[114.237487,22.532343],[114.247017,22.547342],[114.251683,22.547491],[114.253956,22.545216],[114.261946,22.547342],[114.265696,22.546176],[114.262458,22.542322],[114.264515,22.538527],[114.267457,22.538287],[114.269002,22.534903],[114.271971,22.534757],[114.273281,22.532887],[114.273012,22.530971],[114.269123,22.52819],[114.268645,22.524121],[114.277492,22.523643],[114.279029,22.52772],[114.280766,22.526411],[114.286463,22.52656],[114.283649,22.521452],[114.284587,22.520377],[114.287271,22.52265],[114.291623,22.522373],[114.285481,22.515093],[114.283327,22.508596],[114.289268,22.508973],[114.290797,22.508287],[114.290189,22.506659],[114.297608,22.506122],[114.299216,22.503294],[114.30894,22.497333],[114.336871,22.509574],[114.341983,22.507841],[114.323613,22.497863],[114.319701,22.493116],[114.307696,22.488969],[114.287434,22.496356],[114.256433,22.494077],[114.253033,22.495583],[114.247578,22.501691],[114.239219,22.506043],[114.221069,22.48278],[114.191139,22.487425],[114.179963,22.487001],[114.172509,22.483391],[114.167816,22.474505],[114.161219,22.47435],[114.160552,22.478324],[114.153323,22.477634],[114.153409,22.471966],[114.148066,22.470303],[114.132041,22.460343],[114.124251,22.460184],[114.118548,22.465138],[114.092606,22.459787],[114.092719,22.473154],[114.094533,22.476946],[114.094673,22.483604],[114.090629,22.489735],[114.091133,22.496454],[114.089492,22.499353],[114.092097,22.505893],[114.089754,22.513244],[114.090344,22.520993],[114.084284,22.525053],[114.084021,22.527553],[114.090355,22.529317],[114.096661,22.534478],[114.101949,22.531242],[114.112211,22.531685],[114.114268,22.533793],[114.114737,22.528107],[114.117608,22.526977],[114.128095,22.535754],[114.135503,22.539071],[114.139401,22.538809],[114.143022,22.540777],[114.149733,22.538509],[114.153136,22.539114],[114.153474,22.541305],[114.156721,22.543976],[114.154609,22.545928],[114.156877,22.551621],[114.160765,22.552309],[114.166078,22.559117],[114.168534,22.556422],[114.1728,22.558514],[114.175509,22.556898],[114.182161,22.556946],[114.182626,22.552918],[114.185918,22.551318],[114.186797,22.552674],[114.194537,22.551586],[114.204028,22.554192]]],[[[114.215935,22.525546],[114.21538,22.52431],[114.215086,22.525308],[114.215935,22.525546]]],[[[114.232502,22.529402],[114.231713,22.52883],[114.232311,22.529558],[114.232502,22.529402]]],[[[114.285439,22.530226],[114.284588,22.529446],[114.284588,22.530086],[114.285439,22.530226]]],[[[114.277918,22.529793],[114.277293,22.530483],[114.277701,22.530612],[114.277918,22.529793]]],[[[114.282329,22.530295],[114.279958,22.528988],[114.279004,22.531995],[114.280132,22.532146],[114.282329,22.530295]]],[[[114.277362,22.533155],[114.276832,22.532718],[114.276911,22.533341],[114.277362,22.533155]]],[[[114.272162,22.53523],[114.272092,22.535953],[114.272596,22.535243],[114.272162,22.53523]]],[[[114.271016,22.539223],[114.269783,22.539228],[114.269983,22.539723],[114.271016,22.539223]]],[[[114.266554,22.542289],[114.264133,22.541691],[114.263213,22.542279],[114.266346,22.544106],[114.266554,22.542289]]],[[[114.261001,22.548384],[114.26035,22.548444],[114.260958,22.54872],[114.261001,22.548384]]],[[[114.267241,22.549256],[114.265644,22.548218],[114.265158,22.548743],[114.267241,22.549256]]],[[[114.275644,22.546763],[114.27343,22.548413],[114.272432,22.55118],[114.276078,22.5482],[114.275644,22.546763]]],[[[114.269897,22.549833],[114.269428,22.549374],[114.269376,22.549808],[114.269897,22.549833]]],[[[114.309861,22.49896],[114.308653,22.498025],[114.308549,22.498274],[114.309861,22.49896]]],[[[114.29574,22.506786],[114.295558,22.507447],[114.295966,22.507456],[114.29574,22.506786]]],[[[114.299676,22.511314],[114.299216,22.511671],[114.299477,22.511876],[114.299676,22.511314]]],[[[114.305528,22.511785],[114.305643,22.511375],[114.305401,22.511749],[114.305528,22.511785]]],[[[114.299477,22.510784],[114.303865,22.50925],[114.306594,22.510778],[114.309027,22.50787],[114.308497,22.509757],[114.313939,22.51471],[114.313,22.522291],[114.314469,22.5236],[114.320328,22.520859],[114.321832,22.516024],[114.324022,22.516397],[114.326587,22.513982],[114.32091,22.508741],[114.317015,22.507912],[114.315494,22.505205],[114.310748,22.506716],[114.307949,22.503124],[114.30383,22.501389],[114.300763,22.503748],[114.302518,22.506359],[114.299894,22.507955],[114.299477,22.510784]]],[[[114.29336,22.517794],[114.293994,22.516549],[114.291571,22.51599],[114.289494,22.51788],[114.29336,22.517794]]],[[[114.289451,22.522952],[114.288878,22.523392],[114.289512,22.523178],[114.289451,22.522952]]],[[[114.293065,22.523317],[114.292301,22.523743],[114.293048,22.523703],[114.293065,22.523317]]],[[[114.322624,22.529103],[114.322859,22.534866],[114.325067,22.535311],[114.327049,22.531002],[114.325405,22.528067],[114.326127,22.521889],[114.323988,22.519819],[114.312523,22.526151],[114.312271,22.530693],[114.314218,22.532836],[114.319651,22.527666],[114.322624,22.529103]]],[[[114.293109,22.529752],[114.293639,22.530258],[114.293726,22.530037],[114.293109,22.529752]]],[[[114.314949,22.537591],[114.310185,22.534149],[114.309542,22.536947],[114.312967,22.539547],[114.314949,22.537591]]],[[[114.336039,22.536707],[114.333848,22.538739],[114.33443,22.539866],[114.33636,22.539319],[114.336039,22.536707]]],[[[114.304449,22.533781],[114.299113,22.530563],[114.290155,22.530727],[114.293144,22.536332],[114.296516,22.537749],[114.297332,22.536147],[114.298688,22.536726],[114.291016,22.543899],[114.291434,22.545215],[114.295725,22.54559],[114.292772,22.549779],[114.294631,22.552203],[114.29855,22.55171],[114.298489,22.549033],[114.308682,22.548129],[114.309621,22.549409],[114.322321,22.547373],[114.316722,22.544215],[114.313202,22.545719],[114.313124,22.543968],[114.307839,22.541359],[114.303624,22.544764],[114.300522,22.544952],[114.299253,22.541449],[114.302477,22.540417],[114.302772,22.537739],[114.307256,22.533766],[114.310585,22.533433],[114.309663,22.529211],[114.304118,22.529588],[114.304449,22.533781]]]]}},{"type":"Feature","properties":{"dt_adcode":"810014"},"geometry":{"type":"MultiPolygon","coordinates":[[[[114.270384,22.436779],[114.279067,22.43585],[114.280534,22.441984],[114.283983,22.446581],[114.290854,22.45224],[114.294199,22.452218],[114.296476,22.456522],[114.303584,22.456706],[114.310033,22.46854],[114.317822,22.475153],[114.325741,22.478828],[114.328897,22.477343],[114.33007,22.470768],[114.336104,22.471324],[114.337564,22.467621],[114.336981,22.462665],[114.339416,22.462911],[114.342033,22.466147],[114.341364,22.472252],[114.344363,22.476878],[114.347893,22.476965],[114.350491,22.472228],[114.353811,22.459931],[114.352255,22.457283],[114.3461,22.454974],[114.345274,22.449682],[114.347438,22.44433],[114.347246,22.437705],[114.351828,22.438006],[114.355652,22.435207],[114.357286,22.436492],[114.358564,22.441143],[114.356991,22.441995],[114.35627,22.447992],[114.363945,22.451238],[114.364371,22.459775],[114.374268,22.455392],[114.376058,22.452189],[114.373902,22.441087],[114.369219,22.440293],[114.372034,22.432044],[114.372146,22.419585],[114.365949,22.407366],[114.3607,22.405405],[114.359701,22.408024],[114.353165,22.410689],[114.345515,22.416809],[114.335352,22.413974],[114.327815,22.417026],[114.32206,22.421754],[114.309335,22.423489],[114.307718,22.421533],[114.307996,22.415178],[114.306544,22.412611],[114.294648,22.411924],[114.292476,22.410081],[114.292362,22.402554],[114.289017,22.394855],[114.282651,22.39521],[114.278916,22.389075],[114.26592,22.387617],[114.259567,22.383249],[114.257928,22.398149],[114.254241,22.405876],[114.255439,22.417884],[114.253557,22.421716],[114.255778,22.427033],[114.255709,22.434684],[114.270384,22.436779]]],[[[114.226663,22.43848],[114.227459,22.436423],[114.226332,22.434847],[114.226067,22.435698],[114.226663,22.43848]]],[[[114.262851,22.443889],[114.262165,22.443797],[114.262356,22.444192],[114.262851,22.443889]]],[[[114.292262,22.456705],[114.292374,22.456169],[114.292088,22.456614],[114.292262,22.456705]]],[[[114.224239,22.459664],[114.227589,22.460581],[114.227541,22.457418],[114.225273,22.457056],[114.224239,22.459664]]],[[[114.342496,22.505471],[114.330828,22.496351],[114.321456,22.486314],[114.315388,22.483872],[114.311824,22.478668],[114.295025,22.470561],[114.282004,22.466203],[114.279659,22.463503],[114.270065,22.458887],[114.262608,22.449761],[114.253168,22.445497],[114.247721,22.446375],[114.246013,22.454042],[114.234093,22.466574],[114.228355,22.464832],[114.222151,22.464359],[114.219127,22.465724],[114.216849,22.464572],[114.214579,22.45754],[114.220599,22.454194],[114.225079,22.453768],[114.222324,22.452825],[114.222185,22.45003],[114.228519,22.448492],[114.23573,22.456398],[114.239814,22.45421],[114.234673,22.447471],[114.220859,22.443925],[114.212491,22.445213],[114.212257,22.451111],[114.207104,22.451119],[114.204566,22.447475],[114.203232,22.440411],[114.205301,22.437175],[114.214421,22.431608],[114.207059,22.426387],[114.202373,22.418633],[114.180434,22.415689],[114.176988,22.412379],[114.163613,22.411289],[114.153699,22.410938],[114.151561,22.415435],[114.129257,22.41381],[114.129066,22.418048],[114.119794,22.426545],[114.115009,22.435135],[114.116007,22.439902],[114.129043,22.459599],[114.153409,22.471966],[114.152976,22.477452],[114.160552,22.478324],[114.161219,22.47435],[114.167816,22.474505],[114.173625,22.484502],[114.184464,22.487383],[114.205486,22.484529],[114.214555,22.48474],[114.221069,22.48278],[114.239219,22.506043],[114.247578,22.501691],[114.253033,22.495583],[114.256433,22.494077],[114.287434,22.496356],[114.307696,22.488969],[114.319701,22.493116],[114.323613,22.497863],[114.341983,22.507841],[114.342496,22.505471]]],[[[114.295998,22.460994],[114.29539,22.460505],[114.295468,22.461397],[114.295998,22.460994]]],[[[114.335965,22.473817],[114.334617,22.474633],[114.335765,22.478148],[114.337017,22.477144],[114.335965,22.473817]]],[[[114.433242,22.462015],[114.432081,22.463534],[114.43202,22.464382],[114.433441,22.463293],[114.433242,22.462015]]],[[[114.337008,22.472891],[114.336086,22.471806],[114.336087,22.472865],[114.337008,22.472891]]],[[[114.371481,22.475258],[114.371871,22.470013],[114.369429,22.468152],[114.368091,22.463099],[114.363033,22.462896],[114.361695,22.472442],[114.358497,22.479247],[114.363426,22.483718],[114.365485,22.483754],[114.369752,22.481609],[114.368804,22.476982],[114.371481,22.475258]]],[[[114.33939,22.477186],[114.338008,22.476961],[114.338365,22.477873],[114.33939,22.477186]]],[[[114.377632,22.479762],[114.375243,22.480412],[114.374834,22.481491],[114.375868,22.481474],[114.377632,22.479762]]],[[[114.365833,22.493717],[114.362296,22.493176],[114.359707,22.498142],[114.364044,22.502448],[114.370352,22.502309],[114.365833,22.493717]]],[[[114.444848,22.54041],[114.447264,22.538526],[114.445133,22.535059],[114.438896,22.534381],[114.433732,22.536413],[114.429694,22.539816],[114.428611,22.548348],[114.435501,22.551883],[114.436514,22.544652],[114.440118,22.540743],[114.444848,22.54041]]]]}},{"type":"Feature","properties":{"dt_adcode":"810015"},"geometry":{"type":"MultiPolygon","coordinates":[[[[114.300456,22.256318],[114.302705,22.252184],[114.300712,22.249976],[114.30336,22.247478],[114.30341,22.244926],[114.301088,22.244367],[114.300611,22.238444],[114.295336,22.238401],[114.294809,22.235514],[114.292289,22.234714],[114.291122,22.235921],[114.29209,22.238667],[114.284482,22.242092],[114.285038,22.248079],[114.289657,22.252428],[114.29229,22.251635],[114.300456,22.256318]]],[[[114.317028,22.298386],[114.317262,22.298055],[114.316889,22.298065],[114.317028,22.298386]]],[[[114.317046,22.299211],[114.315863,22.299311],[114.316002,22.300014],[114.317046,22.299211]]],[[[114.315837,22.300332],[114.316272,22.301498],[114.316237,22.300286],[114.315837,22.300332]]],[[[114.315237,22.301607],[114.314907,22.302181],[114.315142,22.302197],[114.315237,22.301607]]],[[[114.313621,22.30176],[114.31349,22.302034],[114.313699,22.301928],[114.313621,22.30176]]],[[[114.314968,22.30418],[114.314525,22.304372],[114.314751,22.304535],[114.314968,22.30418]]],[[[114.313969,22.304664],[114.314168,22.30502],[114.314238,22.304686],[114.313969,22.304664]]],[[[114.314368,22.304821],[114.314681,22.304961],[114.314664,22.304724],[114.314368,22.304821]]],[[[114.314794,22.306414],[114.315064,22.306647],[114.315003,22.306386],[114.314794,22.306414]]],[[[114.299176,22.330093],[114.307016,22.322954],[114.306959,22.318785],[114.300441,22.320039],[114.297211,22.324505],[114.299176,22.330093]]],[[[114.291595,22.359501],[114.290857,22.360529],[114.292091,22.36158],[114.292325,22.361058],[114.291595,22.359501]]],[[[114.302943,22.363171],[114.301396,22.359593],[114.303116,22.351383],[114.299849,22.350463],[114.299762,22.35401],[114.297042,22.354809],[114.296443,22.359443],[114.291517,22.364528],[114.294663,22.367594],[114.29561,22.371542],[114.299363,22.373207],[114.301744,22.370807],[114.298616,22.370345],[114.299337,22.366798],[114.302943,22.363171]]],[[[114.301449,22.368441],[114.299884,22.367424],[114.299181,22.369156],[114.301449,22.368441]]],[[[114.306411,22.368018],[114.306064,22.369248],[114.306802,22.368615],[114.306411,22.368018]]],[[[114.305229,22.369903],[114.304239,22.372336],[114.304586,22.372955],[114.307428,22.371027],[114.305229,22.369903]]],[[[114.293221,22.37398],[114.290432,22.37057],[114.289103,22.371751],[114.293221,22.37398]]],[[[114.294802,22.372329],[114.295367,22.373217],[114.295671,22.372558],[114.294802,22.372329]]],[[[114.294559,22.376566],[114.292135,22.376962],[114.292517,22.377614],[114.294559,22.376566]]],[[[114.304013,22.376502],[114.3043,22.377438],[114.304412,22.376548],[114.304013,22.376502]]],[[[114.286888,22.375626],[114.284378,22.377049],[114.284169,22.379296],[114.287835,22.377369],[114.286888,22.375626]]],[[[114.28688,22.382869],[114.287053,22.383698],[114.287522,22.383232],[114.28688,22.382869]]],[[[114.318859,22.386298],[114.31766,22.387201],[114.318286,22.387456],[114.318859,22.386298]]],[[[114.289382,22.386545],[114.288634,22.387521],[114.289729,22.387255],[114.289382,22.386545]]],[[[114.350147,22.251406],[114.351068,22.252798],[114.352528,22.251074],[114.35192,22.250736],[114.350147,22.251406]]],[[[114.358153,22.255223],[114.357492,22.251113],[114.353206,22.250914],[114.352894,22.255593],[114.355545,22.255539],[114.356527,22.25883],[114.358153,22.255223]]],[[[114.350286,22.259722],[114.349991,22.260539],[114.350582,22.260215],[114.350286,22.259722]]],[[[114.356189,22.267653],[114.353824,22.261088],[114.350991,22.260317],[114.351217,22.265427],[114.354564,22.268594],[114.356189,22.267653]]],[[[114.318261,22.271395],[114.317053,22.273916],[114.31966,22.275213],[114.320938,22.271905],[114.318261,22.271395]]],[[[114.323695,22.297524],[114.32313,22.296862],[114.322643,22.297019],[114.323695,22.297524]]],[[[114.323974,22.297681],[114.323704,22.297989],[114.324061,22.297859],[114.323974,22.297681]]],[[[114.326269,22.29782],[114.323965,22.298121],[114.324269,22.298782],[114.326269,22.29782]]],[[[114.322166,22.301181],[114.322035,22.300541],[114.322026,22.301196],[114.322166,22.301181]]],[[[114.321853,22.300693],[114.321522,22.301178],[114.321731,22.301261],[114.321853,22.300693]]],[[[114.322896,22.309697],[114.323974,22.309408],[114.324079,22.308195],[114.323322,22.308291],[114.322896,22.309697]]],[[[114.332121,22.319718],[114.331704,22.320505],[114.332434,22.320231],[114.332121,22.319718]]],[[[114.334572,22.320903],[114.334694,22.321073],[114.334738,22.320912],[114.334572,22.320903]]],[[[114.325333,22.323029],[114.324674,22.323011],[114.324636,22.323431],[114.325333,22.323029]]],[[[114.330314,22.338417],[114.336469,22.330262],[114.335886,22.325636],[114.33186,22.322629],[114.324853,22.32379],[114.320203,22.335467],[114.321568,22.337685],[114.326984,22.339149],[114.330314,22.338417]]],[[[114.338077,22.331567],[114.338051,22.33416],[114.339564,22.33456],[114.340546,22.331885],[114.338077,22.331567]]],[[[114.375735,22.436734],[114.387036,22.435316],[114.397012,22.438911],[114.397793,22.436271],[114.405786,22.433972],[114.404197,22.429266],[114.405412,22.420744],[114.411927,22.410632],[114.410322,22.408228],[114.403007,22.407854],[114.395925,22.415506],[114.39352,22.416199],[114.39023,22.415582],[114.38561,22.411397],[114.384793,22.406261],[114.38217,22.404976],[114.380371,22.398056],[114.389256,22.389695],[114.392225,22.389243],[114.396488,22.385338],[114.397485,22.375294],[114.394585,22.371687],[114.396903,22.36502],[114.393439,22.361954],[114.387048,22.365597],[114.386006,22.360474],[114.382341,22.359403],[114.381298,22.357425],[114.384555,22.355068],[114.380977,22.353825],[114.379439,22.350478],[114.376155,22.348723],[114.372428,22.349831],[114.372602,22.347221],[114.370542,22.34611],[114.365494,22.347684],[114.36724,22.339257],[114.363755,22.332973],[114.361278,22.332349],[114.359392,22.333717],[114.355629,22.348029],[114.347675,22.343187],[114.345502,22.34353],[114.341381,22.348598],[114.341251,22.353819],[114.336861,22.357176],[114.334801,22.361406],[114.338305,22.369067],[114.338027,22.373153],[114.326178,22.378928],[114.322605,22.379134],[114.323971,22.38508],[114.320919,22.389069],[114.315217,22.388371],[114.314191,22.384862],[114.315382,22.381679],[114.310001,22.381012],[114.302257,22.38126],[114.301215,22.384231],[114.296028,22.384571],[114.290033,22.389768],[114.285143,22.388899],[114.283189,22.386705],[114.283883,22.380416],[114.281295,22.375843],[114.279505,22.366132],[114.280972,22.360711],[114.284524,22.357228],[114.284394,22.352419],[114.281101,22.34646],[114.274502,22.345892],[114.2784,22.328692],[114.283298,22.323114],[114.293686,22.320416],[114.299803,22.308952],[114.308806,22.308732],[114.311343,22.303711],[114.315533,22.300017],[114.317758,22.294589],[114.316428,22.289694],[114.310812,22.287065],[114.303372,22.280603],[114.309169,22.277434],[114.308873,22.270868],[114.313045,22.266061],[114.311749,22.261926],[114.306864,22.26077],[114.305822,22.257757],[114.303362,22.256857],[114.292666,22.266952],[114.288323,22.26776],[114.282616,22.259542],[114.276763,22.25927],[114.271528,22.26884],[114.267865,22.270775],[114.266928,22.277999],[114.270696,22.286402],[114.267389,22.292959],[114.261479,22.294265],[114.252004,22.285035],[114.249801,22.280906],[114.246219,22.284314],[114.249255,22.294167],[114.252829,22.296631],[114.244911,22.306034],[114.249092,22.316714],[114.245024,22.31591],[114.244747,22.321161],[114.243359,22.31836],[114.238686,22.320328],[114.234951,22.331448],[114.232325,22.331305],[114.230635,22.332988],[114.227117,22.34826],[114.227429,22.352692],[114.229475,22.354829],[114.229302,22.359597],[114.236374,22.360914],[114.244733,22.365942],[114.250179,22.371104],[114.251698,22.376819],[114.260391,22.378339],[114.259567,22.383249],[114.263021,22.386333],[114.278916,22.389075],[114.281982,22.394932],[114.289017,22.394855],[114.292362,22.402554],[114.292476,22.410081],[114.294648,22.411924],[114.306544,22.412611],[114.3085,22.423097],[114.32206,22.421754],[114.327815,22.417026],[114.335352,22.413974],[114.345515,22.416809],[114.353165,22.410689],[114.359701,22.408024],[114.361378,22.405462],[114.367905,22.409319],[114.372146,22.419585],[114.372034,22.432044],[114.369219,22.440293],[114.373902,22.441087],[114.375735,22.436734]]],[[[114.315973,22.378087],[114.322371,22.376233],[114.3225,22.369428],[114.326064,22.36229],[114.324308,22.361432],[114.324769,22.358314],[114.329141,22.356919],[114.333079,22.353327],[114.332392,22.347782],[114.331184,22.344991],[114.329254,22.344417],[114.328697,22.339499],[114.319508,22.341645],[114.316231,22.340036],[114.313945,22.340911],[114.307905,22.347869],[114.307462,22.351117],[114.310651,22.354568],[114.308783,22.362512],[114.310148,22.364698],[114.30821,22.363839],[114.306585,22.365065],[114.309157,22.369899],[114.30529,22.372857],[114.305004,22.377354],[114.315973,22.378087]]],[[[114.3322,22.360578],[114.331635,22.360208],[114.331802,22.360668],[114.3322,22.360578]]],[[[114.328359,22.36411],[114.329472,22.364859],[114.330315,22.364125],[114.329872,22.363562],[114.328359,22.36411]]],[[[114.333993,22.36334],[114.331759,22.362997],[114.329759,22.371021],[114.327934,22.367763],[114.325491,22.369432],[114.32603,22.374545],[114.334541,22.370877],[114.333993,22.36334]]],[[[114.319789,22.380932],[114.319015,22.381994],[114.319519,22.382127],[114.319789,22.380932]]],[[[114.323397,22.385113],[114.322232,22.382132],[114.320197,22.381167],[114.32058,22.385021],[114.323397,22.385113]]],[[[114.320954,22.386153],[114.320598,22.385994],[114.320659,22.386204],[114.320954,22.386153]]],[[[114.372561,22.261657],[114.372778,22.262044],[114.372874,22.261614],[114.372561,22.261657]]],[[[114.375585,22.262664],[114.374325,22.262445],[114.374203,22.263679],[114.375585,22.262664]]],[[[114.371719,22.263581],[114.371771,22.264637],[114.372388,22.264067],[114.371719,22.263581]]],[[[114.355155,22.268784],[114.355676,22.268999],[114.356302,22.268241],[114.355155,22.268784]]],[[[114.370908,22.318679],[114.374698,22.312711],[114.373461,22.310852],[114.376006,22.308207],[114.372909,22.307279],[114.372589,22.303794],[114.369617,22.305194],[114.369599,22.308074],[114.366556,22.311038],[114.365203,22.315925],[114.366574,22.318237],[114.370908,22.318679]]],[[[114.359217,22.315168],[114.354914,22.313414],[114.353645,22.309591],[114.351411,22.310462],[114.350446,22.315066],[114.352985,22.321098],[114.354584,22.322782],[114.357601,22.32198],[114.359722,22.324472],[114.362459,22.324236],[114.362433,22.321615],[114.359347,22.319557],[114.359217,22.315168]]],[[[114.371546,22.319269],[114.370541,22.319346],[114.370213,22.320104],[114.371546,22.319269]]],[[[114.373912,22.323163],[114.372669,22.32258],[114.372383,22.323473],[114.373912,22.323163]]],[[[114.371549,22.322661],[114.372157,22.323582],[114.372079,22.322609],[114.371549,22.322661]]],[[[114.372817,22.324258],[114.374016,22.323352],[114.372426,22.323905],[114.372817,22.324258]]],[[[114.377344,22.329563],[114.382356,22.326668],[114.383198,22.325152],[114.3773,22.325486],[114.375806,22.327435],[114.377344,22.329563]]],[[[114.37492,22.32891],[114.375268,22.332264],[114.37691,22.329552],[114.37492,22.32891]]],[[[114.37227,22.328956],[114.373591,22.327637],[114.371175,22.325433],[114.364771,22.327498],[114.365841,22.336331],[114.372227,22.337283],[114.373383,22.334286],[114.37227,22.328956]]],[[[114.380003,22.335772],[114.379534,22.336669],[114.380637,22.336241],[114.380003,22.335772]]],[[[114.356315,22.339711],[114.357237,22.339391],[114.356576,22.339136],[114.356315,22.339711]]],[[[114.375051,22.341529],[114.373878,22.342875],[114.375138,22.342894],[114.375051,22.341529]]],[[[114.371116,22.345173],[114.370299,22.345389],[114.370481,22.345604],[114.371116,22.345173]]],[[[114.395401,22.361495],[114.396755,22.362338],[114.397362,22.359765],[114.396321,22.359919],[114.395401,22.361495]]],[[[114.391991,22.398598],[114.390533,22.399478],[114.39187,22.39952],[114.391991,22.398598]]],[[[114.389829,22.400308],[114.390246,22.40145],[114.391705,22.400887],[114.391436,22.399778],[114.389829,22.400308]]],[[[114.392651,22.402781],[114.392547,22.403346],[114.392938,22.403083],[114.392651,22.402781]]],[[[114.407113,22.430796],[114.406653,22.431299],[114.407096,22.43124],[114.407113,22.430796]]],[[[114.406341,22.432742],[114.407374,22.433252],[114.406679,22.432447],[114.406341,22.432742]]],[[[114.401092,22.445323],[114.399451,22.445121],[114.399104,22.446203],[114.399929,22.446733],[114.401092,22.445323]]]]}},{"type":"Feature","properties":{"dt_adcode":"810016"},"geometry":{"type":"Polygon","coordinates":[[[114.214421,22.431608],[114.221941,22.426879],[114.22733,22.426734],[114.238165,22.428225],[114.242873,22.435427],[114.255709,22.434684],[114.255778,22.427033],[114.253557,22.421716],[114.255439,22.417884],[114.254345,22.404619],[114.257928,22.398149],[114.260617,22.378647],[114.251698,22.376819],[114.250179,22.371104],[114.244733,22.365942],[114.236374,22.360914],[114.229579,22.359931],[114.229336,22.354634],[114.213611,22.35314],[114.208881,22.354319],[114.205789,22.35215],[114.201633,22.353552],[114.201286,22.350332],[114.184801,22.34604],[114.176681,22.344158],[114.157522,22.3434],[114.151703,22.340622],[114.147954,22.343991],[114.146568,22.350487],[114.149565,22.357436],[114.147704,22.365244],[114.149324,22.374511],[114.158173,22.377115],[114.163836,22.381878],[114.165975,22.387197],[114.174069,22.388549],[114.173975,22.39965],[114.172002,22.408338],[114.172902,22.41204],[114.177352,22.412546],[114.180434,22.415689],[114.203239,22.418937],[114.207059,22.426387],[114.214421,22.431608]]]}},{"type":"Feature","properties":{"dt_adcode":"810017"},"geometry":{"type":"Polygon","coordinates":[[[114.082613,22.329378],[114.078482,22.358067],[114.088302,22.362534],[114.114996,22.364071],[114.115117,22.35724],[114.118454,22.357885],[114.126183,22.362624],[114.128578,22.368135],[114.126802,22.373138],[114.142049,22.378566],[114.143565,22.377931],[114.144422,22.373874],[114.149324,22.374511],[114.147704,22.365244],[114.149565,22.357436],[114.146568,22.350487],[114.147954,22.343991],[114.151703,22.340622],[114.151443,22.337947],[114.142393,22.339069],[114.13542,22.336863],[114.136754,22.331468],[114.146411,22.327859],[114.131564,22.318458],[114.134491,22.31113],[114.154359,22.311515],[114.154436,22.293106],[114.143819,22.292886],[114.146262,22.298044],[114.143863,22.303337],[114.129198,22.310594],[114.120992,22.32092],[114.094879,22.321051],[114.082613,22.329378]]]}},{"type":"Feature","properties":{"dt_adcode":"810018"},"geometry":{"type":"MultiPolygon","coordinates":[[[[113.928775,22.152425],[113.927655,22.151168],[113.927004,22.151209],[113.92749,22.152654],[113.928775,22.152425]]],[[[113.921925,22.159767],[113.921049,22.159402],[113.921344,22.160261],[113.921925,22.159767]]],[[[113.91093,22.159513],[113.915225,22.162588],[113.913724,22.164306],[113.914444,22.166705],[113.919583,22.166633],[113.92223,22.16472],[113.918159,22.163118],[113.918011,22.160331],[113.91966,22.159884],[113.920293,22.156928],[113.910843,22.156098],[113.9087,22.153497],[113.904371,22.156053],[113.90425,22.158493],[113.907121,22.160532],[113.91093,22.159513]]],[[[113.906879,22.170454],[113.906627,22.168348],[113.902794,22.168893],[113.905604,22.169409],[113.906879,22.170454]]],[[[113.912232,22.170177],[113.911833,22.170791],[113.912501,22.170353],[113.912232,22.170177]]],[[[113.910644,22.170687],[113.908771,22.170938],[113.909664,22.171897],[113.910644,22.170687]]],[[[113.930374,22.173411],[113.930331,22.173001],[113.93007,22.173191],[113.930374,22.173411]]],[[[113.929958,22.173475],[113.929072,22.173962],[113.929271,22.174247],[113.929958,22.173475]]],[[[113.931,22.176053],[113.929784,22.174532],[113.928325,22.176866],[113.928838,22.177325],[113.931,22.176053]]],[[[113.918247,22.18015],[113.920451,22.180926],[113.925851,22.176736],[113.923836,22.175674],[113.922057,22.17733],[113.921397,22.174544],[113.919843,22.176452],[113.918229,22.175141],[113.917196,22.178748],[113.912258,22.176217],[113.910089,22.176837],[113.911235,22.185013],[113.918247,22.18015]]],[[[113.997234,22.191573],[113.999566,22.191897],[113.999261,22.188236],[113.994997,22.185731],[113.987226,22.191402],[113.988105,22.195019],[113.992317,22.199349],[113.995737,22.198376],[113.997234,22.191573]]],[[[114.042428,22.206016],[114.046254,22.203047],[114.041557,22.197836],[114.037765,22.200436],[114.02736,22.193255],[114.026089,22.193446],[114.026533,22.194907],[114.02303,22.195208],[114.022061,22.198333],[114.026064,22.199076],[114.027909,22.202539],[114.031841,22.203093],[114.033311,22.205105],[114.031798,22.208635],[114.028466,22.20855],[114.026795,22.21081],[114.031129,22.214094],[114.030189,22.216272],[114.03152,22.218963],[114.040185,22.220817],[114.041002,22.218639],[114.037488,22.21602],[114.041158,22.214198],[114.035965,22.212549],[114.034756,22.208767],[114.039696,22.204764],[114.042428,22.206016]]],[[[113.951307,22.212402],[113.950377,22.211329],[113.950116,22.211601],[113.951307,22.212402]]],[[[113.84314,22.212332],[113.841279,22.212073],[113.840171,22.214978],[113.843625,22.214605],[113.84314,22.212332]]],[[[114.050014,22.25463],[114.049387,22.24761],[114.052596,22.243634],[114.049282,22.238262],[114.045166,22.240616],[114.043004,22.247012],[114.04016,22.246519],[114.037116,22.250906],[114.032836,22.250969],[114.031227,22.253878],[114.034203,22.256459],[114.046492,22.256102],[114.050014,22.25463]]],[[[114.059363,22.306869],[114.052939,22.303511],[114.037651,22.302472],[114.034066,22.299605],[114.03377,22.290455],[114.026992,22.286323],[114.029281,22.283274],[114.029358,22.276119],[114.027488,22.273632],[114.029732,22.266038],[114.029201,22.262557],[114.020552,22.26197],[114.015514,22.263598],[114.008178,22.268891],[114.005045,22.267322],[114.004757,22.264329],[114.016548,22.253426],[114.01794,22.250078],[114.006958,22.244381],[114.004669,22.239427],[114.010516,22.234869],[114.016086,22.235207],[114.018122,22.232156],[114.026458,22.228727],[114.021628,22.220736],[114.017616,22.220429],[114.016302,22.217086],[114.011081,22.214533],[114.009253,22.211943],[114.003283,22.210797],[113.996521,22.206299],[113.991709,22.206593],[113.985844,22.211194],[113.979015,22.220827],[113.981086,22.230157],[113.975666,22.230802],[113.966185,22.226775],[113.955568,22.225959],[113.94777,22.218403],[113.937586,22.215395],[113.93776,22.208049],[113.935562,22.204968],[113.910169,22.203169],[113.900022,22.211724],[113.899181,22.215813],[113.894967,22.216166],[113.890268,22.214147],[113.887364,22.206893],[113.876696,22.199889],[113.872434,22.198179],[113.864535,22.198719],[113.857381,22.192771],[113.850489,22.191067],[113.84887,22.191908],[113.850784,22.200272],[113.84604,22.205875],[113.8472,22.212381],[113.844162,22.216539],[113.842951,22.226634],[113.84644,22.232624],[113.852518,22.234749],[113.853073,22.240906],[113.863551,22.245214],[113.864331,22.249878],[113.857099,22.248984],[113.855931,22.254375],[113.863725,22.258717],[113.868852,22.257013],[113.874171,22.266628],[113.888929,22.270807],[113.890498,22.275058],[113.897798,22.28362],[113.897712,22.287314],[113.895076,22.292241],[113.899083,22.301221],[113.895203,22.303077],[113.893632,22.307048],[113.904054,22.313914],[113.901738,22.318133],[113.883705,22.312342],[113.882134,22.313252],[113.88081,22.319291],[113.886269,22.32293],[113.923411,22.333436],[113.925645,22.332939],[113.930194,22.327232],[113.944505,22.322268],[113.965416,22.322932],[113.969521,22.321236],[113.968495,22.310706],[113.963319,22.305753],[113.952477,22.305932],[113.949862,22.304468],[113.952313,22.298793],[113.955286,22.298449],[113.963376,22.304693],[113.969153,22.306156],[113.986008,22.315524],[114.060746,22.312539],[114.059363,22.306869]]],[[[114.255877,22.158974],[114.256081,22.157202],[114.253728,22.156899],[114.255877,22.158974]]],[[[114.261149,22.172764],[114.267589,22.17523],[114.269349,22.17801],[114.271778,22.178047],[114.276319,22.174356],[114.278819,22.169854],[114.276952,22.167073],[114.279669,22.159971],[114.271038,22.158976],[114.269669,22.161105],[114.266779,22.158341],[114.2653,22.153907],[114.259686,22.152411],[114.262102,22.157497],[114.256961,22.158553],[114.258569,22.161624],[114.255941,22.160695],[114.254861,22.163466],[114.261149,22.172764]]],[[[114.242422,22.172699],[114.241035,22.172341],[114.241365,22.173042],[114.242422,22.172699]]],[[[114.308346,22.178445],[114.306859,22.179742],[114.308815,22.180936],[114.309476,22.180097],[114.308346,22.178445]]],[[[114.262166,22.183249],[114.259493,22.177827],[114.255302,22.176236],[114.250939,22.178419],[114.250809,22.176427],[114.249031,22.175582],[114.248277,22.1856],[114.260006,22.187569],[114.262166,22.183249]]],[[[114.294373,22.185435],[114.294007,22.178397],[114.292122,22.177659],[114.288856,22.178542],[114.287249,22.182669],[114.288213,22.184405],[114.290593,22.184558],[114.292105,22.187651],[114.294373,22.185435]]],[[[114.309476,22.180768],[114.311258,22.186131],[114.311475,22.184531],[114.309476,22.180768]]],[[[114.294269,22.186426],[114.295711,22.186489],[114.294781,22.185082],[114.294269,22.186426]]],[[[114.056061,22.202971],[114.056496,22.202787],[114.056201,22.202693],[114.056061,22.202971]]],[[[114.132838,22.205077],[114.133956,22.20188],[114.140938,22.20662],[114.149295,22.206781],[114.154898,22.209707],[114.166093,22.206665],[114.162993,22.200369],[114.156274,22.200812],[114.148948,22.194091],[114.155329,22.181216],[114.154723,22.177763],[114.148774,22.179931],[114.14059,22.186419],[114.143777,22.178731],[114.143352,22.174846],[114.140078,22.175283],[114.136371,22.179086],[114.131199,22.174949],[114.120418,22.177807],[114.118434,22.180225],[114.119648,22.185836],[114.124476,22.189976],[114.124737,22.211561],[114.121028,22.216313],[114.119814,22.216053],[114.119216,22.211479],[114.113173,22.208202],[114.107906,22.20818],[114.105422,22.215979],[114.115481,22.222974],[114.112897,22.224961],[114.114839,22.228242],[114.110521,22.230273],[114.110912,22.232214],[114.121436,22.236526],[114.123248,22.238813],[114.128335,22.235571],[114.125917,22.227629],[114.131523,22.223306],[114.132432,22.218168],[114.135706,22.216179],[114.137682,22.219025],[114.140272,22.219195],[114.142385,22.216127],[114.141969,22.212404],[114.132838,22.205077]]],[[[114.139631,22.220428],[114.13789,22.221578],[114.14035,22.223785],[114.141398,22.222411],[114.139631,22.220428]]],[[[114.061263,22.259396],[114.056022,22.254282],[114.051744,22.256079],[114.051971,22.259114],[114.055327,22.261829],[114.060568,22.262364],[114.061263,22.259396]]],[[[114.085266,22.280253],[114.079848,22.279302],[114.079154,22.282206],[114.084971,22.284453],[114.085266,22.280253]]],[[[114.051129,22.287844],[114.045712,22.283345],[114.050842,22.284515],[114.054606,22.279979],[114.04699,22.276859],[114.042398,22.278382],[114.042868,22.281188],[114.040424,22.284903],[114.036641,22.286427],[114.049556,22.290086],[114.051129,22.287844]]],[[[114.062552,22.28499],[114.062222,22.286899],[114.065819,22.286217],[114.06462,22.284957],[114.062552,22.28499]]]]}}]}