{"type":"FeatureCollection","features":[{"type":"Feature","properties":{"dt_adcode":"820001"},"geometry":{"type":"MultiPolygon","coordinates":[[[[113.586193,22.194792],[113.583971,22.193288],[113.577001,22.193433],[113.57615,22.201038],[113.586501,22.201059],[113.586193,22.194792]]],[[[113.540623,22.201871],[113.538218,22.209386],[113.540073,22.210601],[113.546825,22.210293],[113.549457,22.214004],[113.555932,22.214074],[113.556009,22.212463],[113.567629,22.209103],[113.573696,22.205588],[113.575698,22.194264],[113.582019,22.182646],[113.559526,22.195349],[113.559381,22.198211],[113.550861,22.204448],[113.540623,22.201871]]]]}},{"type":"Feature","properties":{"dt_adcode":"820002"},"geometry":{"type":"Polygon","coordinates":[[[113.53954,22.194664],[113.540623,22.201871],[113.550558,22.204553],[113.555433,22.200743],[113.548722,22.195229],[113.548635,22.193311],[113.545952,22.192252],[113.53954,22.194664]]]}},{"type":"Feature","properties":{"dt_adcode":"820003"},"geometry":{"type":"Polygon","coordinates":[[[113.559538,22.195372],[113.556315,22.191999],[113.548575,22.193276],[113.548722,22.195229],[113.555433,22.200743],[113.559381,22.198211],[113.559538,22.195372]]]}},{"type":"Feature","properties":{"dt_adcode":"820004"},"geometry":{"type":"Polygon","coordinates":[[[113.540986,22.161571],[113.533314,22.179271],[113.538499,22.178441],[113.540611,22.182325],[113.542693,22.182878],[113.545858,22.189537],[113.540439,22.194489],[113.545848,22.192239],[113.548246,22.193533],[113.556315,22.191999],[113.559596,22.195369],[113.582019,22.182646],[113.586631,22.174166],[113.540986,22.161571]]]}},{"type":"Feature","properties":{"dt_adcode":"820005"},"geometry":{"type":"Polygon","coordinates":[[[113.533314,22.179271],[113.535336,22.185013],[113.534366,22.185627],[113.540439,22.194489],[113.545858,22.189537],[113.542693,22.182878],[113.540611,22.182325],[113.538499,22.178441],[113.533314,22.179271]]]}},{"type":"Feature","properties":{"dt_adcode":"820006"},"geometry":{"type":"Polygon","coordinates":[[[113.549079,22.149234],[113.544639,22.154084],[113.540986,22.161571],[113.586631,22.174166],[113.593091,22.162285],[113.601946,22.138113],[113.574199,22.151531],[113.569179,22.147555],[113.565691,22.151407],[113.560018,22.147805],[113.549079,22.149234]]]}},{"type":"Feature","properties":{"dt_adcode":"820007"},"geometry":{"type":"Polygon","coordinates":[[[113.553916,22.125216],[113.554638,22.142428],[113.549079,22.149234],[113.560018,22.147805],[113.565691,22.151407],[113.569179,22.147555],[113.574199,22.151531],[113.589178,22.14428],[113.582311,22.135821],[113.573184,22.132481],[113.568324,22.132349],[113.567474,22.128416],[113.553916,22.125216]]]}},{"type":"Feature","properties":{"dt_adcode":"820008"},"geometry":{"type":"Polygon","coordinates":[[[113.554448,22.107312],[113.553916,22.125216],[113.567474,22.128416],[113.568324,22.132349],[113.573184,22.132481],[113.582311,22.135821],[113.589178,22.14428],[113.601946,22.138113],[113.603681,22.132371],[113.580194,22.109694],[113.561046,22.106214],[113.554448,22.107312]]]}}]}